{"type":"FeatureCollection","features":[{"type":"Feature","geometry":{"type":"MultiPolygon","coordinates":[[[[22.538230000000112,38.34500999999909],[22.604230000000825,38.29493],[22.663899999999558,38.37536],[22.79061,38.23309999999947],[22.977419999999256,38.16916999999921],[23.136200000000827,38.1904599999998],[23.19737999999961,38.130960000000414],[23.165580000000773,38.07615000000078],[22.926900000000387,38.045829999999114],[22.962250000000495,37.94683000000077],[22.85793999999987,37.948889999999665],[22.06666000000041,38.26975999999922],[21.97107,38.39208999999937],[22.353139999999257,38.333080000000336],[22.458819999999832,38.4113099999995],[22.538230000000112,38.34500999999909]]],[[[55.73327000000063,26.96658000000025],[55.57987999999932,26.93167],[55.556070000000545,26.807259999999587],[55.467389999999796,26.758719999999812],[55.25091000000066,26.78534000000036],[54.837939999999435,26.519329999999172],[54.60533000000032,26.50905000000057],[54.55292,26.59089],[54.40029999999933,26.594049999999697],[54.32101,26.7209299999995],[53.72372,26.712439999999333],[53.607560000000376,26.77231000000029],[53.47818999999981,26.867340000000695],[53.47965,26.961090000000695],[52.71502999999939,27.2816899999998],[52.5898500000003,27.38992],[52.6830200000004,27.42713999999978],[52.51133999999911,27.595719999999346],[52.187809999999445,27.7183100000002],[52.07007999999951,27.828750000000582],[51.70050000000083,27.829610000000685],[51.45022000000063,27.952030000000377],[51.41424999999981,27.912640000000465],[51.11146999999983,28.477360000000772],[51.01108000000022,28.843409999999494],[50.88789,28.824969999999666],[50.8436099999999,28.877630000000863],[50.82028,28.953489999999874],[50.918030000000726,28.928110000000743],[50.92573000000084,29.05243999999948],[50.759249999999156,29.07539],[50.64422000000013,29.181080000000293],[50.63047,29.47233000000051],[50.1484,29.92821],[49.87514999999985,30.044920000000275],[49.12894000000051,30.067409999999654],[48.881279999999606,30.004360000000815],[48.20633000000089,29.531049999999595],[47.996580000000904,29.573609999999462],[47.70333000000028,29.37311000000045],[45.69607999999971,30.511979999999312],[45.387950000000274,30.40258999999969],[44.80025000000023,30.74201],[44.44333,31.28929000000062],[44.40627999999924,31.56509],[43.45300999999927,31.62241],[42.47549000000072,32.64880000000085],[41.06684999999925,33.73384000000078],[40.09754000000066,34.71877999999924],[38.89459999999963,34.564360000000306],[38.3692800000008,34.40969000000041],[37.3793399999995,33.2468000000008],[37.17136000000028,32.73819],[35.53541000000041,31.738020000000688],[34.61211999999978,31.37025],[34.177270000000135,30.68167],[33.36160000000018,30.10203],[32.64806999999928,29.787309999999707],[32.53570000000036,29.95799000000079],[32.48725999999988,29.943610000000263],[32.48681000000033,29.88923000000068],[32.22091999999975,29.734870000000228],[32.170790000000125,29.428610000000845],[32.35639000000083,28.800429999999324],[32.9988400000002,27.729670000000624],[33.21299,27.11577000000034],[33.712680000000546,26.10211999999956],[33.86120999999912,25.676260000000184],[33.85942000000068,25.321319999999105],[33.96364,24.856089999999313],[33.874180000000706,24.07469999999921],[33.601699999999255,23.342790000000605],[33.37105999999949,23.02958000000035],[33.21865000000071,22.92743999999948],[33.11499,22.89549000000079],[32.90755999999965,22.959199999999328],[32.17660000000069,23.306329999999434],[31.92153,23.572720000000118],[31.506719999999405,24.268270000000484],[30.784890000000814,25.928620000000592],[30.07781000000068,26.387660000000324],[29.749449999999342,26.81596],[29.149820000000545,27.2157100000004],[28.52165000000059,27.458409999999276],[27.83635999999933,27.658289999999397],[27.165349999999307,27.758229999999458],[26.39441000000079,28.000930000000153],[25.59491,28.41496],[25.225800000000163,28.721519999999146],[25.087610000000495,28.91606999999931],[24.963879999999335,29.2492000000002],[24.9733899999992,29.639429999999265],[25.35411000000022,30.6292799999992],[25.925180000000182,31.14324999999917],[26.22790999999961,31.564150000000154],[27.313169999999445,31.379499999999098],[27.434010000000853,31.23146000000088],[27.68094000000019,31.177739999999176],[27.87333000000035,31.23356000000058],[27.934540000000197,31.10996999999952],[28.448669999999765,31.07719999999972],[29.0564200000008,30.828489999999874],[29.5046399999992,30.942259999999806],[30.05297000000064,31.305560000000696],[30.221449999999095,31.279319999999643],[30.38422,31.45636999999988],[30.5989699999991,31.38415999999961],[30.900980000000345,31.41603000000032],[31.074220000000423,31.588959999999133],[31.543729999999414,31.443429999999353],[31.94633000000067,31.50796000000082],[32.050460000000385,31.370500000000902],[32.404529999999795,31.2201299999997],[32.56859000000077,31.059450000000652],[32.89803000000029,31.12735000000066],[33.01104999999916,31.078059999999823],[33.087900000000445,31.185090000000855],[33.17105000000083,31.04862999999932],[33.41744,31.15208999999959],[33.65006,31.111979999999676],[34.1963,31.29490000000078],[34.42652000000089,31.496030000000246],[34.66440999999941,31.831640000000334],[34.85432000000037,32.26231],[34.95759,32.811900000000605],[35.0624200000002,32.881320000000414],[35.123320000000604,33.13092999999935],[35.51087,33.924409999999625],[35.623349999999846,34.00174999999945],[35.65450000000055,34.292929999999615],[35.972499999999854,34.5870900000009],[35.866910000000644,34.92913000000044],[35.952149999999165,35.254430000000866],[35.92224999999962,35.39785999999913],[35.73992999999973,35.62774],[35.97404,36.048689999999624],[35.81576999999925,36.35606],[36.18728999999985,36.62082],[36.18674,36.822039999999106],[36.01512999999977,36.923650000000634],[35.63061000000016,36.73128999999972],[35.56211000000076,36.594600000000355],[35.41464000000087,36.562840000000506],[35.17431000000033,36.7206299999998],[34.66735999999946,36.804009999999835],[34.130049999999756,36.43663000000015],[34.026239999999234,36.280259999999544],[33.88318000000072,36.305930000000444],[33.562809999999445,36.126570000000356],[32.97163999999975,36.099669999999605],[32.780720000000656,36.03347000000031],[32.368640000000596,36.18856000000051],[32.00221000000056,36.54449000000022],[31.19109000000026,36.84297999999944],[30.695890000000873,36.8798599999991],[30.579429999999775,36.79233000000022],[30.567559999999503,36.54563000000053],[30.450520000000324,36.24028],[30.185009999999238,36.27950000000055],[29.813889999999446,36.19130000000041],[29.76122000000032,36.12514999999985],[29.34740000000056,36.22563000000082],[29.140260000000126,36.36599000000024],[29.07294,36.67864],[28.936170000000857,36.74127000000044],[28.86751,36.59329000000071],[28.77498999999989,36.68345000000045],[28.621680000000197,36.69568000000072],[28.59965000000011,36.79264999999941],[28.281740000000354,36.82275999999911],[28.211170000000493,36.67884000000049],[28.033359999999448,36.605830000000424],[28.05861,36.77614999999969],[27.976769999999306,36.77203],[28.020699999999124,36.899209999999584],[28.177229999999327,36.94677000000047],[28.195910000000367,37.02844],[27.442199999999502,36.97046000000046],[27.418649999999616,37.01555999999982],[27.273909999999887,36.94123000000036],[27.251140000000305,37.12613000000056],[27.489509999999427,37.10405999999966],[27.55272999999943,37.226409999999305],[27.38488999999936,37.35448],[27.21089000000029,37.36924],[27.22646999999961,37.51932999999917],[27.27850000000035,37.52680999999939],[27.167820000000575,37.692119999999704],[27.280319999999847,37.778190000000905],[27.27882999999929,37.981910000000425],[26.863540000000285,38.05993],[26.741249999999127,38.20967000000019],[26.59849000000031,38.08640999999989],[26.255380000000514,38.28052000000025],[26.473900000000867,38.357459999999264],[26.374050000000352,38.60654000000068],[26.431870000000345,38.676620000000185],[26.53016000000025,38.6569099999997],[26.700559999999314,38.37821000000076],[27.136000000000422,38.44093000000066],[27.038650000000416,38.536340000000564],[27.035219999999754,38.628570000000764],[26.788029999999708,38.61619000000064],[26.76647000000048,38.69578],[27.074130000000878,38.884539999999106],[27.05998,38.93361],[26.88257,38.91599999999926],[26.822720000000118,38.9738899999993],[26.886679999999615,39.09699],[26.60211999999956,39.28296000000046],[26.62437999999929,39.381680000000415],[26.724850000000515,39.348040000000765],[26.927050000000236,39.48358999999982],[26.931930000000648,39.58477],[26.083300000000236,39.49426999999923],[26.16313000000082,39.67852999999923],[26.184509999999136,39.99793999999929],[26.287249999999403,40.00587000000087],[26.430829999999332,40.14579000000049],[26.409669999999096,40.20563000000038],[26.27596000000085,40.076209999999264],[26.212789999999586,40.10841000000073],[26.2502199999999,40.3472899999997],[26.789570000000822,40.554299999999785],[26.823860000000423,40.63779000000068],[26.122269999999844,40.59777000000031],[26.040689999999813,40.82789000000048],[25.5801,40.860420000000886],[25.102740000000267,41.00321000000076],[24.8793399999995,40.908550000000105],[24.400050000000192,40.93993000000046],[24.334899999999834,40.83315000000039],[24.100259999999253,40.732099999999264],[23.816860000000815,40.78475000000071],[23.693699999999808,40.70282000000043],[23.875809999999547,40.54082000000017],[23.819439999999304,40.36340000000018],[23.707570000000487,40.290750000000116],[23.955439999999726,40.12752],[23.99102,39.94828000000052],[23.91763,39.95158000000083],[23.62840999999935,40.2240299999994],[23.431950000000143,40.27477999999974],[23.29874000000018,40.231589999999414],[22.905909999999494,40.375739999999496],[22.85932,40.49721999999929],[22.984049999999115,40.5692],[22.920609999999215,40.647000000000844],[22.775369999999384,40.60765999999967],[22.608389999999417,40.49296999999933],[22.64977,40.34943000000021],[22.557310000000143,40.09283999999934],[22.835010000000693,39.81308999999965],[22.91605999999956,39.62463000000025],[23.09015999999974,39.51512],[23.346690000000308,39.19759999999951],[23.317740000000413,39.1551500000005],[23.196640000000116,39.20237000000088],[23.14024000000063,39.2873299999992],[22.94938,39.354779999999664],[22.81815,39.215469999999186],[23.059429999999338,38.971120000000155],[22.755779999999504,38.87620000000061],[22.49106000000029,38.910359999999855],[21.03161,40.67305999999917],[20.689940000000206,40.574469999999565],[19.76195,40.69344],[19.349550000000818,40.631569999999556],[19.423290000000634,40.932049999999435],[19.489369999999326,40.98998000000029],[19.45749000000069,41.12954],[19.52002,41.26267999999982],[19.421759999999267,41.396779999999126],[22.90284000000065,43.02532000000065],[24.24717000000055,43.53739999999925],[24.435929999999644,43.732270000000426],[24.974609999999302,43.71625999999924],[25.375029999999242,43.61392],[25.746800000000803,43.70336999999927],[26.131129999999757,43.97489999999925],[26.335150000000795,44.0298700000003],[26.912319999999454,44.13286999999946],[27.440049999999246,44.11628000000019],[27.596040000000357,44.207689999999275],[27.92106000000058,44.24099000000024],[28.107420000000275,44.44068999999945],[27.848990000000413,44.83779999999933],[28.026490000000194,45.37954],[28.2141900000006,45.44966000000022],[28.531010000000606,45.2791500000003],[28.767760000000635,45.24851999999919],[28.799779999999373,45.34188],[28.94547000000057,45.30956999999944],[29.274279999999635,45.45082999999977],[29.484490000000733,45.42835000000014],[29.627339999999094,45.37261000000035],[29.677820000000793,45.2792100000006],[29.64869,44.943090000000666],[29.540549999999712,44.842969999999696],[29.181280000000697,44.800600000000486],[28.805249999999432,44.606519999999364],[28.654339999999138,44.28526000000056],[28.679050000000643,43.98265999999967],[28.591560000000754,43.73443000000043],[28.595509999999194,43.48056],[28.451129999999466,43.37557000000015],[28.107319999999163,43.38355000000047],[27.94708,43.196169999999256],[27.91237,42.75518000000011],[27.74055000000044,42.703380000000834],[27.74676,42.65360999999939],[27.49611999999979,42.4969],[27.728139999999257,42.4339400000008],[27.781880000000456,42.278190000000905],[28.029790000000503,42.0222],[28.055920000000697,41.92591],[27.998310000000856,41.86127999999917],[28.195229999999356,41.56784999999945],[28.71031000000039,41.35237000000052],[28.49237,41.0349499999993],[28.22761999999966,41.09319999999934],[28.027799999999843,41.054229999999734],[27.959360000000743,40.981910000000425],[27.730139999999665,41.038329999999405],[27.531569999999192,40.991149999999834],[27.28201000000081,40.69204],[26.712499999999636,40.46632999999929],[26.675820000000385,40.39278999999988],[26.994549999999435,40.39190000000053],[27.273549999999886,40.48188999999911],[27.4087,40.342060000000856],[27.762409999999363,40.32224999999926],[27.82115999999951,40.393630000000485],[27.660620000000563,40.4717099999998],[27.797500000000582,40.52506999999969],[27.999509999999646,40.500560000000405],[27.962579999999434,40.42612],[28.007579999999507,40.36738999999943],[28.284460000000763,40.41525999999976],[28.984990000000835,40.36247],[29.07861000000048,40.39694000000054],[29.072630000000572,40.47329],[28.920749999999316,40.471480000000156],[28.819799999999304,40.56888000000072],[29.50684,40.74041000000034],[29.672899999999572,40.649129999999786],[30.239219999999477,40.56823000000077],[31.528879999999845,40.55870999999934],[31.800139999999374,40.63486000000012],[31.91436000000067,40.74431],[32.0285700000004,41.144060000000536],[32.045169999999416,41.58073999999942],[32.26233999999931,41.70597000000089],[33.33748999999989,42.03736000000026],[34.508459999999104,41.982780000000275],[34.50843999999961,41.35678],[34.58487000000059,41.10560000000078],[34.467070000000604,41.092140000000654],[34.79717999999957,40.95975],[34.85317000000032,40.849420000000464],[34.75804000000062,40.7470400000002],[34.91451000000052,40.31172999999944],[35.651959999999235,39.901889999999185],[36.16371000000072,39.98653999999988],[36.92820000000029,39.70418000000063],[38.16827999999987,39.85107000000062],[38.38199999999961,39.825409999999465],[38.581099999999424,39.499149999999645],[39.346519999999146,39.16530000000057],[40.15029999999933,39.15608000000066],[41.31781000000046,38.82912000000033],[42.72141999999985,38.79623999999967],[44.26678999999967,39.01423000000068],[45.49271000000044,38.98783],[46.07285000000047,39.49988999999914],[46.37932,39.419159999999465],[46.88940999999977,39.64119000000028],[47.449580000000424,39.434080000000904],[46.86713000000054,39.121069999999236],[46.59447999999975,38.878749999999854],[46.79334000000017,38.4941400000007],[47.337219999999434,38.379580000000715],[47.77765,38.13909000000058],[47.849490000000515,38.04027999999926],[48.155720000000656,38.09037999999964],[48.459860000000845,37.90418999999929],[48.349130000000514,37.36175999999978],[48.4346800000003,37.24598999999944],[48.79762,37.05407000000014],[49.856110000000626,37.42915999999968],[50.02939999999944,37.417310000000725],[50.22516,37.3131599999997],[50.401920000000246,37.08150000000023],[50.789199999999255,36.86910999999964],[51.07577999999921,36.74308000000019],[51.81460999999945,36.58683000000019],[53.369800000000396,36.85961],[53.892939999999726,36.78564],[54.03463000000011,36.974340000000666],[53.888919999999416,37.447690000000875],[55.088879999999335,38.46146000000044],[56.17792,39.02894000000015],[57.329499999999825,38.09783000000061],[58.6580699999995,38.413870000000315],[58.94666999999936,38.09464999999909],[61.32307000000037,38.413870000000315],[62.512800000000425,38.98494000000028],[64.22601000000031,40.69815000000017],[64.74949000000015,41.031269999999495],[66.31992999999966,41.69751999999971],[67.27172000000064,41.88788000000022],[68.04414999999972,41.731659999999465],[67.96802000000025,41.24497999999949],[68.08013000000028,41.11341],[68.53916000000027,41.02194000000054],[68.90387,40.76110999999946],[69.11776,40.329719999999725],[69.31819,40.20829000000049],[69.8135999999995,40.27859999999964],[71.20387999999912,40.85222000000067],[71.5938700000006,40.873890000000756],[71.85498,40.95777000000089],[72.42804000000069,41.512220000000525],[73.10972000000038,41.77822000000015],[73.61722999999984,41.789199999999255],[74.0294300000005,41.41805000000022],[73.5535,40.555379999999786],[73.0300100000004,40.317440000000715],[72.3161799999998,40.17467000000033],[72.03064000000086,39.46083],[71.60233999999946,38.93735000000015],[71.21248000000014,38.31975000000057],[71.25214000000051,37.92792999999983],[71.54025999999976,37.94413999999961],[71.49187999999958,37.3093000000008],[71.55609,36.99115999999958],[72.04774,36.83037999999942],[72.51804000000084,37.00173],[73.5535,36.03441000000021],[73.61190999999963,35.544159999999465],[73.28304000000026,35.2838699999993],[73.69626000000062,34.51154999999926],[73.50590999999986,33.46458999999959],[73.07760000000053,33.03629],[71.64992999999959,31.84656],[71.22509999999966,31.646640000000843],[70.96964999999909,31.182189999999537],[70.85227999999915,30.5646],[71.06482999999935,30.15426],[70.98868000000039,29.564150000000154],[70.70314999999937,28.783690000000206],[70.4381599999997,28.709179999999833],[70.3056400000005,28.213620000000446],[69.50841000000037,27.70629],[68.69939999999951,26.80210000000079],[68.93808,25.1825000000008],[69.38587999999982,24.82427],[69.42002999999931,24.483179999999265],[69.3367500000004,24.590260000000853],[68.89718,24.73269000000073],[68.63743000000068,24.599780000000464],[68.30192999999963,24.621189999999842],[68.18771000000015,24.5355299999992],[67.74512999999934,24.485559999999168],[67.6237799999999,24.35707],[67.51670000000013,24.35707],[67.48100999999951,24.52124999999978],[66.9313600000005,24.72826999999961],[66.88139000000047,24.8282],[66.8456900000001,24.763960000000225],[66.65295999999944,24.82107],[66.73862,25.092319999999745],[66.69578999999976,25.11374000000069],[66.73862,25.399269999999888],[66.18182999999954,25.5920100000003],[65.99623000000065,25.363579999999274],[65.66071999999986,25.44210000000021],[65.48899999999958,25.37488999999914],[65.26855000000069,25.38514000000032],[65.18978000000061,25.309610000000248],[64.78055999999924,25.347750000000815],[64.65034999999989,25.27095],[64.66228000000046,25.159999999999854],[64.58459000000039,25.15942],[64.60601999999926,25.230359999999564],[64.54358999999931,25.270469999999477],[64.3999700000004,25.239670000000842],[64.14225000000079,25.32966999999917],[64.08366000000024,25.39214],[64.16122,25.45644],[64.03442,25.4633900000008],[63.96949999999924,25.40382999999929],[64.03606000000036,25.40613999999914],[64.06428000000051,25.32833000000028],[63.60521999999946,25.370950000000448],[63.45225000000028,25.28889],[63.501249999999345,25.20361000000048],[62.49446999999964,25.25286000000051],[62.36427999999978,25.17797000000064],[62.38681,25.099809999999707],[62.2806099999998,25.110559999999168],[62.31486000000041,25.168690000000424],[62.20336,25.21508],[62.069470000000365,25.168949999999313],[62.08914,25.116830000000846],[61.74883000000045,25.034719999999652],[61.78127999999924,25.19032999999945],[61.44964000000073,25.218909999999596],[61.51219999999921,25.161739999999554],[61.41459000000032,25.064080000000104],[60.62822000000051,25.282999999999447],[60.5934699999998,25.403689999999187],[60.50886,25.44557999999961],[60.400550000000294,25.3807199999992],[60.441860000000815,25.29947],[60.2868899999994,25.39089000000058],[60.19706000000042,25.328670000000784],[59.88731,25.358550000000832],[59.7774700000009,25.418830000000526],[59.5676399999993,25.399750000000495],[59.45896999999968,25.475060000000667],[59.11489000000074,25.438109999999142],[59.09541,25.485319999999774],[59.01463999999942,25.416670000000522],[58.76780999999937,25.579579999999623],[58.30154000000039,25.604489999999714],[58.137220000000525,25.556060000000798],[57.92555999999968,25.70730999999978],[57.79452999999921,25.67436000000089],[57.73531,25.747330000000147],[57.29975000000013,25.79189000000042],[57.18196999999964,26.093779999999242],[57.21586000000025,26.174409999999625],[57.06055000000015,26.36164],[57.066070000000764,26.663909999999305],[56.94131000000016,26.918610000000626],[56.95945000000029,27.06315],[56.85616999999911,27.02277999999933],[56.780329999999594,27.14013999999952],[56.35209000000032,27.19247],[55.73327000000063,26.96658000000025]]]]},"properties":{}},{"type":"Feature","geometry":{"type":"MultiPolygon","coordinates":[[[[24.619269999999233,40.579970000000685],[24.510270000000673,40.67453000000023],[24.55841,40.76534999999967],[24.7456600000005,40.76145],[24.770829999999478,40.61460000000079],[24.619269999999233,40.579970000000685]]]]},"properties":{}},{"type":"Feature","geometry":{"type":"MultiPolygon","coordinates":[[[[29.50792,40.74136999999973],[29.730279999999766,40.75230999999985],[29.583769999999276,40.69796999999926],[29.50792,40.74136999999973]]]]},"properties":{}},{"type":"Feature","geometry":{"type":"MultiPolygon","coordinates":[[[[27.62772000000041,40.58194999999978],[27.531310000000303,40.61276],[27.544920000000275,40.661089999999604],[27.65733,40.646020000000135],[27.62772000000041,40.58194999999978]]]]},"properties":{}},{"type":"Feature","geometry":{"type":"MultiPolygon","coordinates":[[[[23.883320000000822,40.38666000000012],[23.978300000000672,40.42124999999942],[24.152210000000196,40.360280000000785],[24.393400000000838,40.185489999999845],[24.376350000000457,40.137329999999565],[23.883320000000822,40.38666000000012]]]]},"properties":{}},{"type":"Feature","geometry":{"type":"MultiPolygon","coordinates":[[[[23.38472,40.14227000000028],[23.687630000000354,39.92115999999987],[23.360849999999118,39.9633300000005],[23.29034,40.08554],[23.329799999999523,40.18001],[23.38472,40.14227000000028]]]]},"properties":{}},{"type":"Feature","geometry":{"type":"MultiPolygon","coordinates":[[[[23.122059999999692,39.11503000000084],[23.196640000000116,39.20237000000088],[23.181070000000545,39.09677999999985],[23.122059999999692,39.11503000000084]]]]},"properties":{}},{"type":"Feature","geometry":{"type":"MultiPolygon","coordinates":[[[[23.681109999999535,39.15350000000035],[23.7534799999994,39.08895999999913],[23.679469999999128,39.079170000000886],[23.681109999999535,39.15350000000035]]]]},"properties":{}},{"type":"Feature","geometry":{"type":"MultiPolygon","coordinates":[[[[24.617990000000646,38.742560000000594],[24.43735000000015,38.88347000000067],[24.496429999999236,38.962499999999636],[24.64761,38.83302],[24.617990000000646,38.742560000000594]]]]},"properties":{}},{"type":"Feature","geometry":{"type":"MultiPolygon","coordinates":[[[[20.730069999999614,38.79032],[20.777130000000398,38.635920000000624],[20.61456,38.623530000000756],[20.5922300000002,38.75872999999956],[20.730069999999614,38.79032]]]]},"properties":{}},{"type":"Feature","geometry":{"type":"MultiPolygon","coordinates":[[[[20.63947,38.36787],[20.630189999999857,38.4646300000004],[20.730330000000322,38.35975999999937],[20.63947,38.36787]]]]},"properties":{}},{"type":"Feature","geometry":{"type":"MultiPolygon","coordinates":[[[[20.763230000000476,38.17590000000018],[20.80760999999984,38.10920000000078],[20.72947000000022,38.064109999999346],[20.537609999999404,38.09634],[20.43989,38.19664999999986],[20.393809999999576,38.15943999999945],[20.34618000000046,38.23371000000043],[20.423800000000483,38.35219999999936],[20.507400000000416,38.329649999999674],[20.53892000000087,38.45886000000064],[20.63947,38.36787],[20.60682000000088,38.29613000000063],[20.763230000000476,38.17590000000018]]]]},"properties":{}},{"type":"Feature","geometry":{"type":"MultiPolygon","coordinates":[[[[23.57307000000037,38.0044999999991],[23.55394999999953,37.9319200000009],[23.447879999999714,37.89455000000089],[23.493930000000546,38.03071000000091],[23.57307000000037,38.0044999999991]]]]},"properties":{}},{"type":"Feature","geometry":{"type":"MultiPolygon","coordinates":[[[[20.92217999999957,37.76670000000013],[20.779350000000704,37.69775999999911],[20.641050000000178,37.88056999999935],[20.726220000000467,37.905909999999494],[20.92217999999957,37.76670000000013]]]]},"properties":{}},{"type":"Feature","geometry":{"type":"MultiPolygon","coordinates":[[[[27.06931000000077,37.72052000000076],[26.87645,37.65080999999918],[26.59159,37.71430999999939],[26.700399999999718,37.8143799999998],[26.85757999999987,37.818859999999404],[27.019200000000637,37.80011000000013],[27.06931000000077,37.72052000000076]]]]},"properties":{}},{"type":"Feature","geometry":{"type":"MultiPolygon","coordinates":[[[[23.463299999999435,37.70197999999982],[23.42852,37.741149999999834],[23.52124999999978,37.7765],[23.463299999999435,37.70197999999982]]]]},"properties":{}},{"type":"Feature","geometry":{"type":"MultiPolygon","coordinates":[[[[26.00569,37.527830000000904],[26.083259999999427,37.642910000000484],[26.329540000000634,37.699319999999716],[26.277910000000702,37.5970699999998],[26.00569,37.527830000000904]]]]},"properties":{}},{"type":"Feature","geometry":{"type":"MultiPolygon","coordinates":[[[[24.31174,37.53950000000077],[24.26246,37.55106999999953],[24.284449999999197,37.650400000000445],[24.387300000000323,37.66835],[24.31174,37.53950000000077]]]]},"properties":{}},{"type":"Feature","geometry":{"type":"MultiPolygon","coordinates":[[[[25.181909999999334,37.53441000000021],[25.017830000000686,37.68609],[25.204610000000685,37.64137999999912],[25.2524599999997,37.592759999999544],[25.181909999999334,37.53441000000021]]]]},"properties":{}},{"type":"Feature","geometry":{"type":"MultiPolygon","coordinates":[[[[24.416149999999107,37.33598999999958],[24.36989999999969,37.35526000000027],[24.420860000000175,37.48569999999927],[24.416149999999107,37.33598999999958]]]]},"properties":{}},{"type":"Feature","geometry":{"type":"MultiPolygon","coordinates":[[[[24.8747800000001,37.39024000000063],[24.87956999999915,37.48305000000073],[24.949179999999615,37.4688100000003],[24.8747800000001,37.39024000000063]]]]},"properties":{}},{"type":"Feature","geometry":{"type":"MultiPolygon","coordinates":[[[[24.466839999999138,37.12910000000011],[24.41799,37.14141000000018],[24.48007999999936,37.2131700000009],[24.51426,37.14633999999933],[24.466839999999138,37.12910000000011]]]]},"properties":{}},{"type":"Feature","geometry":{"type":"MultiPolygon","coordinates":[[[[25.45267000000058,36.93029000000024],[25.38738999999987,37.09530000000086],[25.51959,37.19796999999926],[25.60318,37.11082999999962],[25.546770000000834,36.96863999999914],[25.45267000000058,36.93029000000024]]]]},"properties":{}},{"type":"Feature","geometry":{"type":"MultiPolygon","coordinates":[[[[25.09545000000071,37.0302300000003],[25.15381999999954,37.12228999999934],[25.265869999999268,37.13779000000068],[25.23171,36.999400000000605],[25.09545000000071,37.0302300000003]]]]},"properties":{}},{"type":"Feature","geometry":{"type":"MultiPolygon","coordinates":[[[[26.960619999999835,36.94328999999925],[26.92108,36.97847999999976],[26.98315999999977,37.05877],[27.04392999999982,36.992850000000544],[26.960619999999835,36.94328999999925]]]]},"properties":{}},{"type":"Feature","geometry":{"type":"MultiPolygon","coordinates":[[[[27.273909999999887,36.94123000000036],[27.31083000000035,36.8441899999998],[27.075230000000374,36.76531000000068],[27.04644,36.827470000000176],[27.273909999999887,36.94123000000036]]]]},"properties":{}},{"type":"Feature","geometry":{"type":"MultiPolygon","coordinates":[[[[25.950989999999365,36.87255],[25.888440000000628,36.79356999999982],[25.851810000000114,36.829680000000735],[25.950989999999365,36.87255]]]]},"properties":{}},{"type":"Feature","geometry":{"type":"MultiPolygon","coordinates":[[[[27.04644,36.827470000000176],[26.95269,36.69470999999976],[26.925520000000688,36.73979999999938],[27.04644,36.827470000000176]]]]},"properties":{}},{"type":"Feature","geometry":{"type":"MultiPolygon","coordinates":[[[[27.91802,36.74932000000081],[27.770689999999377,36.77568000000065],[27.850609999999506,36.80928],[27.91802,36.74932000000081]]]]},"properties":{}},{"type":"Feature","geometry":{"type":"MultiPolygon","coordinates":[[[[25.363279999999577,36.6561899999997],[25.25886,36.762080000000424],[25.29602999999952,36.79775999999947],[25.377909999999247,36.7464400000008],[25.363279999999577,36.6561899999997]]]]},"properties":{}},{"type":"Feature","geometry":{"type":"MultiPolygon","coordinates":[[[[27.653920000000653,36.79433000000063],[27.631349999999657,36.66623000000072],[27.430790000000343,36.6614699999991],[27.431790000000547,36.741869999999835],[27.653920000000653,36.79433000000063]]]]},"properties":{}},{"type":"Feature","geometry":{"type":"MultiPolygon","coordinates":[[[[24.365050000000338,36.64990000000034],[24.31408999999985,36.65926000000036],[24.34124999999949,36.75166],[24.512220000000525,36.76742000000013],[24.517789999999877,36.679229999999734],[24.365050000000338,36.64990000000034]]]]},"properties":{}},{"type":"Feature","geometry":{"type":"MultiPolygon","coordinates":[[[[27.834860000000845,36.538329999999405],[27.762109999999666,36.60857000000033],[27.847719999999754,36.66430000000037],[27.834860000000845,36.538329999999405]]]]},"properties":{}},{"type":"Feature","geometry":{"type":"MultiPolygon","coordinates":[[[[26.375519999999597,36.58561],[26.36518000000069,36.517620000000534],[26.26752999999917,36.543830000000526],[26.276009999999587,36.593329999999696],[26.375519999999597,36.58561]]]]},"properties":{}},{"type":"Feature","geometry":{"type":"MultiPolygon","coordinates":[[[[28.15006,36.22878],[28.083950000000186,36.10078000000067],[27.942849999999453,36.04416999999921],[27.851629999999204,35.91432999999961],[27.752959999999803,35.91744],[27.75980999999956,36.07010000000082],[27.69801,36.14321000000018],[27.835269999999582,36.292489999999816],[28.21184,36.447589999999764],[28.15006,36.22878]]]]},"properties":{}},{"type":"Feature","geometry":{"type":"MultiPolygon","coordinates":[[[[25.443310000000565,36.4351800000004],[25.47226000000046,36.36629],[25.390520000000834,36.380300000000716],[25.443310000000565,36.4351800000004]]]]},"properties":{}},{"type":"Feature","geometry":{"type":"MultiPolygon","coordinates":[[[[23.018840000000637,36.14300999999978],[22.93319,36.188819999999396],[22.94521999999961,36.3786999999993],[23.066759999999704,36.288979999999356],[23.018840000000637,36.14300999999978]]]]},"properties":{}},{"type":"Feature","geometry":{"type":"MultiPolygon","coordinates":[[[[27.185589999999138,35.595330000000104],[27.23048000000017,35.47378000000026],[27.130370000000767,35.41667000000052],[27.081309999999576,35.59469],[27.204569999999876,35.72635000000082],[27.185589999999138,35.595330000000104]]]]},"properties":{}},{"type":"Feature","geometry":{"type":"MultiPolygon","coordinates":[[[[26.915349999999307,35.33496000000014],[26.910369999999602,35.40642999999909],[26.986179999999877,35.39825000000019],[26.915349999999307,35.33496000000014]]]]},"properties":{}}]}