{"type":"FeatureCollection","features":[{"type":"Feature","geometry":{"type":"MultiLineString","coordinates":[[[27.14284355600006,39.358174278000035],[27.159215694000068,39.35122342900007],[27.180249335000042,39.29320736000005],[27.159738366000056,39.283556210000086],[27.170182123000075,39.26288666900007],[27.152818109000066,39.21267603500007],[27.178473814000085,39.18888221200007],[27.165130968000085,39.15051317000007],[27.178941101000078,39.14121871800006]]]},"properties":{}},{"type":"Feature","geometry":{"type":"MultiLineString","coordinates":[[[27.13556026000009,39.234982794000075],[27.127395014000058,39.216954609000084],[27.144457937000084,39.17049936400008],[27.17453932400008,39.13870615600007]]]},"properties":{}},{"type":"Feature","geometry":{"type":"MultiLineString","coordinates":[[[27.119272264000074,39.21947490700006],[27.137099817000035,39.156507429000044],[27.17218717600008,39.13136019600006]]]},"properties":{}},{"type":"Feature","geometry":{"type":"MultiLineString","coordinates":[[[27.32883152800008,39.23791252400008],[27.289282452000066,39.24721888100004],[27.26144503000006,39.187204601000076],[27.185688740000046,39.14017984800006]]]},"properties":{}},{"type":"Feature","geometry":{"type":"MultiLineString","coordinates":[[[27.26144503000006,39.187204601000076],[27.30595958100008,39.201165665000076],[27.32883152800008,39.23791252400008]]]},"properties":{}},{"type":"Feature","geometry":{"type":"MultiLineString","coordinates":[[[27.319883041000082,39.214823237000076],[27.414445337000075,39.228862889000084],[27.482597147000035,39.21442531100007],[27.50636614600006,39.23849461200007],[27.53429308300008,39.22149144500008],[27.61737104200006,39.227646253000046],[27.696635900000047,39.16067037000005]]]},"properties":{}},{"type":"Feature","geometry":{"type":"MultiLineString","coordinates":[[[27.18160834200006,39.145257865000076],[27.17280160300004,39.16256724200008],[27.18632421400008,39.18997153200007],[27.16344474400006,39.21653053500006],[27.17149308800009,39.283626208000044],[27.199191229000064,39.295770263000065],[27.191431196000053,39.34121834900009],[27.175615122000067,39.350260311000056],[27.185428396000077,39.35857056100008],[27.165771542000073,39.366534381000065]]]},"properties":{}},{"type":"Feature","geometry":{"type":"MultiLineString","coordinates":[[[26.415803795000045,39.13606222900006],[26.505632544000036,39.136538244000064],[26.543197933000044,39.11835416800005]]]},"properties":{}},{"type":"Feature","geometry":{"type":"MultiLineString","coordinates":[[[26.443734206000045,39.897516875000065],[26.384136501000057,39.933409159000064],[26.267830047000075,39.94819375000009]]]},"properties":{}},{"type":"Feature","geometry":{"type":"MultiLineString","coordinates":[[[27.13154936400008,38.41681478300006],[27.13276621600005,38.34072311700004],[27.163831301000073,38.314904864000084],[27.20765145000007,38.31246090900004]]]},"properties":{}},{"type":"Feature","geometry":{"type":"MultiLineString","coordinates":[[[27.142269988000066,38.41758361700005],[27.218576015000053,38.39406276700004],[27.24009550800008,38.36315078900009],[27.34115406400008,38.389420450000046]]]},"properties":{}},{"type":"Feature","geometry":{"type":"MultiLineString","coordinates":[[[27.272260965000044,37.85771340200006],[27.27412144100009,37.890244169000084],[27.293076175000067,37.88989206300005],[27.27758891900004,37.91594529900004],[27.338155252000035,37.94701509100008]]]},"properties":{}},{"type":"Feature","geometry":{"type":"MultiLineString","coordinates":[[[27.393286188000047,37.962488808000046],[27.385213176000036,37.978373704000035],[27.452651614000047,38.019914672000084]]]},"properties":{}},{"type":"Feature","geometry":{"type":"MultiLineString","coordinates":[[[27.79436121000009,37.967809755000076],[27.75007934300004,37.88386809700006],[27.838414870000065,37.86277109400004]]]},"properties":{}},{"type":"Feature","geometry":{"type":"MultiLineString","coordinates":[[[27.81921249800007,37.938611680000065],[27.81215187300006,37.89367797600005],[27.838414870000065,37.86277109400004]]]},"properties":{}},{"type":"Feature","geometry":{"type":"MultiLineString","coordinates":[[[29.410766796000075,36.28896102900006],[29.34631434000005,36.29009613200009],[29.331739306000088,36.26306942700006]]]},"properties":{}},{"type":"Feature","geometry":{"type":"MultiLineString","coordinates":[[[29.994922691000056,36.24728689700004],[29.960761869000066,36.27415585000006],[29.859495786000082,36.28330999900004],[29.805248087000052,36.32312997200006],[29.774270180000087,36.32364622700004]]]},"properties":{}},{"type":"Feature","geometry":{"type":"MultiLineString","coordinates":[[[29.553832585000066,36.77178688200007],[29.54605491400008,36.79128815900009],[29.569229475000043,36.824963084000046]]]},"properties":{}},{"type":"Feature","geometry":{"type":"MultiLineString","coordinates":[[[28.852995130000068,37.60206987500004],[28.78787064000005,37.61412915400007],[28.763269883000078,37.69151788600004],[28.73460910500006,37.71387866900005]]]},"properties":{}},{"type":"Feature","geometry":{"type":"MultiLineString","coordinates":[[[31.39999806700007,36.77195839400008],[31.467095518000065,36.83559910900004],[31.518602110000074,36.83594566100004],[31.54641850200005,36.86075531200004],[31.52901666100007,36.866239421000046],[31.52990172400007,36.89465455800007],[31.548590989000047,36.92222813400008]]]},"properties":{}},{"type":"Feature","geometry":{"type":"MultiLineString","coordinates":[[[34.19813631200009,36.58441081800004],[34.21897301900009,36.577064086000064],[34.213641910000035,36.549421609000035],[34.15671535200005,36.47417108800005]]]},"properties":{}},{"type":"Feature","geometry":{"type":"MultiLineString","coordinates":[[[33.89168760400008,36.63281898200006],[33.89062012100004,36.602459826000086],[33.91423775000004,36.58273951800004]]]},"properties":{}},{"type":"Feature","geometry":{"type":"MultiLineString","coordinates":[[[33.980415030000074,36.699066463000065],[33.98197101200009,36.63483497900006],[33.95050249800005,36.59043722000007]]]},"properties":{}},{"type":"Feature","geometry":{"type":"MultiLineString","coordinates":[[[36.17020497700008,36.193059954000034],[36.17660333400005,36.15882339400008],[36.15769756000009,36.13415773500009]]]},"properties":{}},{"type":"Feature","geometry":{"type":"MultiLineString","coordinates":[[[27.963788287000057,41.44289934600005],[28.109478013000057,41.42843711100005],[28.290958420000038,41.353039101000036],[28.348877580000078,41.388968651000084],[28.397303433000047,41.387349364000045],[28.418097440000054,41.36648909500008],[28.45054234400004,41.372398237000084],[28.479329706000044,41.311040690000084],[28.53366102800004,41.32025827600006],[28.56602403000005,41.28087486800007],[28.620745645000056,41.28861948600007],[28.680605893000063,41.26660898800009],[28.79128107400004,41.18194336700009],[28.87274679300009,41.16062425600006],[28.868005478000043,41.14222522600005],[28.896864374000074,41.14385155600007],[28.93824032100008,41.09284798600004],[28.930503698000052,41.053855730000066]]]},"properties":{}},{"type":"Feature","geometry":{"type":"MultiLineString","coordinates":[[[28.928856859000064,41.03179412800006],[28.856598500000075,41.05502244500008],[28.82863973900004,41.033746551000036],[28.793052298000077,41.046926221000035]]]},"properties":{}},{"type":"Feature","geometry":{"type":"MultiLineString","coordinates":[[[29.993853555000044,40.851950560000034],[30.00493188200005,40.842000057000064],[29.979894011000056,40.819178467000086],[29.98737497400009,40.80817869300006],[29.94638149800005,40.798166553000044],[29.955988948000083,40.783813949000034],[29.931519526000045,40.76899208700007]]]},"properties":{}},{"type":"Feature","geometry":{"type":"MultiLineString","coordinates":[[[31.260813235000057,38.31961504000009],[31.208444043000043,38.32302288300008],[31.180325982000056,38.302262678000034]]]},"properties":{}},{"type":"Feature","geometry":{"type":"MultiLineString","coordinates":[[[35.813448607000055,37.337993389000076],[35.84137297800004,37.28238782900007],[35.903316172000075,37.25013041200009]]]},"properties":{}},{"type":"Feature","geometry":{"type":"MultiLineString","coordinates":[[[12.426598482000088,41.77187167100004],[12.381966705000082,41.79420403900008],[12.294393551000041,41.755729994000035]]]},"properties":{}},{"type":"Feature","geometry":{"type":"MultiLineString","coordinates":[[[12.743331756000089,41.871303466000086],[12.640330116000086,41.89189389900008],[12.538589358000081,41.87498395100005],[12.516389144000073,41.894252461000065]]]},"properties":{}},{"type":"Feature","geometry":{"type":"MultiLineString","coordinates":[[[12.518374839000046,41.89480228300005],[12.59147078400008,41.81470867100006],[12.68659789700007,41.85032662400005],[12.735415577000083,41.84909635300005],[12.822032126000067,41.89573464000006],[12.828665864000072,41.92159988100008],[12.804683797000052,41.92898682500004],[12.792771788000039,41.959075571000085],[12.842116532000091,41.95859898000003],[12.905802795000056,42.019415878000075]]]},"properties":{}},{"type":"Feature","geometry":{"type":"MultiLineString","coordinates":[[[12.336079322000046,42.04153656600005],[12.332637762000047,41.97771269700007],[12.36692082500008,41.90184777800005],[12.390006869000047,41.88878646000006],[12.459557675000042,41.89056785100007]]]},"properties":{}},{"type":"Feature","geometry":{"type":"MultiLineString","coordinates":[[[12.351174748000062,42.04370155000004],[12.408863030000077,41.988804825000045],[12.43484512200007,41.892791841000076]]]},"properties":{}},{"type":"Feature","geometry":{"type":"MultiLineString","coordinates":[[[12.478134885000088,41.914924564000046],[12.498608007000087,41.932825353000055],[12.54072689700007,41.925158674000045],[12.540194547000056,41.901840324000034],[12.591308033000075,41.909895798000036]]]},"properties":{}},{"type":"Feature","geometry":{"type":"MultiLineString","coordinates":[[[12.678760724000085,41.80340460200006],[12.685483980000072,41.789408576000085],[12.668733964000069,41.78417966100005],[12.609564229000057,41.81452718200006]]]},"properties":{}},{"type":"Feature","geometry":{"type":"MultiLineString","coordinates":[[[12.545619917000067,41.83103342700008],[12.57683783200008,41.82576480900008],[12.555660999000054,41.84898802500004]]]},"properties":{}},{"type":"Feature","geometry":{"type":"MultiLineString","coordinates":[[[12.57149015400006,41.841736627000046],[12.607680130000062,41.82827052400006],[12.678657175000069,41.858625077000056],[12.72283266800008,41.85455241000005],[12.788490607000085,41.87406466500005],[12.797509121000076,41.896635642000035],[12.825265322000064,41.89574352100004],[12.826981384000078,41.91934025000006],[12.80328286100007,41.92732720500004],[12.791058733000057,41.96017463700008],[12.82479150000006,41.955654553000045],[12.887698734000082,42.017217953000056],[12.949651638000091,42.03984652300005],[13.008850689000042,42.02094769900009],[13.02226235900008,42.00201047100006]]]},"properties":{}},{"type":"Feature","geometry":{"type":"MultiLineString","coordinates":[[[12.213403178000078,44.423769563000064],[12.195928930000036,44.38359612100004],[12.114767936000078,44.32236504200006],[12.05797079100006,44.11473407300008]]]},"properties":{}},{"type":"Feature","geometry":{"type":"MultiLineString","coordinates":[[[11.256266610000068,44.37716439500008],[11.252983222000069,44.39206858300008],[11.280954029000043,44.41015115300007],[11.28802573900009,44.468478179000044],[11.338322341000037,44.49998876400008]]]},"properties":{}},{"type":"Feature","geometry":{"type":"MultiLineString","coordinates":[[[11.288259287000074,44.468977935000055],[11.297007031000078,44.49366702200007],[11.322700973000053,44.48984186800004]]]},"properties":{}},{"type":"Feature","geometry":{"type":"MultiLineString","coordinates":[[[4.514930220000053,45.45736254700006],[4.500358887000061,45.48257335900007],[4.579456554000046,45.53224497800005],[4.545657450000078,45.54803558200007],[4.588073110000039,45.53596726600006],[4.621044994000044,45.56873053800007],[4.615564525000082,45.58327852100007],[4.654425149000076,45.58085163700008],[4.671597542000086,45.59861586000005],[4.657666200000051,45.60529063900009],[4.662430559000086,45.62181686000008],[4.677846447000093,45.61741522600005],[4.746250806000091,45.72219829100004],[4.798271520000071,45.742639171000064],[4.810270109000044,45.76195884900005]]]},"properties":{}},{"type":"Feature","geometry":{"type":"MultiLineString","coordinates":[[[4.643245056000126,45.74754084500012],[4.62316065499999,45.74686181700008],[4.631191351000098,45.738456328000154],[4.588231730000189,45.710179590000166]],[[4.791261916000167,45.766204814000105],[4.695446252000011,45.7499039720002],[4.644129914000132,45.76091715400014]]]},"properties":{}},{"type":"Feature","geometry":{"type":"MultiLineString","coordinates":[[[4.50807470400008,45.69168574100007],[4.500561365000067,45.70285300100005],[4.586284104000072,45.73465763200005],[4.600992032000079,45.76660289600005],[4.650369027000067,45.807331124000086],[4.692040011000074,45.81925737000006],[4.712986232000048,45.80988027800004],[4.761279628000068,45.82352922800004],[4.772653991000084,45.77301500200008],[4.810270109000044,45.76195884900005]]]},"properties":{}},{"type":"Feature","geometry":{"type":"MultiLineString","coordinates":[[[12.84170533200006,41.957930618000034],[12.827306172000078,41.925508397000044],[12.79423264500008,41.95156508000008],[12.825397591000069,41.95427922300007]]]},"properties":{}},{"type":"Feature","geometry":{"type":"MultiLineString","coordinates":[[[10.319798080000055,36.86077344700004],[10.165623956000047,36.86576680700006],[10.053503797000076,36.832330297000055],[10.09116767200004,36.800421646000075],[10.08635305100006,36.75038142100004],[10.102562964000072,36.719793011000036],[10.150154669000074,36.68258577900008],[10.12987392000008,36.59332486000005],[10.015874929000063,36.52732267300007],[10.03411785600008,36.47199989900008],[10.070335602000057,36.44210691500007],[10.09553046700006,36.45575318900006]]]},"properties":{}},{"type":"Feature","geometry":{"type":"MultiLineString","coordinates":[[[10.071515769000086,36.44062394100007],[10.123162371000092,36.41191846600009],[10.13117552600005,36.38393550400008]]]},"properties":{}},{"type":"Feature","geometry":{"type":"MultiLineString","coordinates":[[[9.094558840000047,36.37486407200004],[9.157094606000044,36.41310819100005],[9.213939348000054,36.42425868400005]]]},"properties":{}},{"type":"Feature","geometry":{"type":"MultiLineString","coordinates":[[[9.739650827000048,36.85252350400009],[9.826623278000056,36.84589246500008],[9.83514258200006,36.83150653200005]]]},"properties":{}},{"type":"Feature","geometry":{"type":"MultiLineString","coordinates":[[[7.748592702000053,36.88949618000004],[7.660388094000041,36.907046638000054],[7.64401016100004,36.89498074000005]]]},"properties":{}},{"type":"Feature","geometry":{"type":"MultiLineString","coordinates":[[[7.034921753000049,36.88417650100007],[6.99273498000008,36.87221638800008],[6.912634866000076,36.88288589400008]]]},"properties":{}},{"type":"Feature","geometry":{"type":"MultiLineString","coordinates":[[[7.70815508600009,36.19739030800008],[7.678682922000064,36.208866164000085],[7.638911977000078,36.19761152700005]]]},"properties":{}},{"type":"Feature","geometry":{"type":"MultiLineString","coordinates":[[[2.248901939000064,36.49842842900006],[2.291055141000072,36.53178115500009],[2.295858595000084,36.55575997400007],[2.234386204000089,36.603345629000046],[2.200884952000081,36.60549992500006]]]},"properties":{}},{"type":"Feature","geometry":{"type":"MultiLineString","coordinates":[[[2.280254826000089,36.57345369600006],[2.232338189000075,36.55977260600008],[2.223141681000072,36.59505386600006],[2.200884952000081,36.60549992500006]]]},"properties":{}},{"type":"Feature","geometry":{"type":"MultiLineString","coordinates":[[[10.221289456000079,45.57628484400004],[10.250009326000054,45.564461315000074],[10.251634662000072,45.54611855100006],[10.237649168000075,45.54145736400005]]]},"properties":{}},{"type":"Feature","geometry":{"type":"MultiLineString","coordinates":[[[8.574906851000037,45.51866202400004],[8.597331216000043,45.51633892500007],[8.619940257000053,45.45005077800005]]]},"properties":{}},{"type":"Feature","geometry":{"type":"MultiLineString","coordinates":[[[7.888270042000045,45.50986703600006],[7.86814606900009,45.49482809600005],[7.879169566000087,45.479382874000066]]]},"properties":{}},{"type":"Feature","geometry":{"type":"MultiLineString","coordinates":[[[9.222641395835183,35.38492653150041],[9.239892488127452,35.38522396412611],[9.304732800536328,35.327819467360484]]]},"properties":{}},{"type":"Feature","geometry":{"type":"MultiLineString","coordinates":[[[6.026197465997086,35.87186582777889],[6.070455440705473,35.86044441495096],[6.070455440705473,35.78549139326731]]]},"properties":{}},{"type":"Feature","geometry":{"type":"MultiLineString","coordinates":[[[6.488407766379623,35.47154530815817],[6.489835442983065,35.49081894230534],[6.474131000344642,35.49867116362452]]]},"properties":{}},{"type":"Feature","geometry":{"type":"MultiLineString","coordinates":[[[6.801570970817579,50.93082796731579],[6.906743147275279,50.89466016002734],[6.948039999999423,50.94198999999941]]]},"properties":{}},{"type":"Feature","geometry":{"type":"MultiLineString","coordinates":[[[6.906743147275279,50.89466016002734],[6.912215907588688,50.82684552136118],[6.976818273897038,50.751178661375604],[6.98499172245198,50.68279295206821],[7.017114446030689,50.64139033056671],[6.945373696704848,50.62996891773872],[6.894691177280663,50.639962653963266],[6.720871550804816,50.60712609208264],[6.691961099584091,50.59534776010395],[6.668225976050849,50.5615832084311],[6.57649775427609,50.55266022965924],[6.569002452107668,50.53945422107694],[6.597199065026871,50.51018685070528]]]},"properties":{}},{"type":"Feature","geometry":{"type":"MultiLineString","coordinates":[[[6.686964231471734,49.7655345289308],[6.725511499766242,49.77743183395995],[6.744071295611661,49.74887830188999]]]},"properties":{}},{"type":"Feature","geometry":{"type":"MultiLineString","coordinates":[[[8.204346514889778,49.941971562513004],[8.232424154758519,49.95339297534099],[8.251459842805161,49.98575364502017]]]},"properties":{}},{"type":"Feature","geometry":{"type":"MultiLineString","coordinates":[[[10.805356358934944,48.07469142192832],[10.798693868118619,48.183194843794126],[10.875788404707635,48.286939343648214],[10.884830356529733,48.354040144012686]]]},"properties":{}},{"type":"Feature","geometry":{"type":"MultiLineString","coordinates":[[[-0.55120717665028,45.853962762454955],[-0.579046870418495,45.79792645576771],[-0.609384998242831,45.77329903435742],[-0.600462019470967,45.749742370399645],[-0.617237219562071,45.75830843002052]]]},"properties":{}},{"type":"Feature","geometry":{"type":"MultiLineString","coordinates":[[[1.018047356694922,47.31483284698436],[0.757853295707264,47.358376983391],[0.739650419012776,47.37443834518035]]]},"properties":{}},{"type":"Feature","geometry":{"type":"MultiLineString","coordinates":[[[1.547751068507712,44.532987139110986],[1.537757332283137,44.47373856006587],[1.519554455588682,44.488015326100864],[1.507062285308055,44.46445866214307],[1.446386029659381,44.476950832423675],[1.442975,44.447304]]]},"properties":{}},{"type":"Feature","geometry":{"type":"MultiLineString","coordinates":[[[2.470119384155282,46.085853134778176],[2.48225463528513,46.126184998827],[2.468478864175154,46.1689877638056]]]},"properties":{}},{"type":"Feature","geometry":{"type":"MultiLineString","coordinates":[[[2.593066134326534,46.21969781635613],[2.586998508761667,46.23861453135248],[2.619121232340376,46.24682367182265],[2.617336636586003,46.261457357008396],[2.647940832676625,46.28434766519956]]]},"properties":{}},{"type":"Feature","geometry":{"type":"MultiLineString","coordinates":[[[2.699071122136218,46.13475105844793],[2.718344756283557,46.14545863297417],[2.682652841196102,46.176867518251186],[2.705852586002948,46.18579049702305],[2.658382338936576,46.22326700786488],[2.647864828492345,46.28411265965315]]]},"properties":{}},{"type":"Feature","geometry":{"type":"MultiLineString","coordinates":[[[3.192148980416903,43.52153378628909],[3.225461434498542,43.41993080134009],[3.217941,43.341676499999984]],[[3.256870319775582,43.518773611522285],[3.245068193186626,43.49117186385469],[3.204531156745499,43.481765360648374]]]},"properties":{}},{"type":"Feature","geometry":{"type":"MultiLineString","coordinates":[[[4.428179828737234,44.021787702386625],[4.432938750748898,44.007035044150406],[4.518599346958758,43.98086097308629],[4.554291262046244,43.91352222662129],[4.529068975384483,43.8949624307758],[4.377021417111853,43.8597464078896],[4.35623351176001,43.83777295290005]]]},"properties":{}},{"type":"Feature","geometry":{"type":"MultiLineString","coordinates":[[[4.835868666624037,43.75246593380225],[4.807315134554095,43.73114596319001],[4.77476410799439,43.73209774759239]],[[4.789421587790377,43.74808772555149],[4.774383394233457,43.72543525677594],[4.724319534670766,43.720295621003494],[4.668354611813713,43.6776556797788],[4.630799,43.677616]],[[4.942658876565713,43.799103369516445],[4.835107239102104,43.802149079603886],[4.707187415428746,43.781590536513626],[4.700144210851552,43.76617162919573],[4.724890605312165,43.742757732898426],[4.699382783329552,43.723341331090865],[4.717466686974005,43.72277026044953],[4.712327051201409,43.71306205954571]]]},"properties":{}},{"type":"Feature","geometry":{"type":"MultiLineString","coordinates":[[[5.330454382998937,43.61220575421925],[5.335881838374746,43.60120008081816],[5.30603083380754,43.59351118570237],[5.335881838374746,43.5871791544306],[5.363169877903374,43.55536823542195],[5.381261395822889,43.565167807628484],[5.44084279483792,43.53923663194388]]]},"properties":{}},{"type":"Feature","geometry":{"type":"MultiLineString","coordinates":[[[5.658785280708571,43.62999574684011],[5.540888888933011,43.65215785629158],[5.500182973614017,43.64205675878645],[5.44084279483792,43.53923663194388]]]},"properties":{}},{"type":"Feature","geometry":{"type":"MultiLineString","coordinates":[[[5.44084279483792,43.53923663194388],[5.557336675194165,43.568662807452085],[5.63704861888948,43.56360645281467]]]},"properties":{}},{"type":"Feature","geometry":{"type":"MultiLineString","coordinates":[[[25.35214040956646,35.27779166271597],[25.365084677438062,35.26484739484414],[25.365084677438062,35.29987306085013],[25.390973213181496,35.32100267458185]]]},"properties":{}},{"type":"Feature","geometry":{"type":"MultiLineString","coordinates":[[[25.464843580107527,35.23061884827524],[25.39517296185676,35.202636386846734],[25.368713355472096,35.213106015272444]]]},"properties":{}},{"type":"Feature","geometry":{"type":"MultiLineString","coordinates":[[[24.897603870927583,35.14571967958739],[24.94186184563614,35.12216301562961],[24.94519309104419,35.065769789791375]]]},"properties":{}},{"type":"Feature","geometry":{"type":"MultiLineString","coordinates":[[[6.699627279408389,43.68669542888614],[6.790939095507099,43.581999144629606],[6.732642300864256,43.44428783891715]]]},"properties":{}},{"type":"Feature","geometry":{"type":"MultiLineString","coordinates":[[[7.248346652137798,43.75267927059684],[7.273283403478956,43.738212147681395],[7.242826302604385,43.73554715135481]]]},"properties":{}},{"type":"Feature","geometry":{"type":"MultiLineString","coordinates":[[[4.800487169000064,45.85485421300018],[4.820404518000203,45.86598319900014],[4.813466857000037,45.84278403900015],[4.830001367000136,45.82971545900011],[4.789248678000206,45.8004774800001],[4.791261916000167,45.766204814000105]]]},"properties":{}},{"type":"Feature","geometry":{"type":"MultiLineString","coordinates":[[[5.002875416952975,45.47314836141379],[4.970038855072517,45.49432556436574],[4.939581754197945,45.496229133170345],[4.949813436522959,45.48790101964994],[4.937678185393111,45.48528361254341],[4.882474690058018,45.52145141983209]]]},"properties":{}},{"type":"Feature","geometry":{"type":"MultiLineString","coordinates":[[[5.399940040764193,44.741799209545945],[5.374717754102505,44.73275725772385],[5.348781629138841,44.75155499966979]]]},"properties":{}},{"type":"Feature","geometry":{"type":"MultiLineString","coordinates":[[[14.911986220187828,44.5480877368272],[14.921504064211149,44.52096188136085],[14.983370050362737,44.4695655236348]]]},"properties":{}},{"type":"Feature","geometry":{"type":"MultiLineString","coordinates":[[[15.331953156180248,44.13027817881351],[15.273418415436879,44.098869293536495],[15.245340775567911,44.106007676553986]],[[15.273418415436879,44.098869293536495],[15.488045798162602,43.937065945140034],[15.558953736136516,43.95181860337624],[15.585603699401645,43.933734699731986]]]},"properties":{}},{"type":"Feature","geometry":{"type":"MultiLineString","coordinates":[[[15.879925179865495,43.895712895742975],[15.961302746264721,43.8482426486766],[15.954521282398218,43.83218128688725],[15.925253912026506,43.82575674217151]]]},"properties":{}},{"type":"Feature","geometry":{"type":"MultiLineString","coordinates":[[[16.470531196122465,47.32953290209832],[16.461965136501533,47.297767097670544],[16.487306396213683,47.25457988041467],[16.611871179868842,47.233521650513126]]]},"properties":{}},{"type":"Feature","geometry":{"type":"MultiLineString","coordinates":[[[16.131418345108273,44.157632065959774],[16.12558866564393,44.06316746402831],[16.00637766925189,44.00927267224614]]]},"properties":{}},{"type":"Feature","geometry":{"type":"MultiLineString","coordinates":[[[16.308462141247105,45.355036330618645],[16.32488042218722,45.399651224477964],[16.308105222096174,45.43034627145312],[16.373064507555284,45.440340007677605],[16.385199758685133,45.46817970144588]]]},"properties":{}},{"type":"Feature","geometry":{"type":"MultiLineString","coordinates":[[[24.769858195568304,42.04547574375624],[24.723458705954613,42.08711631135827],[24.734761145732307,42.13886958823508]]]},"properties":{}},{"type":"Feature","geometry":{"type":"MultiLineString","coordinates":[[[25.419669167418817,43.17008833047851],[25.442987885275954,43.22767128681943],[25.631917089138938,43.226243610216045]]]},"properties":{}},{"type":"Feature","geometry":{"type":"MultiLineString","coordinates":[[[-4.060193756239812,40.832445653725074],[-4.066856247056194,40.86337864680087],[-4.09636156352849,40.87480005962885],[-4.084464258499338,40.90097413069299],[-4.09874102453432,40.92714820175712]]]},"properties":{}},{"type":"Feature","geometry":{"type":"MultiLineString","coordinates":[[[-1.310287850880002,40.4429427587022],[-1.343005439710169,40.4233122054041],[-1.400112503850096,40.43550694305878]]]},"properties":{}},{"type":"Feature","geometry":{"type":"MultiLineString","coordinates":[[[-6.186468367097751,38.99145248911301],[-6.228822773001599,38.9833623216934],[-6.340100666669994,38.916096500000045]]]},"properties":{}},{"type":"Feature","geometry":{"type":"MultiLineString","coordinates":[[[-6.331615488453345,38.98621767490019],[-6.318290506820755,38.96623020245132],[-6.340100666669994,38.916096500000045]]]},"properties":{}},{"type":"Feature","geometry":{"type":"MultiLineString","coordinates":[[[-6.379204708570004,39.00144622533761],[-6.392529690202694,38.959091819433866],[-6.346844038890665,38.93672488597896],[-6.340100666669994,38.916096500000045]]]},"properties":{}},{"type":"Feature","geometry":{"type":"MultiLineString","coordinates":[[[-6.255161423451852,37.5011068313741],[-6.161648605922835,37.49789455901612],[-6.062068162828837,37.45756269496724]],[[-6.189845218841867,37.53215879750013],[-6.166645474035022,37.5207373846722],[-6.161412904596659,37.49782721578009]]]},"properties":{}},{"type":"Feature","geometry":{"type":"MultiLineString","coordinates":[[[-5.534018176414975,37.512754292997556],[-5.584879155414512,37.50977996674027],[-5.614919850613205,37.48717508718488]]]},"properties":{}},{"type":"Feature","geometry":{"type":"MultiLineString","coordinates":[[[-4.032435018354647,39.651189283405586],[-4.068126933442102,39.69877850352219],[-4.079072454068921,39.74541593923658],[-4.062892119229218,39.78396320753103],[-4.001502025278853,39.84344973267679]]]},"properties":{}},{"type":"Feature","geometry":{"type":"MultiLineString","coordinates":[[[20.862761725922496,39.26684964642175],[20.82773605991673,39.255618590474114],[20.782050408604732,39.3399466885208],[20.79118753886712,39.24933681341878],[20.778223722616588,39.21759869068228],[20.79118753886712,39.192039392398385],[20.72789387611209,39.18042762268993],[20.74102850086416,39.15796551079484],[20.72275424033944,39.091530959512056],[20.703337838531866,39.085439539337244],[20.72878617398925,39.016006867186945]]]},"properties":{}},{"type":"Feature","geometry":{"type":"MultiLineString","coordinates":[[[23.824756796458303,38.09928804195533],[23.757239590417896,38.067462751002324],[23.749506342148948,37.993402027195884],[23.732850115108135,37.98239702004389]]]},"properties":{}},{"type":"Feature","geometry":{"type":"MultiLineString","coordinates":[[[23.88870481099002,38.065083289996494],[23.804531377908745,38.03444772954646],[23.73671673924258,37.97734066540653]]]},"properties":{}},{"type":"Feature","geometry":{"type":"MultiLineString","coordinates":[[[23.767352299692675,38.14717469469764],[23.77568041321308,38.12338008463934],[23.74891147689749,38.07965748865723]]]},"properties":{}},{"type":"Feature","geometry":{"type":"MultiLineString","coordinates":[[[26.812014277264154,37.71288404898115],[26.845921596597236,37.694740658811725],[26.902433795485706,37.70931485747241],[26.937530845321703,37.69414579356027]]]},"properties":{}},{"type":"Feature","geometry":{"type":"MultiLineString","coordinates":[[[29.099519338923756,37.7898445810265],[29.087622033894604,37.80435929316201],[29.11284432055652,37.8417168309536]]]},"properties":{}},{"type":"Feature","geometry":{"type":"MultiLineString","coordinates":[[[0.795946107703742,35.720027057951484],[0.685658090083564,35.74215604530565],[0.565376336238728,35.715744028141046]]]},"properties":{}},{"type":"Feature","geometry":{"type":"MultiLineString","coordinates":[[[21.145031470229014,32.754594908862146],[21.07888245426676,32.75840204647142],[20.95467458976259,32.70795747314776]]]},"properties":{}},{"type":"Feature","geometry":{"type":"MultiLineString","coordinates":[[[11.693839065625696,45.273307793224376],[11.641966815698424,45.263789949201055],[11.659512418235352,45.233223537964136]]]},"properties":{}},{"type":"Feature","geometry":{"type":"MultiLineString","coordinates":[[[12.176482538301059,42.16674162794686],[12.260001619605646,42.16364832863934],[12.28855515167561,42.1446126405927],[12.285223906267333,42.09559574387248],[12.320677875254319,42.083936384944025]]]},"properties":{}},{"type":"Feature","geometry":{"type":"MultiLineString","coordinates":[[[11.178941100826705,43.885116982527165],[11.171326825608048,43.876312976805536],[11.233906650061499,43.8151608289557],[11.250562877102311,43.77494793795705]]]},"properties":{}},{"type":"Feature","geometry":{"type":"MultiLineString","coordinates":[[[11.879486147089949,42.17301943923388],[11.867112949859575,42.15398375118724],[11.837369687286696,42.16040829590298],[11.843318339801272,42.144703853264616],[11.815954538234223,42.1349480631406],[11.826424166659933,42.12090924320631]]]},"properties":{}},{"type":"Feature","geometry":{"type":"MultiLineString","coordinates":[[[12.875762203185218,41.991841188085004],[12.896796638476701,42.0160403065143],[12.963718979265707,42.03394575058309],[13.017286595159476,42.00795013909442],[13.071687022405229,41.92740538404712],[13.100121581424958,41.92466900389036]]]},"properties":{}},{"type":"Feature","geometry":{"type":"MultiLineString","coordinates":[[[12.576837832000194,41.82576480900019],[12.610600965081517,41.81060908879567],[12.806870806147515,41.870214586991665],[12.83510311098172,41.886775635592244],[12.829749323718602,41.92489460090553]]]},"properties":{}},{"type":"Feature","geometry":{"type":"MultiLineString","coordinates":[[[13.024793742366455,41.99811656470746],[13.006114973470574,42.020245552061624],[12.950316612884023,42.038507915281514],[12.8909490607885,42.014237413022045],[12.82830974980999,41.955643185753445],[12.793539875862336,41.95832007938503],[12.83714944744679,41.897108445009906],[12.815972244494844,41.87599072858336],[12.62121336116752,41.81364885023055],[12.57677591100014,41.82702163500005]]]},"properties":{}}]}