{"type":"FeatureCollection","features":[{"type":"Feature","geometry":{"type":"MultiLineString","coordinates":[[[31.227455791200175,30.035433538193498],[31.282084896609334,30.113498908920036],[31.3341981879536,30.232810273267134],[31.381998655186617,30.27410056018755],[31.41254782597463,30.333056562060086],[31.54912058949753,30.39569719342789],[31.70474165951178,30.49298953898463],[31.719836543901152,30.545313670181443],[31.771590433236142,30.562336156580496],[31.838079804951246,30.54314695776703],[31.98723163879862,30.56047930314666],[32.073128719014335,30.546861292303625],[32.19280958810151,30.567287592008746],[32.24025065332525,30.562645628698075],[32.325428929522424,30.475645153680222],[32.33692979381909,30.428242062883392],[32.29272334667878,30.386396666615475],[32.2948797587344,30.329644286906706],[32.34232082395815,30.278445896411306],[32.41492002983085,30.254854616038237],[32.43073371823876,30.211071574194026],[32.49758249196313,30.211071574194026],[32.54502355718687,30.162918791930185],[32.56479066769676,30.114120696332566],[32.55041458732593,30.07462943136084],[32.57186,29.949339999999204]]]},"properties":{}},{"type":"Feature","geometry":{"type":"MultiLineString","coordinates":[[[31.25512974591319,30.969669661341612],[31.278311175511977,30.957034035943064],[32.18669975394388,31.013265132180877]]]},"properties":{}},{"type":"Feature","geometry":{"type":"MultiLineString","coordinates":[[[44.20015895774454,33.42155912025825],[44.175649545986275,33.41294540803725],[44.1188909082303,33.440936848371116],[44.03762285871605,33.44739512956169],[43.961514685361436,33.4086382315286],[43.89959617144583,33.442013261958834],[43.80155852441276,33.432325058899686],[43.74866979377651,33.44416604906775],[43.71126069161915,33.439860421428186],[43.68241999999918,33.390670000000675]]]},"properties":{}},{"type":"Feature","geometry":{"type":"MultiLineString","coordinates":[[[44.23369815278217,33.48290707996342],[44.21821852430326,33.5194799289085],[44.26981728589961,33.76755049582581],[44.2530476883808,33.84258214028802],[44.21434861718353,33.895065129295475],[44.069872084713765,34.01490499801404],[43.96578000000045,34.07494000000041]]]},"properties":{}},{"type":"Feature","geometry":{"type":"MultiLineString","coordinates":[[[44.9028695922348,33.23159050823134],[44.859010644877905,33.23860379489052],[44.79064228576274,33.286602722434644],[44.6655152888916,33.31786872322814],[44.59650194525648,33.40083092973625]]]},"properties":{}},{"type":"Feature","geometry":{"type":"MultiLineString","coordinates":[[[44.789352316722834,33.503077841590965],[44.777742595363655,33.38144425092658],[44.79967206904211,33.32918640763577],[44.9028695922348,33.231590508231335]]]},"properties":{}},{"type":"Feature","geometry":{"type":"MultiLineString","coordinates":[[[44.63326606289388,33.73886031991351],[44.63907092357347,33.65353755285858],[44.59650194525648,33.40083092973625]]]},"properties":{}},{"type":"Feature","geometry":{"type":"MultiLineString","coordinates":[[[44.41203637254953,33.99164573181016],[44.536518384900724,33.87819911615807],[44.633266062893874,33.73886031991349]]]},"properties":{}},{"type":"Feature","geometry":{"type":"MultiLineString","coordinates":[[[44.82031157368064,33.96276330030187],[44.792577239322604,33.89372667864917],[44.78096751796342,33.74154205143195]]]},"properties":{}},{"type":"Feature","geometry":{"type":"MultiLineString","coordinates":[[[43.96828702282093,34.23088411506797],[44.10308878749139,34.17220523675624],[44.2633674407001,34.0688847001567]]]},"properties":{}},{"type":"Feature","geometry":{"type":"MultiLineString","coordinates":[[[44.995747363108215,33.11606022365202],[45.070565567422925,33.06418410015739],[45.114588364858996,32.939034509821695]]]},"properties":{}},{"type":"Feature","geometry":{"type":"MultiLineString","coordinates":[[[45.36274355496226,32.814644847384],[45.19569256429409,33.02255301361129],[45.14925367885736,33.049588426888754],[45.07056556742293,33.064184100157384]]]},"properties":{}},{"type":"Feature","geometry":{"type":"MultiLineString","coordinates":[[[44.77277483963685,32.511281625158354],[44.69711953036935,32.535044458336344],[44.468795010305506,32.551355847600306],[44.43367790724001,32.58068144714626]]]},"properties":{}},{"type":"Feature","geometry":{"type":"MultiLineString","coordinates":[[[40.722724918410506,34.85459610704737],[40.60662770481872,34.92548871636725],[40.56276875746182,35.02801583672909],[40.46473111042875,35.14096377615195],[40.4866605841072,35.188418507932965],[40.55244900514255,35.24532762350214]]]},"properties":{}},{"type":"Feature","geometry":{"type":"MultiLineString","coordinates":[[[39.88875993410951,35.635757964008796],[39.852640800992056,35.64414477158584],[39.850060862912294,35.677421234236974]]]},"properties":{}},{"type":"Feature","geometry":{"type":"MultiLineString","coordinates":[[[43.85138357857938,33.857379717893096],[43.88879268073675,33.99438637865403],[43.85232274053578,34.20448803756114]]]},"properties":{}},{"type":"Feature","geometry":{"type":"MultiLineString","coordinates":[[[5.945639189336987,51.960307720140634],[6.016071235109507,51.99933088063631],[6.12647822578009,52.01217997006768]]]},"properties":{}},{"type":"Feature","geometry":{"type":"MultiLineString","coordinates":[[[-0.202856718115754,39.97493785480941],[-0.145934452945085,39.96153841662783],[-0.149571062515633,39.92315771060362]]]},"properties":{}},{"type":"Feature","geometry":{"type":"MultiLineString","coordinates":[[[12.118139647844828,44.948477419862684],[12.089288683149107,44.871739802424656],[12.123790867733646,44.773587035934156],[12.069955562476764,44.72540295056609]]]},"properties":{}},{"type":"Feature","geometry":{"type":"MultiLineString","coordinates":[[[12.099515408263699,44.63514206307832],[12.106177899079967,44.57827294503892],[12.21325364434233,44.426463332867]]]},"properties":{}},{"type":"Feature","geometry":{"type":"MultiLineString","coordinates":[[[13.03459101695097,41.433596692344736],[12.946884084276007,41.501649277111596],[12.955545322337173,41.508978017009554]]]},"properties":{}}]}