{"type":"FeatureCollection","features":[{"type":"Feature","geometry":{"type":"MultiPolygon","coordinates":[[[[16.85668000000078,43.4060300000001],[17.1829400000006,43.14459999999963],[16.722680000000764,43.178610000000845],[16.574580000000424,43.27298999999948],[16.844409999999698,43.28801000000021],[16.85668000000078,43.4060300000001]]]]},"properties":{}},{"type":"Feature","geometry":{"type":"MultiPolygon","coordinates":[[[[16.574580000000424,43.27298999999948],[16.722680000000764,43.178610000000845],[16.596949999999197,43.14769999999953],[16.574580000000424,43.27298999999948]]]]},"properties":{}},{"type":"Feature","geometry":{"type":"MultiPolygon","coordinates":[[[[17.03645999999935,43.02039999999943],[17.11427999999978,43.018299999999726],[17.13579000000027,42.95531999999912],[17.056459999999788,42.92411],[16.979369999999108,42.98121],[17.03645999999935,43.02039999999943]]]]},"properties":{}},{"type":"Feature","geometry":{"type":"MultiPolygon","coordinates":[[[[16.802170000000842,42.912350000000515],[16.64941,42.95583000000079],[16.7758900000008,42.98430999999982],[16.802170000000842,42.912350000000515]]]]},"properties":{}},{"type":"Feature","geometry":{"type":"MultiPolygon","coordinates":[[[[18.66518,42.431039999999484],[18.714710000000196,42.5088],[18.76303999999982,42.47501999999986],[18.741700000000492,42.415759999999864],[18.66518,42.431039999999484]]]]},"properties":{}},{"type":"Feature","geometry":{"type":"MultiPolygon","coordinates":[[[[18.741700000000492,42.415759999999864],[18.668289999999615,42.37061],[18.66518,42.431039999999484],[18.741700000000492,42.415759999999864]]]]},"properties":{}},{"type":"Feature","geometry":{"type":"MultiPolygon","coordinates":[[[[34.0728,35.33818000000065],[33.9667900000004,35.321640000000116],[33.9026300000005,35.21767],[34.07231999999931,34.99390999999923],[33.680130000000645,34.97351999999955],[33.60461000000032,34.8485],[33.45530999999937,34.77249999999913],[32.9447,34.63293999999951],[32.4356200000002,34.7266],[32.26920000000064,35.07194999999956],[32.27690000000075,35.11197],[32.42879,35.04559],[32.62794000000031,35.189220000000205],[32.85504000000037,35.151599999999235],[32.90766000000076,35.19316000000072],[32.92072999999982,35.40403999999944],[33.57710000000043,35.34919000000082],[34.595830000000205,35.69918999999936],[34.0728,35.33818000000065]]],[[[22.188529999999446,39.59944],[20.749359999999797,39.417020000000775],[20.472579999999653,39.284639999999854],[20.234270000000834,39.44764000000032],[20.1877199999999,39.61106],[19.937110000000757,39.74510999999984],[19.932129999999233,39.94594999999936],[19.65158,40.14455000000089],[19.492410000000746,40.352530000000115],[19.556940000000395,40.63643000000047],[19.34859999999935,40.631569999999556],[19.422339999999167,40.932049999999435],[19.488419999999678,40.98998000000029],[19.456539999999222,41.12954],[19.519070000000283,41.26267999999982],[19.42080999999962,41.396779999999126],[22.901889999999185,43.02532000000065],[24.246220000000903,43.53739999999925],[24.43498,43.732270000000426],[24.973659999999654,43.71625999999924],[25.374079999999594,43.61392],[25.745849999999336,43.70336999999927],[26.13018000000011,43.97489999999925],[26.334199999999328,44.0298700000003],[26.911369999999806,44.13286999999946],[27.4390999999996,44.11628000000019],[27.59509000000071,44.207689999999275],[27.920109999999113,44.24099000000024],[28.106470000000627,44.44068999999945],[27.848040000000765,44.83779999999933],[28.025540000000547,45.37954],[28.213239999999132,45.44966000000022],[28.53005999999914,45.2791500000003],[28.766809999999168,45.24851999999919],[28.798829999999725,45.34188],[28.944519999999102,45.30956999999944],[29.326030000000173,45.451240000000325],[29.581669999999576,45.40400000000045],[29.656189999999697,45.3259],[29.696889999999257,45.14005],[29.64774000000034,44.943090000000666],[29.5396,44.842969999999696],[29.18033,44.800600000000486],[28.804299999999785,44.606519999999364],[28.65339,44.28526000000056],[28.678099999999176,43.98265999999967],[28.590609999999288,43.73443000000043],[28.594559999999547,43.48056],[28.45017999999982,43.37557000000015],[28.106369999999515,43.38355000000047],[27.946130000000267,43.196169999999256],[27.911420000000362,42.75518000000011],[27.73960000000079,42.703380000000834],[27.745810000000347,42.65360999999939],[27.495170000000144,42.4969],[27.72718999999961,42.4339400000008],[27.780930000000808,42.278190000000905],[28.028840000000855,42.0222],[28.05497,41.92591],[27.99735999999939,41.86127999999917],[28.194279999999708,41.56784999999945],[28.698599999999715,41.34074999999939],[29.11413,41.23478000000068],[28.942119999999704,41.05671000000075],[29.150159999999232,41.21658000000025],[29.99337000000014,41.138310000000274],[30.26469,41.216309999999794],[30.612380000000485,41.14115999999922],[30.743870000000243,41.02889999999934],[31.333119999999326,41.14156],[31.462939999999435,41.41065999999955],[31.670029999999315,41.413360000000466],[32.54293999999936,41.81796000000031],[33.38786000000073,42.038580000000366],[34.305130000000645,41.95484000000033],[35.08840000000055,42.032939999999144],[35.50216999999975,41.645010000000184],[35.974379999999655,41.72975000000042],[36.39860000000044,41.26079000000027],[36.61866,41.35367000000042],[37.47551000000021,41.05355000000054],[38.00703000000067,40.99323],[39.28105999999934,41.05779000000075],[40.00861000000077,40.975689999999304],[40.406489999999394,41.01876000000084],[41.318240000000515,41.339710000000196],[41.58928999999989,41.580400000000736],[41.67172000000028,42.24604999999974],[41.52263999999923,42.61571],[41.76586999999927,42.4678100000001],[43.395039999999426,42.56223999999929],[44.968549999999595,42.42160999999942],[48.3503299999993,41.95846999999958],[48.532859999999346,41.88503],[48.92504999999983,41.52860999999939],[49.09430000000066,41.33136000000013],[49.251829999999245,40.97861000000012],[49.623460000000705,40.6106],[50.07018000000062,40.567989999999554],[50.5984499999995,40.32461999999941],[50.379759999999806,40.369150000000445],[49.914020000000164,40.29573999999957],[49.46594,40.0],[49.34994,39.4103099999993],[48.88448000000062,38.51823999999942],[48.92787999999928,37.98626999999942],[49.23113999999987,37.54457999999977],[49.85515999999916,37.42915999999968],[49.330009999999675,37.387979999999516],[49.09222000000045,37.158799999999246],[49.85515999999916,37.42915999999968],[50.02844999999979,37.417310000000725],[50.22421000000031,37.3131599999997],[50.4009700000006,37.08150000000023],[50.78824999999961,36.86910999999964],[51.074829999999565,36.74308000000019],[51.81366,36.58683000000019],[53.36885000000075,36.85961],[53.89199,36.78564],[54.03368000000046,36.974340000000666],[53.92281,37.276529999999184],[54.77917999999954,37.22509999999966],[55.24835999999959,37.29018],[56.05227999999988,37.5935300000001],[56.418610000000626,37.847859999999855],[56.7821100000001,38.29264999999941],[56.97888000000057,39.47703],[57.09785000000011,40.93445000000065],[57.09785000000011,41.91597],[57.39528000000064,42.0349499999993],[60.45883999999933,41.94572],[61.44037000000026,41.85649000000012],[62.838299999999435,41.29135999999926],[63.49265000000014,40.57753000000048],[64.30183000000034,39.89034],[64.5931500000006,39.32831000000078],[65.25509000000056,38.95763000000079],[67.71620000000075,38.58473000000049],[70.66078000000016,38.8821599999992],[71.13666999999987,38.852419999999256],[71.66690000000017,39.01742000000013],[72.73447999999917,38.54903999999988],[74.0907700000007,38.192119999999704],[76.30366999999933,38.01366000000053],[76.48213000000032,37.90658000000076],[76.94613000000027,37.90658000000076],[78.58794999999918,38.01366000000053],[83.26359000000048,38.620419999999285],[84.83403999999973,38.620419999999285],[85.94049000000086,38.33488000000034],[86.40447999999924,37.870890000000145],[86.51156000000083,37.1570499999998],[86.54724999999962,36.33613999999943],[85.58357000000069,35.69368000000031],[83.65620999999919,35.69368000000031],[82.4069899999995,35.44384],[79.73008999999911,34.337390000000596],[78.73071999999956,33.80200999999943],[77.33873999999923,32.87401999999929],[76.19659999999931,32.23157],[75.98243999999977,31.838959999999133],[75.76829,31.624799999999595],[75.12584000000061,31.232190000000628],[73.09139999999934,30.375589999999647],[70.70003999999972,29.090679999999338],[70.05759000000035,28.37684000000081],[69.52220999999918,27.127619999999297],[69.52220999999918,25.378720000000612],[69.38493000000017,24.82427],[69.41907999999967,24.483179999999265],[69.33580000000075,24.590260000000853],[68.89623000000029,24.73269000000073],[68.63648,24.599780000000464],[68.30098,24.621189999999842],[68.1867600000005,24.5355299999992],[67.74417999999969,24.485559999999168],[67.55143999999927,24.349930000000313],[67.48005999999987,24.52124999999978],[66.93041000000085,24.72826999999961],[66.88044000000082,24.8282],[66.84474000000046,24.763960000000225],[66.65200999999979,24.82107],[66.73767000000043,25.092319999999745],[66.69484000000011,25.11374000000069],[66.73767000000043,25.399269999999888],[66.28651,25.581720000000132],[66.11663000000044,25.54918],[65.99527999999918,25.363579999999274],[65.65977000000021,25.44210000000021],[65.48805,25.37488999999914],[65.2676,25.38514000000032],[65.18882999999914,25.309610000000248],[64.7796099999996,25.347750000000815],[64.64940000000024,25.27095],[64.69715999999971,25.181220000000394],[64.61566,25.15458000000035],[64.54263999999966,25.270469999999477],[64.39902000000075,25.239670000000842],[64.14129999999932,25.32966999999917],[64.08271000000059,25.39214],[64.16027000000031,25.45644],[64.0334700000003,25.4633900000008],[63.968549999999595,25.40382999999929],[64.03511000000071,25.40613999999914],[64.06333000000086,25.32833000000028],[63.604269999999815,25.370950000000448],[63.45130000000063,25.28889],[63.5002999999997,25.20361000000048],[62.49352,25.25286000000051],[62.36333000000013,25.17797000000064],[62.38586000000032,25.099809999999707],[62.27966000000015,25.110559999999168],[62.31391000000076,25.168690000000424],[62.20240999999987,25.21508],[62.06852000000072,25.168949999999313],[62.088190000000395,25.116830000000846],[61.747880000000805,25.034719999999652],[61.780329999999594,25.19032999999945],[61.53449999999975,25.23758000000089],[61.44869,25.218909999999596],[61.51124999999956,25.161739999999554],[61.41364000000067,25.064080000000104],[60.62727000000086,25.282999999999447],[60.59252000000015,25.403689999999187],[60.507910000000265,25.44557999999961],[60.399600000000646,25.3807199999992],[60.44090999999935,25.29947],[60.285939999999755,25.39089000000058],[60.19611000000077,25.328670000000784],[59.88636000000042,25.358550000000832],[59.77651999999944,25.418830000000526],[59.56668999999965,25.399750000000495],[59.45802,25.475060000000667],[59.113939999999275,25.438109999999142],[59.094460000000254,25.485319999999774],[59.01368999999977,25.416670000000522],[58.766859999999724,25.579579999999623],[58.30059000000074,25.604489999999714],[58.13627000000088,25.556060000000798],[57.92461,25.70730999999978],[57.793579999999565,25.67436000000089],[57.73436000000038,25.747330000000147],[57.29880000000048,25.79189000000042],[57.18102,26.093779999999242],[57.2149100000006,26.174409999999625],[57.0596000000005,26.36164],[57.0651199999993,26.663909999999305],[56.94036000000051,26.918610000000626],[56.95850000000064,27.06315],[56.85521999999946,27.02277999999933],[56.79983,27.12745],[56.648440000000846,27.172699999999168],[56.14422000000013,27.15672000000086],[55.935129999999845,27.02527999999984],[55.611329999999725,26.955309999999372],[55.5551200000009,26.807259999999587],[55.46644000000015,26.758719999999812],[55.24995999999919,26.78534000000036],[54.785719999999856,26.49917],[54.399349999999686,26.594049999999697],[54.32006,26.7209299999995],[53.72277000000031,26.712439999999333],[53.477240000000165,26.867340000000695],[53.47869999999966,26.961090000000695],[52.71408,27.2816899999998],[52.58890000000065,27.38992],[52.68207000000075,27.42713999999978],[52.43072000000029,27.644889999999577],[52.1868599999998,27.7183100000002],[52.06912999999986,27.828750000000582],[51.69954999999936,27.829610000000685],[51.44927,27.952030000000377],[51.41330000000016,27.912640000000465],[51.11052000000018,28.477360000000772],[51.01013000000057,28.843409999999494],[50.88694000000032,28.824969999999666],[50.84266000000025,28.877630000000863],[50.819330000000264,28.953489999999874],[50.91708,28.928110000000743],[50.92477999999937,29.05243999999948],[50.75829999999951,29.07539],[50.643270000000484,29.181080000000293],[50.62952000000041,29.47233000000051],[50.14477000000079,29.92958],[49.8742000000002,30.044920000000275],[49.127990000000864,30.067409999999654],[48.64209999999912,29.881330000000162],[48.20537999999942,29.531049999999595],[47.99562999999944,29.573609999999462],[47.70238000000063,29.37311000000045],[45.69513,30.511979999999312],[45.387000000000626,30.40258999999969],[44.799300000000585,30.74201],[44.44238000000041,31.28929000000062],[44.405329999999594,31.56509],[43.45205999999962,31.62241],[42.47453999999925,32.64880000000085],[41.0658999999996,33.73384000000078],[40.096589999999196,34.71877999999924],[38.89365,34.564360000000306],[38.36832999999933,34.40969000000041],[37.378389999999854,33.2468000000008],[37.17041000000063,32.73819],[35.53446000000076,31.738020000000688],[34.61117000000013,31.37025],[34.17632000000049,30.68167],[33.36065000000053,30.10203],[32.64711999999963,29.787309999999707],[32.53475000000071,29.95799000000079],[32.48631000000023,29.943610000000263],[32.485860000000685,29.88923000000068],[32.2199700000001,29.734870000000228],[32.16984000000048,29.428610000000845],[32.35543999999936,28.800429999999324],[32.99789000000055,27.729670000000624],[33.21204000000034,27.11577000000034],[33.21516999999949,23.982249999999112],[33.35793999999987,23.43497000000025],[33.63494,22.746259999999893],[33.6910599999992,22.054879999999685],[34.02418000000034,21.198280000000523],[34.04534000000058,20.700349999999162],[34.189080000000104,20.65328000000045],[34.13963,20.25033000000076],[33.89775,20.229460000000472],[33.0248100000008,20.579620000000432],[32.81065999999919,21.69795999999951],[33.02969999999914,21.83295],[32.76307000000088,21.864519999999175],[32.54891999999927,22.12627000000066],[32.345400000000154,22.639020000000528],[32.02932999999939,22.73152999999911],[31.88267000000087,22.94445000000087],[31.835080000000744,24.339159999999538],[31.5019599999996,25.195770000000266],[31.0974499999993,25.885809999999765],[30.441000000000713,26.717360000000554],[30.45499000000018,27.361080000000584],[30.21705,28.95531999999912],[29.874139999999898,29.74888],[29.48416999999972,29.926139999999577],[29.151050000000396,30.330649999999878],[28.84998000000087,30.91938999999911],[29.106850000000122,30.82792999999947],[29.361650000000736,30.88536000000022],[30.052019999999175,31.305560000000696],[30.220499999999447,31.279319999999643],[30.383270000000266,31.45636999999988],[30.59801999999945,31.38415999999961],[30.900030000000697,31.41603000000032],[31.073270000000775,31.588959999999133],[31.542779999999766,31.443429999999353],[31.945379999999204,31.50796000000082],[32.04951000000074,31.370500000000902],[32.40358000000015,31.2201299999997],[32.5676399999993,31.059450000000652],[32.89708000000064,31.12735000000066],[33.01009999999951,31.078059999999823],[33.0869500000008,31.185090000000855],[33.170099999999366,31.04862999999932],[33.41648999999961,31.15208999999959],[33.64911000000029,31.111979999999676],[34.01037,31.207839999999123],[34.279570000000604,31.35577000000012],[34.587610000000495,31.69715],[34.7374,31.973910000000615],[34.956640000000334,32.811900000000605],[35.061470000000554,32.881320000000414],[35.12236999999914,33.13092999999935],[35.50992000000042,33.924409999999625],[35.6224000000002,34.00174999999945],[35.653550000000905,34.292929999999615],[35.97155000000021,34.5870900000009],[35.86595999999918,34.92913000000044],[35.95119999999952,35.254430000000866],[35.9213,35.39785999999913],[35.73898,35.62774],[35.9730899999995,36.048689999999624],[35.81482,36.35606],[36.1863400000002,36.62082],[36.18578999999954,36.822039999999106],[36.014180000000124,36.923650000000634],[35.62966000000051,36.73128999999972],[35.56116,36.594600000000355],[35.413689999999406,36.562840000000506],[35.173360000000685,36.7206299999998],[34.666409999999814,36.804009999999835],[34.12910000000011,36.43663000000015],[34.025289999999586,36.280259999999544],[33.882229999999254,36.305930000000444],[33.5618599999998,36.126570000000356],[32.970690000000104,36.099669999999605],[32.77976999999919,36.03347000000031],[32.36768999999913,36.18856000000051],[32.00125999999909,36.54449000000022],[31.3395500000006,36.79738999999972],[30.952100000000428,36.8787799999991],[30.60801999999967,36.83375999999953],[30.449570000000676,36.24028],[30.18406,36.27950000000055],[29.8129399999998,36.19130000000041],[29.760270000000673,36.12514999999985],[29.217060000000856,36.28598000000056],[29.139310000000478,36.36599000000024],[29.07199000000037,36.67864],[28.93522,36.74127000000044],[28.86656000000039,36.59329000000071],[28.77404000000024,36.68345000000045],[28.62073000000055,36.69568000000072],[28.598700000000463,36.79264999999941],[28.280790000000707,36.82275999999911],[28.210220000000845,36.67884000000049],[28.03241,36.605830000000424],[28.057660000000396,36.77614999999969],[27.975819999999658,36.77203],[28.019749999999476,36.899209999999584],[28.17627999999968,36.94677000000047],[28.19496000000072,37.02844],[27.441249999999854,36.97046000000046],[27.4177,37.01555999999982],[27.27296000000024,36.94123000000036],[27.250190000000657,37.12613000000056],[27.48855999999978,37.10405999999966],[27.55177999999978,37.226409999999305],[27.38393999999971,37.35448],[27.209940000000643,37.36924],[27.22552,37.51932999999917],[27.2775500000007,37.52680999999939],[27.166869999999108,37.692119999999704],[27.2793700000002,37.778190000000905],[27.27787999999964,37.981910000000425],[26.862590000000637,38.05993],[26.74029999999948,38.20967000000019],[26.597540000000663,38.08640999999989],[26.254430000000866,38.28052000000025],[26.47295,38.357459999999264],[26.373100000000704,38.60654000000068],[26.430920000000697,38.676620000000185],[26.529210000000603,38.6569099999997],[26.699609999999666,38.37821000000076],[27.135050000000774,38.44093000000066],[27.03770000000077,38.536340000000564],[27.034270000000106,38.628570000000764],[26.78708,38.61619000000064],[26.765520000000834,38.69578],[27.07317999999941,38.884539999999106],[27.059030000000348,38.93361],[26.88162000000011,38.91599999999926],[26.82177000000047,38.9738899999993],[26.88573,39.09699],[26.60117,39.28296000000046],[26.623429999999644,39.381680000000415],[26.723900000000867,39.348040000000765],[26.926100000000588,39.48358999999982],[26.93097999999918,39.58477],[26.082350000000588,39.49426999999923],[26.162179999999353,39.67852999999923],[26.18355999999949,39.99793999999929],[26.286299999999756,40.00587000000087],[26.429879999999685,40.14579000000049],[26.408719999999448,40.20563000000038],[26.275009999999384,40.076209999999264],[26.21184,40.10841000000073],[26.24927000000025,40.3472899999997],[26.788619999999355,40.554299999999785],[26.822910000000775,40.63779000000068],[26.121320000000196,40.59777000000031],[26.039740000000165,40.82789000000048],[25.579149999999572,40.860420000000886],[25.05008000000089,41.00819000000047],[24.878389999999854,40.908550000000105],[24.399100000000544,40.93993000000046],[24.333950000000186,40.83315000000039],[24.049740000000384,40.7186899999997],[23.768309999999474,40.768340000000535],[23.69275000000016,40.70282000000043],[23.8748599999999,40.54082000000017],[23.818489999999656,40.36340000000018],[23.70662000000084,40.290750000000116],[23.95449,40.12752],[23.990069999999832,39.94828000000052],[23.91668000000027,39.95158000000083],[23.6274599999997,40.2240299999994],[23.431000000000495,40.27477999999974],[23.297790000000532,40.231589999999414],[22.904959999999846,40.375739999999496],[22.85837,40.49721999999929],[22.983099999999467,40.5692],[22.919659999999567,40.647000000000844],[22.774419999999736,40.60765999999967],[22.60743999999977,40.49296999999933],[22.64882000000034,40.34943000000021],[22.57013,40.12046],[22.76579,39.85988],[22.54096000000027,39.88002000000051],[22.37033,39.772870000000694],[22.37750000000051,39.6577],[22.188529999999446,39.59944]],[[48.43373000000065,37.24598999999944],[48.7863899999993,37.05949999999939],[48.35909999999967,37.34699],[48.43373000000065,37.24598999999944]]]]},"properties":{}},{"type":"Feature","geometry":{"type":"MultiPolygon","coordinates":[[[[24.619269999999233,40.579970000000685],[24.510270000000673,40.67453000000023],[24.55841,40.76534999999967],[24.7456600000005,40.76145],[24.770829999999478,40.61460000000079],[24.619269999999233,40.579970000000685]]]]},"properties":{}},{"type":"Feature","geometry":{"type":"MultiPolygon","coordinates":[[[[29.50792,40.74136999999973],[29.730279999999766,40.75230999999985],[29.583769999999276,40.69796999999926],[29.50792,40.74136999999973]]]]},"properties":{}},{"type":"Feature","geometry":{"type":"MultiPolygon","coordinates":[[[[27.62772000000041,40.58194999999978],[27.531310000000303,40.61276],[27.544920000000275,40.661089999999604],[27.65733,40.646020000000135],[27.62772000000041,40.58194999999978]]]]},"properties":{}},{"type":"Feature","geometry":{"type":"MultiPolygon","coordinates":[[[[23.883320000000822,40.38666000000012],[23.978300000000672,40.42124999999942],[24.152210000000196,40.360280000000785],[24.393400000000838,40.185489999999845],[24.376350000000457,40.137329999999565],[23.883320000000822,40.38666000000012]]]]},"properties":{}},{"type":"Feature","geometry":{"type":"MultiPolygon","coordinates":[[[[23.38472,40.14227000000028],[23.687630000000354,39.92115999999987],[23.360849999999118,39.9633300000005],[23.29034,40.08554],[23.329799999999523,40.18001],[23.38472,40.14227000000028]]]]},"properties":{}},{"type":"Feature","geometry":{"type":"MultiPolygon","coordinates":[[[[27.06931000000077,37.72052000000076],[26.87645,37.65080999999918],[26.59159,37.71430999999939],[26.700399999999718,37.8143799999998],[26.85757999999987,37.818859999999404],[27.019200000000637,37.80011000000013],[27.06931000000077,37.72052000000076]]]]},"properties":{}},{"type":"Feature","geometry":{"type":"MultiPolygon","coordinates":[[[[26.00569,37.527830000000904],[26.083259999999427,37.642910000000484],[26.329540000000634,37.699319999999716],[26.277910000000702,37.5970699999998],[26.00569,37.527830000000904]]]]},"properties":{}},{"type":"Feature","geometry":{"type":"MultiPolygon","coordinates":[[[[26.960619999999835,36.94328999999925],[26.92108,36.97847999999976],[26.98315999999977,37.05877],[27.04392999999982,36.992850000000544],[26.960619999999835,36.94328999999925]]]]},"properties":{}},{"type":"Feature","geometry":{"type":"MultiPolygon","coordinates":[[[[27.273909999999887,36.94123000000036],[27.31083000000035,36.8441899999998],[27.075230000000374,36.76531000000068],[27.04644,36.827470000000176],[27.273909999999887,36.94123000000036]]]]},"properties":{}},{"type":"Feature","geometry":{"type":"MultiPolygon","coordinates":[[[[27.04644,36.827470000000176],[26.95269,36.69470999999976],[26.925520000000688,36.73979999999938],[27.04644,36.827470000000176]]]]},"properties":{}},{"type":"Feature","geometry":{"type":"MultiPolygon","coordinates":[[[[27.91802,36.74932000000081],[27.770689999999377,36.77568000000065],[27.850609999999506,36.80928],[27.91802,36.74932000000081]]]]},"properties":{}},{"type":"Feature","geometry":{"type":"MultiPolygon","coordinates":[[[[27.653920000000653,36.79433000000063],[27.631349999999657,36.66623000000072],[27.430790000000343,36.6614699999991],[27.431790000000547,36.741869999999835],[27.653920000000653,36.79433000000063]]]]},"properties":{}},{"type":"Feature","geometry":{"type":"MultiPolygon","coordinates":[[[[27.834860000000845,36.538329999999405],[27.762109999999666,36.60857000000033],[27.847719999999754,36.66430000000037],[27.834860000000845,36.538329999999405]]]]},"properties":{}},{"type":"Feature","geometry":{"type":"MultiPolygon","coordinates":[[[[26.375519999999597,36.58561],[26.36518000000069,36.517620000000534],[26.26752999999917,36.543830000000526],[26.276009999999587,36.593329999999696],[26.375519999999597,36.58561]]]]},"properties":{}},{"type":"Feature","geometry":{"type":"MultiPolygon","coordinates":[[[[28.15006,36.22878],[28.083950000000186,36.10078000000067],[27.942849999999453,36.04416999999921],[27.851629999999204,35.91432999999961],[27.752959999999803,35.91744],[27.75980999999956,36.07010000000082],[27.69801,36.14321000000018],[27.835269999999582,36.292489999999816],[28.21184,36.447589999999764],[28.15006,36.22878]]]]},"properties":{}},{"type":"Feature","geometry":{"type":"MultiPolygon","coordinates":[[[[27.185589999999138,35.595330000000104],[27.23048000000017,35.47378000000026],[27.130370000000767,35.41667000000052],[27.081309999999576,35.59469],[27.204569999999876,35.72635000000082],[27.185589999999138,35.595330000000104]]]]},"properties":{}},{"type":"Feature","geometry":{"type":"MultiPolygon","coordinates":[[[[26.915349999999307,35.33496000000014],[26.910369999999602,35.40642999999909],[26.986179999999877,35.39825000000019],[26.915349999999307,35.33496000000014]]]]},"properties":{}}]}