{"type":"FeatureCollection","features":[{"type":"Feature","geometry":{"type":"MultiLineString","coordinates":[[[38.561192,35.862643],[38.246224,35.951139],[38.078534,36.074129],[38.065822,36.113972],[38.187985,36.284297],[38.183851,36.342485]]]},"properties":{}},{"type":"Feature","geometry":{"type":"MultiLineString","coordinates":[[[30.478326,46.101166],[30.311204,46.233483],[30.258856,46.288209],[30.268778,46.320041]]]},"properties":{}},{"type":"Feature","geometry":{"type":"MultiLineString","coordinates":[[[33.539896,46.83125],[33.606456,46.868767],[33.738747,47.049583],[33.85874,47.149215],[33.975839,47.307216],[33.997543,47.411241],[34.154897,47.489556],[34.447903,47.542215],[35.087967,47.527539],[35.138093,47.573272],[35.14879,47.657479],[35.105692,47.841576]],[[33.193974,49.093903],[32.884484,49.224903],[31.886457,49.554702]],[[31.439869,50.000101],[31.47966,49.93287],[31.467361,49.754173]],[[30.507627,51.217313],[30.479463,50.749151],[30.514655,50.596602]]]},"properties":{}},{"type":"Feature","geometry":{"type":"MultiLineString","coordinates":[[[42.109709,47.601772],[42.832456,47.837649],[43.132231,48.293848],[43.527504,48.614268],[43.464872,48.737387],[43.521561,48.820741],[43.690284,48.92859],[43.895905,48.967632],[43.984633,49.135812],[43.955746,49.186249],[43.749144,49.207178],[43.65933,49.40192],[43.602383,49.485714],[43.549104,49.506643]]]},"properties":{}},{"type":"Feature","geometry":{"type":"MultiLineString","coordinates":[[[38.767794,38.812825],[38.812649,38.874992],[38.739579,39.078442]]]},"properties":{}},{"type":"Feature","geometry":{"type":"MultiLineString","coordinates":[[[35.422882,31.325375],[35.499467,31.672382],[35.558998,31.765529]]]},"properties":{}},{"type":"Feature","geometry":{"type":"MultiLineString","coordinates":[[[32.879471,23.987683],[32.90872,23.80847],[32.871823,23.591377],[32.914146,23.331884],[32.85508,23.207654],[32.58688,22.875658],[32.576131,22.806386],[32.418311,22.671536],[32.326275,22.652881],[32.231914,22.718071],[32.137088,22.733471],[32.041693,22.69908],[31.894054,22.525835],[31.544359,22.25151],[31.399975,22.093122],[31.280241,21.844636],[31.09064,21.609198]]]},"properties":{}},{"type":"Feature","geometry":{"type":"MultiLineString","coordinates":[[[6.1333,46.204596],[6.23469,46.332624],[6.42889,46.4305],[6.866072,46.402801]]]},"properties":{}},{"type":"Feature","geometry":{"type":"MultiLineString","coordinates":[[[-5.995572,39.851857],[-5.850878,39.807157],[-5.655696,39.797261],[-5.214896,39.812299]]]},"properties":{}},{"type":"Feature","geometry":{"type":"MultiLineString","coordinates":[[[45.663601,50.222309],[45.831187,50.357288],[45.835838,50.457127],[45.679827,50.646573],[45.675176,50.696492],[45.980894,50.824056],[46.043784,50.925031],[46.022597,50.999678],[45.835787,51.188194],[45.869686,51.321906],[45.979344,51.464663],[46.131376,51.54719],[46.365367,51.745808],[46.477194,51.773248],[46.774644,51.747927]]]},"properties":{}},{"type":"Feature","geometry":{"type":"MultiLineString","coordinates":[[[38.559952,35.863289],[38.915744,35.912744],[39.227094,35.880756],[39.612601,35.783708],[39.833207,35.683249],[39.888914,35.579431],[40.004308,35.472564],[40.263414,35.297536],[40.256592,35.277072],[40.376585,35.225395],[40.47477,35.015796],[40.535438,34.977659],[40.620136,34.837254],[40.927972,34.580964],[40.946059,34.458362],[40.992568,34.428467]],[[38.025721,36.835633],[38.056416,36.741117],[38.272424,36.558079],[38.265809,36.481649],[38.183851,36.342485]]]},"properties":{}},{"type":"Feature","geometry":{"type":"MultiLineString","coordinates":[[[27.266584,44.137797],[27.768776,44.362667],[27.929954,44.486174],[27.921841,44.670039],[27.876676,44.744117]]]},"properties":{}},{"type":"Feature","geometry":{"type":"MultiLineString","coordinates":[[[29.705918,45.259899],[29.567684,45.370823],[29.403663,45.419657],[29.223571,45.402914],[28.894288,45.289949],[28.781737,45.309844],[28.791349,45.251915],[28.760705,45.234138],[28.883075,45.180033]]]},"properties":{}},{"type":"Feature","geometry":{"type":"MultiLineString","coordinates":[[[28.883075,45.180033],[29.204657,45.080143],[29.348317,44.970227],[29.605459,44.915476]]]},"properties":{}},{"type":"Feature","geometry":{"type":"MultiLineString","coordinates":[[[31.163297,30.151261],[31.078134,30.324764],[31.107332,30.418919],[31.210374,30.507699],[31.249804,30.623247],[31.223965,30.868555],[31.244739,30.931911],[31.419871,31.128385],[31.509426,31.186365],[31.578776,31.192412],[31.671225,31.277936],[31.839225,31.526319]]]},"properties":{}},{"type":"Feature","geometry":{"type":"MultiLineString","coordinates":[[[17.206423,48.061098],[17.480618,47.88762],[17.761893,47.770159],[18.14559,47.763416],[19.000164,47.8192],[19.103465,47.779229],[19.123929,47.709078],[19.060005,47.48103],[19.029671,47.412739],[18.958822,47.36468],[18.883633,47.151153],[18.928178,47.08325],[18.944922,46.803603],[18.982852,46.740196],[18.873608,46.585865],[18.918825,46.422929],[18.916241,46.271155],[18.859139,46.151085],[18.72695,46.014401],[18.947299,45.655818],[18.917843,45.600834],[19.064294,45.515],[19.007657,45.465804],[19.004659,45.399503],[19.093078,45.336923],[19.272808,45.27796],[19.698777,45.233053],[19.863367,45.26871],[20.044803,45.186183],[20.253265,45.14988],[20.314967,45.098695],[20.352898,44.910902],[20.421007,44.863825],[20.635619,44.828401],[20.66585,44.74099],[20.731066,44.692595],[20.91276,44.707969],[21.360071,44.82667],[21.523162,44.790083],[21.636127,44.71045],[21.909288,44.666111],[22.026904,44.619861],[22.09305,44.541933],[22.20095,44.560691],[22.350708,44.676136],[22.497676,44.706264],[22.64206,44.65097],[22.734354,44.569915],[22.554004,44.540331],[22.494576,44.435428],[22.530646,44.377963],[22.683298,44.28647],[22.687845,44.248307],[23.028497,44.077982],[23.024466,44.047234],[22.8683,43.947886],[22.867679,43.864558],[22.919046,43.834456],[23.224609,43.873886],[24.22677,43.763479],[24.430581,43.794381],[25.159633,43.686326],[25.49708,43.670797],[25.686112,43.711751],[26.215796,44.007288],[26.489216,44.083976],[27.086905,44.167408],[27.412467,44.137668],[27.860243,44.262622],[28.022145,44.342617],[28.079919,44.419305],[28.083382,44.4762],[28.032429,44.513304],[27.992121,44.663708],[27.830167,44.795612],[28.011241,45.357593],[28.078938,45.414128],[28.21247,45.450456],[28.317683,45.347129],[28.451266,45.292197],[28.760705,45.234138]]]},"properties":{}},{"type":"Feature","geometry":{"type":"MultiLineString","coordinates":[[[39.64309,38.415588],[40.018467,38.347737],[40.024358,38.305621],[40.178251,38.178626],[40.152516,38.135502],[40.171429,38.106305],[40.234991,38.091112],[40.261863,38.023261],[40.251941,37.902751],[40.427383,37.832006],[40.96859,37.800484],[41.155349,37.757334],[41.639712,37.746353],[41.800477,37.70881],[41.853859,37.555589],[41.840527,37.481123],[41.882333,37.440842],[41.979278,37.434795],[42.225671,37.321934],[42.312849,37.229614],[42.376566,37.062493]]]},"properties":{}},{"type":"Feature","geometry":{"type":"MultiLineString","coordinates":[[[22.846595,49.267071],[23.082343,49.460651],[23.388371,49.55403],[23.607376,49.564753],[24.13923,49.435923],[24.360457,49.245211],[24.594292,49.181908],[24.745394,49.079795],[24.98693,48.998198],[25.250738,48.841903],[25.397654,48.845288],[25.520541,48.808907],[25.668232,48.689406],[25.894058,48.607524],[26.036633,48.617239],[26.092909,48.562669],[26.498466,48.516677],[26.59107,48.466293],[26.80377,48.579076],[26.883558,48.558251],[27.271907,48.600548],[27.432982,48.58365],[27.479904,48.509597],[27.573749,48.464897],[27.820039,48.41627],[28.038423,48.321289],[28.088498,48.257055],[28.291018,48.238555],[28.347138,48.213052],[28.340524,48.144452],[28.423051,48.146881],[28.463049,48.090502],[28.539168,48.104093],[28.604384,48.008956],[28.765562,47.98658],[28.933924,47.897904],[29.010199,47.795739],[29.017485,47.582677],[29.103475,47.449559],[29.103733,47.310187],[29.153859,47.234792],[29.136961,47.135573],[29.264963,47.146037],[29.313591,47.115781],[29.360255,47.029404],[29.310645,46.967108],[29.423558,46.954705],[29.537298,46.80058],[29.588665,46.8274],[29.635173,46.812595],[29.689795,46.715004],[29.673982,46.689192],[29.769842,46.601032],[30.131009,46.423084],[30.219685,46.426288],[30.254102,46.400527],[30.268778,46.320041]]]},"properties":{}},{"type":"Feature","geometry":{"type":"MultiLineString","coordinates":[[[32.577991,46.615605],[33.066644,46.758748],[33.539896,46.83125]],[[35.105279,47.840129],[35.129928,47.971982],[35.076598,48.08089],[35.184912,48.150033],[35.193697,48.198609],[35.112617,48.393713],[34.958828,48.477067],[34.818578,48.492157],[34.410127,48.640184],[33.717353,48.942207],[33.193974,49.093903]],[[31.439869,50.000101],[31.244326,49.978913],[30.855512,50.125778],[30.624829,50.311813],[30.514655,50.596602]],[[33.390655,54.917217],[32.977915,55.001139],[32.738085,54.916287],[32.611271,54.762937],[32.511535,54.694052],[32.381621,54.694853],[32.221424,54.765391],[32.005571,54.777122],[30.71764,54.613411],[30.462565,54.536594],[30.413265,54.494969],[30.303505,54.326038],[30.318387,54.184703],[30.404894,54.000839],[30.406651,53.89901],[30.323555,53.879244],[30.275134,53.801548],[30.261388,53.665975],[30.371201,53.296592],[30.27901,53.250497],[30.260303,53.205977],[30.284178,53.147635],[30.251467,53.120169],[30.162066,53.123579],[30.037578,53.051232],[30.03427,52.954003],[30.080883,52.808844],[30.258081,52.606221],[30.25157,52.555009],[30.365465,52.429823],[30.351099,52.409308],[30.545815,52.3058],[30.525042,52.271952],[30.583901,52.196608],[30.796188,51.99569],[30.805386,51.944323],[30.772933,51.893887],[30.698623,51.844381],[30.551345,51.657881],[30.547262,51.544916],[30.612478,51.426784],[30.610721,51.330123],[30.507627,51.217313]]]},"properties":{}},{"type":"Feature","geometry":{"type":"MultiLineString","coordinates":[[[42.109709,47.601772],[42.014728,47.560327],[41.406806,47.598671],[41.183926,47.547331],[41.009208,47.566864],[40.970244,47.61004],[40.588458,47.491443],[40.411622,47.401396],[40.283051,47.284349],[40.112363,47.222493],[39.68934,47.187172],[39.293447,47.105756]],[[43.549104,49.506643],[43.379192,49.486644],[43.315734,49.455922],[43.251913,49.365463],[43.095489,49.324018],[43.042055,49.350812],[43.017044,49.411661],[42.834781,49.471503],[42.769876,49.57253],[42.730963,49.581522],[41.712937,49.615757],[41.313634,49.586767],[41.269502,49.609194],[41.279269,49.683066],[41.234517,49.734303],[40.921048,49.827269],[40.848959,49.956202],[40.644372,49.953385],[40.501539,50.120404],[40.431569,50.139162],[40.385887,50.082886],[40.321808,50.06511],[40.039655,50.10335],[40.001414,50.132548],[40.030456,50.186239],[39.989632,50.289024],[40.063632,50.40819],[40.036347,50.475369],[39.920282,50.547096],[39.879406,50.649829],[39.757191,50.733441],[39.814242,50.833125],[39.777862,50.952187],[39.266162,50.987017],[39.14312,51.024147],[39.143844,51.071121],[39.262079,51.173259],[39.198931,51.203128],[39.13108,51.363997],[39.051808,51.429574],[39.058939,51.507115],[39.011914,51.597213],[39.122036,51.85867],[39.13294,52.011735]],[[39.13294,52.018556],[39.154386,52.124881],[38.990003,52.247664],[38.904943,52.43773],[38.932745,52.664589],[38.910938,52.702882],[39.092942,52.938371],[39.155367,53.117843],[39.151543,53.332611],[39.111649,53.448572],[38.998064,53.576213],[38.64098,53.686827],[38.530961,53.753722],[38.529256,53.860873],[38.306117,54.063755]]]},"properties":{}},{"type":"Feature","geometry":{"type":"MultiLineString","coordinates":[[[8.219788,48.046809],[8.490056,47.930718],[8.695831,47.936299],[8.978708,48.0527],[9.131877,48.086419],[9.295381,48.077531],[9.421058,48.116133],[9.588697,48.243955],[9.660734,48.240983],[10.127165,48.452908],[10.385031,48.516212],[10.711574,48.679406],[11.683556,48.794128],[11.765928,48.870919],[12.024207,48.957658],[12.032992,49.027499],[12.360827,48.992204],[12.506555,48.923836]],[[17.206423,48.061098],[17.165495,48.117425],[17.028656,48.167086],[16.659066,48.160627],[16.486467,48.212536],[16.36048,48.32749],[16.209481,48.37958],[15.861389,48.379373],[15.573034,48.423711],[15.502341,48.416683],[15.264733,48.228788],[15.146704,48.19835],[14.931885,48.227392],[14.726471,48.197317],[14.583431,48.218737],[14.399669,48.291549],[14.036797,48.352346],[14.012199,48.398622],[13.871588,48.461771],[13.48665,48.581841],[13.199949,48.636411],[13.080887,48.690982],[12.908804,48.835702],[12.704217,48.859602],[12.506555,48.931277]]]},"properties":{}},{"type":"Feature","geometry":{"type":"MultiLineString","coordinates":[[[13.821823,47.090459],[14.36732,47.147381],[14.619656,47.224405],[14.751844,47.213759],[15.145153,47.400156],[15.303025,47.393671],[15.352479,47.316208],[15.315582,47.252568],[15.328915,47.17371],[15.412941,47.0948],[15.581716,46.767352],[15.630188,46.736476],[16.04205,46.662682],[16.211497,46.570491],[16.748053,46.416418],[17.032687,46.18731],[17.242183,46.076619],[17.310603,45.996159],[17.607019,45.913787],[17.639678,45.868363],[17.807161,45.790409],[18.28274,45.765166],[18.712067,45.573653],[18.953706,45.557995]]]},"properties":{}},{"type":"Feature","geometry":{"type":"MultiLineString","coordinates":[[[-2.837496,41.928061],[-2.444006,41.796777],[-2.423697,41.687869],[-2.357086,41.605316],[-2.498317,41.521445],[-2.93488,41.508009],[-3.410975,41.632782],[-3.940555,41.692959],[-4.002153,41.648595],[-4.372312,41.639629],[-5.306906,41.463516],[-5.378271,41.515993],[-5.51803,41.527466],[-5.8878,41.473593],[-6.178015,41.549635],[-6.403144,41.375408],[-6.690155,41.214487],[-6.775782,41.107724],[-6.882804,41.062403],[-7.011272,41.078527],[-7.084808,41.112995],[-7.103489,41.165756],[-7.244384,41.189424],[-7.651207,41.181208],[-8.425475,41.084211],[-8.674607,41.154491]]]},"properties":{}},{"type":"Feature","geometry":{"type":"MultiLineString","coordinates":[[[-4.18886,43.011173],[-4.102251,43.001484],[-4.01745,42.861053],[-3.962672,42.825035],[-3.821958,42.841856],[-3.757388,42.817283],[-3.626776,42.898002],[-3.451231,42.806922],[-3.010896,42.75522],[-2.842793,42.644167],[-2.823052,42.601844],[-2.641022,42.517612],[-2.39543,42.513788],[-1.994421,42.39085],[-1.405206,41.978265],[-0.748398,41.621517],[-0.526422,41.478916],[-0.444231,41.374322],[-0.301087,41.309417],[-0.097069,41.284199],[0.040339,41.306058],[0.167101,41.410651],[0.262754,41.398895],[0.362206,41.328434],[0.364299,41.255725],[0.525426,41.248904],[0.631724,41.164697],[0.651981,41.083126],[0.53788,40.982383],[0.517054,40.903886],[0.551264,40.802032],[0.650586,40.744619],[0.89114,40.722347]]]},"properties":{}},{"type":"Feature","geometry":{"type":"MultiLineString","coordinates":[[[15.582749,50.692798],[15.614996,50.613913],[15.734058,50.522188],[15.736022,50.484412],[15.883816,50.372274],[15.817205,50.106968],[15.677421,50.051932],[15.235587,50.034698],[15.088103,50.152365],[14.630973,50.222103],[14.388197,50.43811],[14.240557,50.454156],[14.222057,50.49821],[14.062481,50.535365],[14.039433,50.567095],[14.083978,50.660732],[14.160356,50.68626],[14.202885,50.749667],[14.211567,50.850979],[14.136171,50.917874],[13.976698,50.950327],[13.743792,51.078691],[13.522203,51.141401],[13.443035,51.189511],[13.344953,51.312424],[13.226201,51.382445],[13.184343,51.473628]],[[13.191164,51.473628],[12.934229,51.622586],[12.842038,51.711418],[12.828912,51.789707],[12.741579,51.842779],[12.14699,51.873785],[11.994751,51.908692],[11.843339,52.031295],[11.690842,52.071602],[11.668208,52.155292],[11.692083,52.210198],[11.977905,52.43773],[12.013768,52.770319],[11.920544,52.918476],[11.723864,53.006274],[11.296913,53.093039],[11.1393,53.16629],[11.105917,53.151459],[10.682428,53.369094],[10.082,53.439943]]]},"properties":{}},{"type":"Feature","geometry":{"type":"MultiLineString","coordinates":[[[45.463096,31.305195],[45.540766,31.22874],[46.121144,31.086087],[46.483292,30.902584],[46.885542,30.958834],[47.331406,30.96656],[47.442097,31.004439],[47.468452,30.968472]],[[40.992568,34.428467],[41.176898,34.392888],[41.275858,34.442859],[41.501788,34.436038],[41.827194,34.509057],[41.989613,34.446115],[42.122163,34.301731],[42.286184,34.292197],[42.303237,34.33408],[42.365921,34.329429],[42.331814,34.231218],[42.368918,34.204502],[42.375119,34.113887],[42.509736,34.000638],[42.563428,33.870336],[42.672879,33.889611],[42.730446,33.865478],[42.72409,33.751997],[42.767292,33.671123],[42.877156,33.576917],[43.03234,33.502813],[43.105514,33.526171],[43.287673,33.454832],[43.649667,33.383673],[43.775757,33.31143],[43.872289,33.198646],[44.029075,33.159708],[44.122041,33.052944],[44.253661,32.828177],[44.25547,32.496363],[44.387348,32.072461],[44.447603,31.981278],[44.475094,31.762299],[44.548113,31.648094],[44.769805,31.478854],[45.041882,31.440717],[45.292874,31.321318],[45.46692,31.305195]]]},"properties":{}},{"type":"Feature","geometry":{"type":"MultiLineString","coordinates":[[[18.919858,46.26684],[18.893555,45.865521],[18.839088,45.835756]]]},"properties":{}},{"type":"Feature","geometry":{"type":"MultiLineString","coordinates":[[[38.767794,38.812825],[38.554629,38.768022],[38.449881,38.713735],[38.355055,38.580901],[38.367354,38.551342],[38.610078,38.449746],[38.847169,38.412901],[38.996617,38.333784],[39.075476,38.340296],[39.114853,38.305879],[39.114853,38.230457],[39.14927,38.189504],[39.248127,38.153795],[39.239135,38.102016],[38.978221,37.887068],[38.92365,37.745293],[38.841485,37.713099],[38.812753,37.644679],[38.701338,37.631037],[38.439132,37.494611],[38.207312,37.428775],[37.966293,37.424564],[37.919681,37.384101],[37.854568,37.291884],[37.862165,37.115874],[37.990529,36.996476],[38.025721,36.835633]],[[41.455485,40.180183],[41.328258,40.016317],[40.984713,39.943712],[40.396222,39.942213],[40.169362,39.894878],[40.149829,39.86873],[40.229565,39.760157],[40.240469,39.694373],[40.122234,39.568231],[39.414576,39.683444],[38.739786,39.536476],[38.487501,39.44506],[38.426006,39.342457],[38.555301,39.228614],[38.718495,39.144123],[38.739579,39.078494]]]},"properties":{}},{"type":"Feature","geometry":{"type":"MultiLineString","coordinates":[[[1.809017,42.626959],[1.824933,42.693053],[1.674968,42.783487],[1.616263,42.856454],[1.587221,43.148633],[1.540402,43.297616],[1.454465,43.41527]]]},"properties":{}},{"type":"Feature","geometry":{"type":"MultiLineString","coordinates":[[[45.809122,32.502202],[45.900744,32.430682],[45.942963,32.263922],[45.988542,32.219222],[45.985958,31.921669],[46.046006,31.88255],[46.089311,31.772712],[46.15401,31.456995],[46.203309,31.367388],[46.370844,31.202075],[46.405416,31.112313],[46.366193,30.963588]]]},"properties":{}},{"type":"Feature","geometry":{"type":"MultiLineString","coordinates":[[[31.237608,30.120694],[31.282153,30.128704],[31.483174,30.378844],[31.640167,30.484109],[31.864856,30.550823],[32.303486,30.593043]]]},"properties":{}},{"type":"Feature","geometry":{"type":"MultiLineString","coordinates":[[[35.576878,32.720303],[35.551453,32.395516],[35.57202,32.237878],[35.531506,31.984921],[35.558998,31.765529]],[[35.863889,33.596348],[35.695527,33.430828],[35.618942,33.243708],[35.598892,32.899723]]]},"properties":{}},{"type":"Feature","geometry":{"type":"MultiLineString","coordinates":[[[5.331075,51.962978],[5.161318,51.993519],[4.595927,51.897504],[4.425911,51.896264],[4.084847,51.994088]]]},"properties":{}},{"type":"Feature","geometry":{"type":"MultiLineString","coordinates":[[[6.038629,51.872183],[5.922461,51.96055],[5.747484,51.981375],[5.331075,51.962978]]]},"properties":{}},{"type":"Feature","geometry":{"type":"MultiLineString","coordinates":[[[32.490141,15.63455],[32.53541,16.040417],[32.628531,16.256476],[32.784594,16.41812],[32.928667,16.507959],[33.164674,16.566173],[33.358667,16.685881],[33.518761,16.738436],[33.634567,16.824503],[33.705984,16.944082],[33.740091,17.246131],[33.925041,17.549575],[33.968811,17.792351],[33.941629,18.107267],[33.900391,18.278058],[33.71818,18.45523],[33.675392,18.661859],[33.644954,18.723922],[33.590488,18.740769],[33.539069,19.173352],[33.413496,19.307607],[33.379699,19.42313],[33.138267,19.502686],[33.017964,19.510773],[32.938486,19.473902],[32.619746,19.160691],[32.545642,19.151906],[32.306328,18.889933],[32.230157,18.891147],[32.075593,18.811539],[32.004641,18.606255],[31.920822,18.58021],[31.642028,18.222919],[31.474131,18.077243],[31.296261,18.015335],[31.145882,18.001744],[30.808693,18.153569],[30.743995,18.256974],[30.673818,18.499026],[30.615837,18.561968],[30.510779,18.793737],[30.457914,19.471112],[30.349962,19.786389],[30.369806,19.856928],[30.575013,19.967283],[30.591084,20.214193],[30.539149,20.328527],[30.42205,20.358241],[30.365981,20.416945],[30.31663,20.615796],[30.369754,20.774262],[30.576253,20.900275],[30.594753,20.985154],[30.709165,21.120623],[30.698623,21.176951],[30.969872,21.399133],[30.994109,21.49259],[31.09064,21.609198]],[[32.879471,23.987683],[32.920968,24.77022],[32.870583,25.037464],[32.628737,25.238589],[32.540371,25.349822],[32.492932,25.565365],[32.704133,25.754268],[32.764026,25.87917],[32.734364,26.128845],[32.677623,26.163261],[32.361674,26.067427],[32.228658,26.076884],[32.154244,26.171168],[32.015235,26.200107],[31.965522,26.297413],[31.82026,26.445311],[31.812301,26.509287],[31.706468,26.564167],[31.694686,26.631656],[31.552627,26.761984],[31.340651,27.057108],[30.969304,27.35554],[30.868276,27.500311],[30.88905,27.618547],[30.863005,27.985217],[30.744253,28.165465],[30.740015,28.229905],[30.810864,28.401367],[30.898714,28.791473],[31.219108,29.281986],[31.286907,29.782601],[31.237608,30.120694]]]},"properties":{}},{"type":"Feature","geometry":{"type":"MultiLineString","coordinates":[[[17.617974,49.739393],[17.946429,49.637074],[18.141663,49.729885],[18.307338,49.885638],[18.316588,49.972402],[18.231012,50.137457],[18.251786,50.219674],[18.185381,50.321011],[17.958212,50.532161],[17.938368,50.656469],[17.880387,50.721659],[17.450232,50.881959],[17.193607,51.067839],[17.01522,51.130988],[16.869079,51.22876],[16.474685,51.244779],[16.439648,51.315344],[16.466623,51.353817],[16.462231,51.518044],[16.40766,51.595042],[16.223124,51.677001],[16.145816,51.668784],[15.846609,51.743354],[15.768785,51.811205],[15.786665,51.894455],[15.757933,51.960886],[15.682485,52.010521],[14.760887,52.076925],[14.704612,52.110205],[14.679859,52.249989],[14.573922,52.314171],[14.554595,52.359647],[14.619397,52.528499],[14.514029,52.645624],[14.128626,52.87822],[14.138858,52.932868],[14.36856,53.105544],[14.445558,53.275482],[14.58064,53.445162],[14.618261,53.525829],[14.583534,53.639336]]]},"properties":{}},{"type":"Feature","geometry":{"type":"MultiLineString","coordinates":[[[7.110192,44.706005],[7.325579,44.664819],[7.423506,44.686937],[7.501796,44.794527],[7.619308,44.84902],[7.730619,45.129003],[7.824257,45.189852],[7.975875,45.219772],[8.360038,45.199205],[8.499668,45.161068],[8.644052,45.053994],[8.807762,45.053607],[9.224481,45.140501],[9.504981,45.093372],[9.60699,45.12908],[9.698716,45.086189],[9.781657,45.103035],[9.81628,45.079729],[9.960457,45.129907],[10.050374,45.060196],[10.5567,44.928292],[10.665995,44.986143],[10.671473,45.028208],[10.870686,45.072236],[11.188496,45.064536],[11.574467,44.90558],[12.084978,45.019888],[12.377157,44.960693],[12.523401,44.967953]]]},"properties":{}},{"type":"Feature","geometry":{"type":"MultiLineString","coordinates":[[[9.408759,46.834609],[9.516763,46.90675],[9.533816,46.963077],[9.495886,47.027647],[9.48431,47.172677],[9.625904,47.467025],[9.554384,47.511157]]]},"properties":{}},{"type":"Feature","geometry":{"type":"MultiLineString","coordinates":[[[8.881143,47.656394],[8.700172,47.686289],[8.619764,47.662362],[8.579663,47.594666],[8.482304,47.576166],[8.198291,47.606914],[7.927093,47.563841],[7.698063,47.569887],[7.565461,47.606552],[7.529391,47.673886],[7.608456,48.002574],[7.584168,48.064302],[7.765139,48.410017],[7.837951,48.63605],[8.23002,48.965435]]]},"properties":{}},{"type":"Feature","geometry":{"type":"MultiLineString","coordinates":[[[8.23002,48.965435],[8.417295,49.213999],[8.498221,49.397399],[8.380812,49.611236],[8.436829,49.767195],[8.357351,49.911372],[8.243352,50.023097],[7.961613,49.990696],[7.803224,50.042088],[7.606751,50.222361],[7.628816,50.323802],[7.607836,50.366642],[7.343666,50.485833],[7.256746,50.559162],[7.184502,50.673186],[7.025442,50.804677],[6.937696,51.040089],[6.881058,51.064274],[6.816308,51.168867],[6.7575,51.187263],[6.741119,51.268189],[6.689546,51.30276],[6.687478,51.524401],[6.593014,51.591838],[6.595804,51.637469],[6.357214,51.775031],[6.079764,51.869212],[5.622117,51.888203],[5.24953,51.813479],[4.98536,51.82371]]]},"properties":{}},{"type":"Feature","geometry":{"type":"MultiLineString","coordinates":[[[4.617424,43.710045],[4.514071,43.702294],[4.440174,43.650204],[4.433766,43.591035],[4.371237,43.528144],[4.409736,43.447219]],[[6.1333,46.204596],[5.902203,46.122611],[5.814457,46.013316],[5.746967,45.737105],[5.676274,45.676179],[5.572921,45.704291],[5.437012,45.821389],[5.349782,45.846711],[5.191032,45.798936],[4.95177,45.808057],[4.82351,45.712533],[4.809454,45.632796],[4.85312,45.560527],[4.784029,45.438958],[4.789713,45.288916],[4.858236,45.062676],[4.863817,44.911006],[4.780566,44.76117],[4.77235,44.637198],[4.721294,44.573429],[4.673545,44.350084],[4.710958,44.133095],[4.843405,44.012353],[4.690236,43.906416],[4.637681,43.827764],[4.619388,43.715058],[4.631377,43.638784],[4.723619,43.553673],[4.743256,43.448614],[4.787233,43.401434]],[[8.250484,46.482279],[7.955308,46.334691],[7.652898,46.326578],[7.089159,46.151757],[7.020481,46.196819],[6.866382,46.402594]]]},"properties":{}},{"type":"Feature","geometry":{"type":"MultiLineString","coordinates":[[[31.237608,30.120694],[31.052503,30.192395],[30.854789,30.354375],[30.747354,31.010614],[30.568708,31.170242],[30.488196,31.356846],[30.395075,31.457615]]]},"properties":{}},{"type":"Feature","geometry":{"type":"MultiLineString","coordinates":[[[4.707651,47.577871],[4.584248,47.739644],[4.553552,47.812482],[4.565024,47.89147],[4.408393,48.08182],[4.213624,48.189669],[3.858297,48.516625],[3.763419,48.551326],[3.038399,48.393067],[2.818929,48.409294],[2.49931,48.581531],[2.404639,48.699405],[2.430064,48.765654],[2.403916,48.811129],[2.296325,48.852057],[2.250023,48.908281],[2.173335,48.904147],[2.137575,48.947969],[2.008281,48.960604],[1.975931,48.996079],[1.718169,48.991739],[1.66794,49.047187],[1.496891,49.084188],[1.353696,49.211493],[1.244297,49.220743],[1.188796,49.306577],[1.092471,49.311771],[1.023018,49.381224],[0.853416,49.414762],[0.784893,49.470521],[0.585112,49.453312],[0.493128,49.49362],[0.439255,49.473208]]]},"properties":{}},{"type":"Feature","geometry":{"type":"MultiLineString","coordinates":[[[47.468452,30.968472],[47.581778,30.830754],[47.701512,30.754092],[47.785332,30.560874],[47.844656,30.511988],[48.066141,30.457676],[48.147532,30.416826],[48.226132,30.321354],[48.331035,30.285439],[48.401418,30.188339],[48.434594,30.037624],[48.546526,29.962357]]]},"properties":{}},{"type":"Feature","geometry":{"type":"MultiLineString","coordinates":[[[19.060005,47.48103],[19.09375,47.394188],[18.974325,47.275487],[18.948746,47.199497],[18.976031,47.10051],[18.93531,47.033047]]]},"properties":{}},{"type":"Feature","geometry":{"type":"MultiLineString","coordinates":[[[32.359813,30.423595],[32.303486,30.593043],[32.334182,30.688696],[32.323536,31.256077]]]},"properties":{}},{"type":"Feature","geometry":{"type":"MultiLineString","coordinates":[[[-5.995572,39.851857],[-6.326146,39.763594],[-6.896395,39.756928],[-7.117674,39.681687]],[[-2.732722,40.528379],[-2.961002,40.275061],[-3.225612,40.08745],[-3.565487,40.03828],[-3.901023,39.919786],[-4.318361,39.839429],[-4.757327,39.981591],[-5.070977,39.802997],[-5.21673,39.812144]],[[-1.905537,40.601036],[-2.144282,40.797407],[-2.24239,40.811204],[-2.576814,40.724388]]]},"properties":{}},{"type":"Feature","geometry":{"type":"MultiLineString","coordinates":[[[-7.117674,39.681687],[-7.454087,39.680679],[-7.653352,39.634015],[-7.98222,39.49237],[-8.375581,39.468005],[-8.660732,39.249336],[-8.791603,39.078183]]]},"properties":{}},{"type":"Feature","geometry":{"type":"MultiLineString","coordinates":[[[-2.021912,51.685889],[-1.939282,51.648476],[-1.824302,51.652067],[-1.43399,51.704803],[-1.281544,51.75896],[-1.068663,51.48461],[-0.999236,51.464714],[-0.841416,51.554114],[-0.759767,51.56029],[-0.43325,51.392419],[-0.360231,51.398052],[-0.244863,51.479752],[-0.048751,51.500939],[0.424502,51.465644]]]},"properties":{}},{"type":"Feature","geometry":{"type":"MultiLineString","coordinates":[[[42.376566,37.062493],[42.509323,36.940665],[42.51294,36.875837],[42.558674,36.832481],[42.713083,36.784783],[42.760832,36.718741],[42.895191,36.691301],[42.901289,36.661561],[42.811165,36.60867],[42.771167,36.539837],[42.844341,36.478497],[43.030686,36.42465],[43.168663,36.333648],[43.258269,36.205439],[43.346326,35.945868],[43.343226,35.857812],[43.29744,35.765414],[43.3116,35.717975],[43.260647,35.657074],[43.262404,35.469825],[43.568431,35.006184],[43.537529,34.957221],[43.784646,34.453091],[43.854202,34.193727],[43.960345,34.098074],[44.23237,34.050015],[44.402851,33.973715],[44.427345,33.909197],[44.398458,33.768895],[44.416752,33.73944],[44.309678,33.530667],[44.396701,33.293369],[44.430808,33.290578],[44.544289,33.126971],[44.674617,33.023695],[44.870988,32.925226],[45.026585,32.891248],[45.079502,32.803476],[45.224764,32.778],[45.298403,32.663485],[45.383669,32.60354],[45.809122,32.502202],[46.029883,32.618681],[46.136595,32.63222],[46.201397,32.587546],[46.692168,32.442568],[46.735163,32.32149],[46.712632,32.149433],[46.826992,32.078766],[46.939854,31.917458],[47.138549,31.825758],[47.146094,31.749484],[47.220818,31.62732],[47.362929,31.459165],[47.433932,31.286049],[47.441322,30.99909]]]},"properties":{}},{"type":"Feature","geometry":{"type":"MultiLineString","coordinates":[[[20.178851,46.260846],[20.066455,46.138399],[20.061132,46.028974],[20.123764,45.922314],[20.097771,45.873066],[20.140352,45.778343],[20.070176,45.631892],[20.222828,45.431077],[20.208875,45.407151],[20.308352,45.192436],[20.282308,45.125773]]]},"properties":{}},{"type":"Feature","geometry":{"type":"MultiLineString","coordinates":[[[21.346429,48.026319],[21.181633,48.005804],[21.103498,47.944206],[21.057092,47.834652],[20.871212,47.689958],[20.545754,47.510124],[20.400026,47.382224],[20.426278,47.26957],[20.305975,47.24151],[20.174717,47.11914],[20.21797,47.037543],[20.066093,46.873547],[20.191564,46.652863],[20.157457,46.597725],[20.162728,46.500108],[20.217092,46.282653],[20.178851,46.260846]],[[24.255605,48.321754],[24.337874,48.2939],[24.3325,48.234162],[24.169719,47.954954],[24.001822,47.935782],[23.709023,47.982601],[23.477306,48.049212],[23.306671,48.135667],[23.146112,48.154529],[22.885146,48.09138],[22.419541,48.095359],[22.32518,48.158973],[22.276346,48.244032],[22.253763,48.407381],[22.218934,48.41472],[21.868981,48.22176],[21.529673,48.17476],[21.465181,48.145537],[21.409061,48.044535],[21.338987,48.026319]]]},"properties":{}},{"type":"Feature","geometry":{"type":"MultiLineString","coordinates":[[[18.879189,49.643843],[18.788187,49.817425],[18.770979,49.887705],[18.810253,49.925015]],[[18.93686,49.931888],[19.06817,49.9523],[19.199893,50.041545],[19.348256,50.045731],[19.586278,49.999222],[19.851636,50.006044],[20.521983,50.137302],[20.73768,50.261067],[21.289275,50.385555],[21.505282,50.484877],[21.783663,50.688586],[21.823609,50.845708],[21.783818,51.188349],[21.961016,51.386321],[21.932801,51.442442],[21.829603,51.500991],[21.824022,51.542074],[21.451952,51.704519],[21.429628,51.762861],[21.241215,51.91833],[21.258734,51.993468],[21.221217,52.067313],[20.973842,52.301847],[20.841963,52.383935],[20.730549,52.416387],[20.222363,52.391634],[19.963567,52.42078],[19.639556,52.549273],[19.201753,52.643945],[18.959184,52.759829],[18.765914,52.928449],[18.537556,53.038262],[18.27411,53.089266],[18.199799,53.174016],[18.314624,53.292561],[18.645353,53.444232],[18.739404,53.519473],[18.777283,53.67383],[18.870817,53.777235],[18.853041,54.128531],[18.976237,54.348931]]]},"properties":{}},{"type":"Feature","geometry":{"type":"MultiLineString","coordinates":[[[47.841556,46.734925],[48.113942,46.683249],[48.21993,46.605243],[48.250316,46.483649],[48.313878,46.400579],[48.410616,46.355982],[48.683675,46.08618]],[[45.663601,50.222309],[45.414417,50.056066],[45.359588,49.831636],[45.106942,49.513154],[45.010824,49.350631],[44.975684,49.194749],[44.587904,48.727465],[44.527598,48.598016],[44.595501,48.545151],[44.864528,48.465673],[45.337367,48.419784],[45.411058,48.424486],[45.448782,48.460712],[45.558594,48.451332],[45.864932,48.352656],[46.077684,48.218401],[46.155405,48.110087],[46.14662,47.993815],[46.193181,47.917592],[46.295087,47.88147],[46.408568,47.773002],[46.497865,47.755587],[46.87469,47.444417],[47.008532,47.402843],[47.081705,47.315614],[47.086201,47.214018],[47.463491,47.028913],[47.584982,46.9422],[47.576611,46.883754],[47.611699,46.854582],[47.69035,46.854608],[47.800318,46.772753],[48.002063,46.505895],[47.998239,46.369935],[47.734637,46.057396],[47.641103,45.929471],[47.635832,45.865857],[47.560746,45.789505],[47.649836,45.656748]],[[49.904789,53.456737],[50.042145,53.45467],[50.108084,53.404725],[50.148495,53.30623],[50.128548,53.235588],[50.048346,53.192774],[49.855541,53.212902],[49.427609,53.152467],[49.269014,53.218974],[49.119462,53.229749],[48.918751,53.208535],[48.524305,53.104847],[48.491025,53.057149],[48.561357,52.918812],[48.504926,52.816363],[48.334084,52.68774],[47.900828,52.124803],[47.775048,52.066305],[47.506589,52.054911],[47.272701,51.980962],[46.774644,51.747927]]]},"properties":{}},{"type":"Feature","geometry":{"type":"MultiLineString","coordinates":[[[4.98536,51.82371],[4.58125,51.718962],[3.97891,51.847792]]]},"properties":{}},{"type":"Feature","geometry":{"type":"MultiLineString","coordinates":[[[1.454465,43.41527],[1.361499,43.6886],[1.082343,44.031008],[0.323474,44.295333],[0.25508,44.422121],[0.003235,44.560872],[-0.223624,44.587615],[-0.343307,44.635596],[-0.561795,44.829925],[-0.548488,45.000587]]]},"properties":{}},{"type":"Feature","geometry":{"type":"MultiLineString","coordinates":[[[3.083254,46.985427],[3.021862,47.149267],[2.915926,47.287243],[2.892878,47.363259],[2.917476,47.423411],[2.882749,47.498806],[2.788595,47.58955],[2.359887,47.803594],[1.970815,47.894183],[1.768502,47.866278],[1.158204,47.473743],[0.427757,47.340625],[0.075401,47.218178],[-0.038313,47.249028],[-0.216364,47.364241],[-0.418031,47.40243],[-1.05639,47.374602],[-1.248704,47.336413],[-1.559047,47.216317],[-1.742524,47.215956]],[[3.083132,46.98503],[3.248557,46.951589],[3.328886,46.846035],[3.489545,46.829127],[3.724353,46.638546],[3.749069,46.557877],[3.983878,46.460064],[4.03949,46.238272],[4.101282,46.165568],[4.101282,46.062763],[4.033311,45.976945],[4.051848,45.925391],[4.156894,45.852274],[4.212507,45.744573],[4.255761,45.476578],[4.082744,45.237768],[3.952982,45.198594],[3.909728,45.115805],[3.903548,44.971727],[3.928265,44.871095],[4.169252,44.774673],[4.200148,44.822904]]]},"properties":{}}]}