{"type":"FeatureCollection","features":[{"type":"Feature","geometry":{"type":"Polygon","coordinates":[[[-1.57431,55.16791999999987],[-1.506320000000414,54.98432999999932],[-1.45197,54.99404999999933],[-1.238040000000183,54.72537000000011],[-0.571340000000419,54.48672000000079],[-0.133480000000418,54.11285999999927],[-0.205219999999827,54.07955000000038],[-0.160749999999098,53.92634],[0.140820000000531,53.648660000000746],[-0.05685000000085,53.61007000000063],[0.204719999999725,53.479699999999866],[0.387440000000424,53.17390999999952],[0.035459999999148,52.97406000000046],[-0.09555,52.977929999999105],[-0.08292000000074,52.83549999999923],[0.138929999999164,52.8148999999994],[0.166069999999308,52.717099999999846],[0.368490000000747,52.7163500000006],[0.536570000000211,52.970400000000154],[1.00994,52.98099999999977],[1.36722,52.939759999999296],[1.668369999999413,52.78551999999945],[1.683380000000398,52.73775000000023],[1.586100000000442,52.70111999999972],[1.587400000000343,52.560380000000805],[1.66715,52.574609999999666],[1.670229999999719,52.64646999999968],[1.778449999999793,52.460979999999836],[1.625379999999495,52.13047],[1.3336,51.95763000000079],[1.25238,51.96877999999924],[1.277850000000399,51.855900000000474],[1.20975,51.81768999999986],[0.959510000000591,51.781300000000556],[0.933460000000196,51.622450000000754],[0.84094,51.55138000000079],[0.682419999999183,51.55044000000089],[0.599809999999707,51.4357600000003],[0.892529999999169,51.36052000000018],[1.252549999999246,51.39441000000079],[1.40911000000051,51.262549999999464],[1.39749,51.147759999999835],[0.977559999999357,51.03182000000015],[0.902340000000549,51.06051],[0.66708,50.86885000000075],[0.336559999999736,50.85203],[0.234459999999672,50.75202],[-0.24645000000055,50.8483099999994],[-0.812900000000809,50.74107999999978],[-0.97726,50.82731000000058],[-1.150110000000495,50.79523999999947],[-1.29121,50.85499999999956],[-1.526260000000548,50.71618],[-1.942240000000311,50.69192],[-1.927610000000641,50.63685000000078],[-2.017169999999169,50.58859999999913],[-2.376179999999295,50.63574999999946],[-2.452160000000731,50.581099999999424],[-2.867959999999584,50.73604999999952],[-3.23385000000053,50.68776000000071],[-3.527780000000348,50.51503000000048],[-3.517519999999422,50.363719999999375],[-3.69895,50.20614000000023],[-4.195289999999659,50.40651000000071],[-4.210320000000138,50.32107999999971],[-4.637489999999161,50.36968999999954],[-4.750089999999545,50.327470000000176],[-4.79263,50.23975000000064],[-5.08611000000019,50.111979999999676],[-5.083780000000843,50.0297900000005],[-5.194069999999556,49.971050000000105],[-5.291409999999814,50.08429000000069],[-5.485160000000178,50.131859999999506],[-5.661690000000817,50.04643000000033],[-5.6506700000009,50.16439999999966],[-5.258250000000771,50.28429999999935],[-5.002689999999347,50.560450000000856],[-4.7762500000008,50.60939999999937],[-4.576650000000882,50.78026999999929],[-4.513549999999668,51.024240000000646],[-4.3146,51.00024999999914],[-4.207650000000285,51.075849999999264],[-4.264370000000781,51.154640000000654],[-4.18138,51.20983999999953],[-3.775240000000849,51.242229999999836],[-2.932319999999891,51.17479],[-2.983570000000327,51.357529999999315],[-2.724949999999808,51.50865999999951],[-2.713019999999233,51.569620000000214],[-3.014139999999315,51.53911999999946],[-3.263619999999719,51.38982000000033],[-3.523160000000644,51.39157999999952],[-3.845030000000406,51.62408999999934],[-4.286439999999857,51.57078],[-4.151780000000144,51.67475999999988],[-4.299769999999626,51.67775000000074],[-4.396350000000893,51.78047999999944],[-5.011800000000221,51.63136999999915],[-5.095880000000761,51.69714000000022],[-5.046140000000378,51.73322],[-5.103209999999308,51.84735999999975],[-5.233570000000327,51.9165],[-5.04063,52.051330000000235],[-4.84764,52.04601],[-4.232009999999718,52.24891000000025],[-4.111080000000584,52.34773999999925],[-4.035889999999199,52.54008000000067],[-4.11526000000049,52.592860000000655],[-4.046029999999519,52.72228],[-4.143040000000838,52.82275],[-4.138049999999566,52.92424000000028],[-4.643330000000788,52.80977999999959],[-4.695209999999861,52.852999999999156],[-4.345989999999802,53.056539999999586],[-4.319240000000718,53.144720000000234],[-4.095610000000306,53.27162],[-3.81721,53.33023999999932],[-3.659270000000106,53.30011000000013],[-3.353100000000268,53.3624],[-3.072620000000825,53.281670000000304],[-3.187420000000202,53.391279999999824],[-3.093469999999797,53.43309000000045],[-3.118860000000495,53.571900000000824],[-2.923619999999573,53.724270000000615],[-3.04168000000027,53.767900000000736],[-3.044060000000172,53.92043999999987],[-2.846400000000358,53.98041000000012],[-2.82409,54.13152000000082],[-2.9033,54.19281000000046],[-3.218740000000253,54.12616999999955],[-3.192160000000513,54.223869999999806],[-3.361170000000129,54.243319999999585],[-3.60513,54.48331999999937],[-3.578849999999875,54.60920000000078],[-3.33669,54.889610000000175],[-1.57431,55.16791999999987]]]},"properties":{}},{"type":"Feature","geometry":{"type":"Polygon","coordinates":[[[1.683380000000398,52.73775000000023],[1.753849999999147,52.69902],[1.670229999999719,52.64646999999968],[1.63525,52.721770000000106],[1.683380000000398,52.73775000000023]]]},"properties":{}},{"type":"Feature","geometry":{"type":"Polygon","coordinates":[[[1.670229999999719,52.64646999999968],[1.66715,52.574609999999666],[1.587400000000343,52.560380000000805],[1.586100000000442,52.70111999999972],[1.63525,52.721770000000106],[1.670229999999719,52.64646999999968]]]},"properties":{}},{"type":"Feature","geometry":{"type":"Polygon","coordinates":[[[3.215519999999742,51.35751],[3.36319,51.532359999999244],[3.461450000000696,51.55379999999968],[4.298109999999724,51.452219999999215],[4.46035,51.62199999999939],[4.425830000000133,51.695340000000215],[4.667709999999715,51.6909799999994],[4.203740000000835,51.79102000000057],[4.074730000000272,51.89901],[4.195219999999608,51.9051],[4.126190000000861,51.99245999999948],[4.518439999999828,52.34723999999915],[4.579659999999421,52.560740000000806],[4.94445000000087,52.45995000000039],[5.360360000000583,52.25957000000017],[5.595250000000306,52.23202999999921],[6.00757,51.90041000000019],[6.286920000000464,51.83122999999978],[6.539969999999812,51.67396],[6.702799999999115,51.53134999999929],[6.672989999999118,51.39686000000074],[6.750589999999647,51.20885000000089],[6.946509999999762,51.05998999999974],[6.99004000000059,50.870929999999134],[7.346859999999651,50.48036999999931],[8.302379999999175,50.24597],[8.568230000000767,50.39890000000014],[8.997330000000147,49.9677],[9.362919999999576,49.836310000000594],[9.984959999999774,49.20148999999947],[10.01050000000032,49.084249999999884],[9.75691,48.81605],[9.45917,48.2458600000009],[9.267700000000332,47.65925000000061],[9.1225400000003,47.474239999999554],[9.2397,47.135120000000825],[9.11515,46.92206000000078],[8.8213,46.77247999999963],[8.631149999999252,46.57491999999911],[8.315150000000358,46.50626000000011],[7.972069999999803,46.3137399999996],[7.644599999999627,46.31249000000025],[7.334039999999732,46.20298],[7.105250000000524,45.66815999999926],[7.227109999999811,45.23157999999967],[6.919439999999668,44.90229999999974],[6.993340000000899,44.645039999999426],[6.656730000000607,44.570449999999255],[6.462250000000495,44.60216000000037],[6.17828,44.87185],[6.108459999999468,45.03363],[6.133369999999559,45.146090000000186],[6.372400000000198,45.41353999999956],[6.927379999999175,45.88177999999971],[6.952030000000377,45.9934200000007],[6.78737,46.34743999999955],[6.33495000000039,46.31495],[5.87616,46.10801999999967],[5.77654000000075,45.72052000000076],[5.656170000000202,45.62535000000025],[5.393570000000182,45.87739],[5.216189999999187,45.7817699999996],[4.962639999999737,45.823599999999715],[4.877409999999145,45.77298999999948],[4.916600000000471,45.72067000000061],[4.606550000000425,45.58741],[4.296469999999317,45.5974499999993],[3.958950000000186,45.832249999999476],[3.568750000000364,46.45481],[3.063969999999244,46.7549],[3.06351,47.04920999999922],[2.87558,47.327400000000125],[2.92245,47.419480000000476],[2.672640000000683,47.66909999999916],[2.512430000000677,47.704789999999775],[1.888129999999364,47.58317999999963],[0.719199999999546,47.151],[0.302170000000842,47.05662999999913],[-0.351979999999458,47.07947000000058],[-1.260130000000572,47.3070000000007],[-1.622009999999136,47.189290000000256],[-2.02002,47.324210000000676],[-2.297899999999572,47.25534999999945],[-2.511200000000827,47.30127999999968],[-2.42117,47.50482000000011],[-2.783160000000862,47.523409999999785],[-2.724280000000363,47.61097999999947],[-2.766180000000531,47.638349999999264],[-3.13492000000042,47.56886999999915],[-3.188039999999091,47.69564],[-3.434629999999743,47.69931],[-3.509159999999611,47.77028000000064],[-3.856159999999363,47.81083000000035],[-3.970059999999648,47.90171999999984],[-3.980020000000877,47.85197],[-4.13811,47.90046000000075],[-4.202209999999468,47.79594],[-4.36334,47.79355000000032],[-4.38376000000062,47.94409000000087],[-4.567709999999352,48.02515999999923],[-4.540220000000772,48.078740000000835],[-4.285350000000108,48.09948000000077],[-4.31639,48.20003999999972],[-4.445410000000265,48.25857999999971],[-4.297239999999874,48.3107],[-4.48423,48.37199999999939],[-4.774439999999231,48.34203999999954],[-4.742050000000745,48.536449999999604],[-4.50695000000087,48.63075000000026],[-4.022059999999328,48.70958000000064],[-3.949259999999413,48.66328000000067],[-3.603370000000723,48.67772999999943],[-3.49546,48.82825000000048],[-3.383649999999761,48.79767],[-3.1142,48.86088000000018],[-2.814280000000508,48.67700999999943],[-2.675010000000839,48.511459999999715],[-2.310009999999238,48.669850000000224],[-2.156759999999849,48.59895999999935],[-1.918030000000726,48.705369999999675],[-1.819999999999709,48.68826000000081],[-1.77995,48.612779999999475],[-1.47668,48.617780000000494],[-1.424520000000484,48.675129999999626],[-1.56207,48.81905999999981],[-1.565049999999246,49.22931000000062],[-1.786040000000867,49.387039999999615],[-1.864050000000134,49.70271],[-1.284620000000359,49.709210000000894],[-1.232299999999668,49.62367000000086],[-1.306300000000192,49.556469999999536],[-1.19312,49.45326000000023],[-1.186289999999644,49.35762000000068],[-0.933549999999741,49.40344999999979],[-0.367920000000595,49.33490999999958],[-0.135689999999158,49.24604999999974],[0.16592,49.40702000000056],[0.197920000000522,49.45903999999973],[0.07157,49.512580000000526],[0.167310000000725,49.679120000000694],[0.600179999999455,49.8477299999995],[1.109340000000884,49.93404],[1.63025000000016,50.20615999999973],[1.565479999999297,50.64860000000044],[1.629139999999097,50.88719999999921],[1.86008000000038,50.98588000000018],[2.74179,51.146020000000135],[3.215519999999742,51.35751]]]},"properties":{}},{"type":"Feature","geometry":{"type":"Polygon","coordinates":[[[0.836390000000392,51.38930000000073],[0.78845,51.44614],[0.869559999999183,51.437480000000505],[0.836390000000392,51.38930000000073]]]},"properties":{}},{"type":"Feature","geometry":{"type":"Polygon","coordinates":[[[0.854310000000623,50.9849],[0.902340000000549,51.06051],[0.977559999999357,51.03182000000015],[0.854310000000623,50.9849]]]},"properties":{}},{"type":"Feature","geometry":{"type":"Polygon","coordinates":[[[-1.341270000000804,50.796150000000125],[-1.080760000000737,50.696350000000166],[-1.245839999999589,50.58630000000085],[-1.526260000000548,50.71618],[-1.341270000000804,50.796150000000125]]]},"properties":{}},{"type":"Feature","geometry":{"type":"Polygon","coordinates":[[[-2.029529999999795,49.16774000000078],[-2.175489999999627,49.170969999999215],[-2.19578,49.25402000000031],[-2.093020000000251,49.25727],[-2.011339999999109,49.2145],[-2.029529999999795,49.16774000000078]]]},"properties":{}},{"type":"Feature","geometry":{"type":"Polygon","coordinates":[[[9.078120000000126,47.60124999999971],[9.140849999999773,47.57900999999947],[9.275509999999485,48.11895999999979],[9.532240000000456,48.57517],[9.900400000000445,49.03112999999939],[10.08687,49.101160000000164],[10.700259999999616,49.11645999999928],[11.842529999999897,48.998139999999694],[11.940749999999753,48.92139999999927],[12.02165000000059,49.02671],[12.29490000000078,49.00960999999916],[12.540940000000774,48.89403999999922],[12.898999999999432,48.84213000000091],[13.09552000000076,48.673940000000584],[13.409859999999753,48.57710000000043],[13.393819999999323,48.383019999999306],[13.269060000000536,48.29751000000033],[12.91465000000062,48.21437],[12.451139999999214,48.23766000000069],[12.143340000000535,48.01703000000089],[12.104380000000674,47.76668000000063],[12.182800000000498,47.622660000000906],[11.97621000000072,47.482889999999315],[11.958870000000388,47.370380000000296],[12.036079999999856,46.89509],[12.30754,46.69843000000037],[12.754650000000765,46.82121],[13.02650999999969,46.726730000000316],[13.307909999999538,46.742669999999634],[13.377940000000308,46.82347999999911],[14.34944,46.38568999999916],[14.784359999999651,46.29709],[14.85232999999971,46.14628000000084],[14.249050000000352,45.39646999999968],[14.295060000000376,45.3363700000009],[14.15476999999919,44.96947999999975],[14.054439999999886,44.97031000000061],[13.914810000000216,44.77897999999914],[13.58669,45.177999999999884],[13.50260999999955,45.46200999999928],[13.719999999999345,45.54450999999972],[13.769089999999778,45.64281999999912],[13.619010000000344,45.77801],[12.279920000000857,45.444040000000314],[12.169840000000477,45.32315000000017],[12.294879999999466,45.22069999999985],[12.155810000000201,44.73299000000043],[12.280510000000504,44.63465999999971],[12.225459999999657,44.54349999999977],[12.28013,44.3401300000005],[12.638240000000224,44.011529999999766],[13.616739999999481,43.55341000000044],[14.015869999999268,42.66921999999977],[14.80450000000019,42.052019999999175],[15.249770000000353,41.915139999999155],[15.613129999999728,41.92420999999922],[15.73554999999942,41.85248999999931],[15.837069999999585,41.936359999999695],[16.093779999999242,41.9329],[16.18499999999949,41.88839],[16.18254,41.78921000000082],[15.846349999999802,41.50936999999976],[17.040689999999813,41.0900500000007],[17.557039999999688,40.802309999999125],[18.041769999999815,40.63026],[18.419159999999465,40.31297000000086],[18.525910000000295,40.12889],[18.382069999999658,39.80997000000025],[18.069229999999152,39.92298999999912],[17.985650000000533,40.14535000000069],[17.862419999999474,40.268990000000485],[17.49888,40.29782999999952],[17.140799999999217,40.511060000000725],[16.945809999999256,40.465759999999136],[16.61073000000033,40.11083999999937],[16.641639999999825,39.95803999999953],[16.490100000000893,39.77564999999959],[16.577730000000884,39.65672000000086],[16.78016000000025,39.62185999999929],[17.158030000000508,39.36384],[17.11095000000023,39.11765999999989],[17.157960000000458,38.93409000000065],[16.934649999999237,38.93375999999989],[16.59516000000076,38.806290000000445],[16.56605,38.41258000000016],[16.294959999999264,38.26194000000032],[16.098550000000614,37.96524999999929],[15.702470000000176,37.94232000000011],[15.63825,38.017900000000736],[15.648119999999835,38.26473000000078],[15.787749999999505,38.280539999999746],[15.90129,38.447949999999764],[15.86729000000014,38.656740000000354],[16.18533000000025,38.750850000000355],[16.222820000000866,38.84478999999919],[15.72661,39.97940000000017],[15.545819999999367,40.0597400000006],[15.355830000000424,39.99050999999963],[15.122890000000552,40.16440999999941],[15.037710000000516,40.16480000000047],[14.91914,40.26252000000022],[14.980380000000878,40.399020000000746],[14.799839999999676,40.65046000000075],[14.456490000000485,40.615239999999176],[14.394920000000639,40.657789999999295],[14.451919999999518,40.74034000000029],[14.2716,40.83279000000039],[14.042069999999512,40.847169999999096],[13.744829999999638,41.236039999999775],[13.592909999999392,41.256499999999505],[13.574409999999261,41.20902000000024],[13.280989999999292,41.29890999999952],[13.042100000000573,41.23396999999932],[12.918719999999666,41.38952000000063],[12.635329999999158,41.450839999999516],[12.22487,41.75900999999976],[12.10894,41.92315000000053],[11.825539999999819,42.0311700000002],[11.578719999999521,42.31648999999925],[11.382159999999203,42.402570000000196],[11.092790000000605,42.39777999999933],[11.18431000000055,42.50058],[11.054850000000442,42.654280000000654],[10.777659999999742,42.79011999999966],[10.733539999999266,42.92178000000058],[10.45944000000054,42.96522],[10.530140000000756,43.09895999999935],[10.511689999999362,43.24866],[10.31804000000011,43.48934999999983],[10.225560000000769,43.875449999999546],[10.126539999999295,43.9962200000009],[9.7639,44.08892999999989],[9.28867,44.337540000000445],[9.190269999999146,44.313060000000405],[9.113429999999425,44.37866000000031],[8.754329999999754,44.433139999999185],[8.4753,44.30356000000029],[8.038720000000467,43.88126999999986],[7.373369999999341,43.73350000000028],[7.141180000000531,44.12512000000061],[6.924189999999726,44.821389999999155],[6.95115000000078,44.97869],[7.227109999999811,45.23157999999967],[7.102109999999811,45.617739999999685],[7.181590000000142,45.919190000000526],[7.377790000000459,46.22755999999936],[7.644599999999627,46.31249000000025],[8.019270000000688,46.330809999999474],[8.315150000000358,46.50626000000011],[8.631149999999252,46.57491999999911],[8.8213,46.77247999999963],[9.08122,46.88472999999976],[9.2397,47.135120000000825],[9.014250000000175,47.411519999999655],[9.018930000000182,47.595219999999244],[9.078120000000126,47.60124999999971]]]},"properties":{}},{"type":"Feature","geometry":{"type":"Polygon","coordinates":[[[13.409859999999753,48.57710000000043],[14.652330000000802,48.16563999999926],[14.862419999999474,48.23451000000023],[15.069980000000214,48.18108000000029],[15.273950000000696,48.23602000000028],[15.470660000000862,48.40701000000081],[16.243329999999332,48.36461000000054],[16.537720000000263,48.127259999999296],[17.078090000000884,48.12944000000061],[17.68113000000085,47.73758000000089],[18.60419,47.746359999999186],[18.759459999999308,47.804009999999835],[18.90245,47.75706999999966],[18.99877000000015,47.80318000000079],[19.01908999999978,47.46647999999914],[18.850829999999405,47.138890000000174],[18.943129999999655,46.74186],[18.945410000000265,46.646059999999125],[18.83908,46.61504000000059],[18.876350000000457,46.192510000000766],[18.6533500000005,46.00210999999945],[18.895479999999225,45.75561000000016],[18.935279999999693,45.672959999999875],[18.88690999999926,45.57498999999916],[19.007809999999154,45.50893999999971],[18.974169999999503,45.36644999999953],[19.09634,45.27714999999989],[19.274139999999534,45.2255499999992],[19.869520000000193,45.25091000000066],[20.254829999999856,45.14255000000048],[20.330120000000534,45.06438999999955],[20.303649999999834,44.934509999999136],[20.42483,44.835290000000896],[20.210010000000693,44.54177999999956],[20.174230000000534,43.94355999999971],[20.219069999999192,43.27878000000055],[20.28770000000077,43.05955999999969],[19.744430000000648,43.001650000000154],[19.024380000000747,42.79827],[18.82165999999961,42.68118999999933],[18.76303999999982,42.47501999999986],[18.454200000000128,42.45002000000022],[17.87053999999989,42.79963999999927],[17.4673700000003,42.88854],[17.366579999999885,42.97312000000056],[17.47961000000032,43.0238700000009],[17.26795999999922,43.158369999999195],[17.1829400000006,43.14459999999963],[16.930560000000696,43.37746999999945],[16.43829,43.50819000000047],[16.42222000000038,43.556399999999485],[16.059559999999692,43.4766],[15.933689999999842,43.55064999999922],[15.85189,43.7886],[15.414049999999406,43.91302999999971],[15.165600000000268,44.17748000000029],[15.215159999999742,44.32170000000042],[15.27743,44.27354000000014],[15.286299999999756,44.36485],[15.174160000000484,44.394790000000285],[14.896380000000136,44.704320000000735],[14.84764,45.10121000000072],[14.249050000000352,45.39646999999968],[14.81167,46.07580000000053],[14.853559999999561,46.22977],[14.784359999999651,46.29709],[14.34944,46.38568999999916],[13.377940000000308,46.82347999999911],[13.307909999999538,46.742669999999634],[13.02650999999969,46.726730000000316],[12.754650000000765,46.82121],[12.30754,46.69843000000037],[12.036079999999856,46.89509],[11.958870000000388,47.370380000000296],[11.97621000000072,47.482889999999315],[12.182800000000498,47.622660000000906],[12.104380000000674,47.76668000000063],[12.143340000000535,48.01703000000089],[12.451139999999214,48.23766000000069],[12.91465000000062,48.21437],[13.269060000000536,48.29751000000033],[13.393819999999323,48.383019999999306],[13.409859999999753,48.57710000000043]]]},"properties":{}},{"type":"Feature","geometry":{"type":"Polygon","coordinates":[[[-4.297239999999874,48.3107],[-4.445410000000265,48.25857999999971],[-4.53737,48.3578],[-4.297239999999874,48.3107]]]},"properties":{}},{"type":"Feature","geometry":{"type":"Polygon","coordinates":[[[-4.589389999999185,48.3468699999994],[-4.445410000000265,48.25857999999971],[-4.50324,48.19695999999931],[-4.589610000000903,48.25409000000036],[-4.589389999999185,48.3468699999994]]]},"properties":{}},{"type":"Feature","geometry":{"type":"Polygon","coordinates":[[[2.512430000000677,47.704789999999775],[2.672640000000683,47.66909999999916],[2.898409999999785,47.47293999999965],[2.87558,47.327400000000125],[3.06351,47.04920999999922],[3.063969999999244,46.7549],[3.568750000000364,46.45481],[3.958950000000186,45.832249999999476],[4.296469999999317,45.5974499999993],[4.606550000000425,45.58741],[4.916600000000471,45.72067000000061],[4.877409999999145,45.77298999999948],[4.962639999999737,45.823599999999715],[5.216189999999187,45.7817699999996],[5.393570000000182,45.87739],[5.656170000000202,45.62535000000025],[5.77654000000075,45.72052000000076],[5.87616,46.10801999999967],[6.33495000000039,46.31495],[6.78737,46.34743999999955],[6.953299999999217,45.934370000000854],[6.133369999999559,45.146090000000186],[6.123380000000907,44.96473],[6.522890000000189,44.57959999999912],[6.993340000000899,44.645039999999426],[7.141180000000531,44.12512000000061],[7.373369999999341,43.73350000000028],[7.147720000000845,43.64972999999918],[7.033939999999347,43.51618000000053],[6.956700000000637,43.54305000000022],[6.857900000000882,43.43312999999944],[6.756919999999809,43.42995999999948],[6.649090000000797,43.32408000000032],[6.615990000000238,43.16552000000047],[6.20737,43.12458999999944],[6.155430000000706,43.04073000000062],[5.910130000000208,43.113900000000285],[5.842559999999139,43.05659000000014],[5.641830000000482,43.19002],[5.393210000000181,43.21857000000091],[5.3213,43.35103999999956],[5.06538,43.3371700000007],[4.957050000000891,43.436680000000706],[4.746059999999488,43.38869999999952],[4.581959999999526,43.460619999999835],[4.210520000000542,43.47179999999935],[4.058730000000651,43.564109999999346],[3.728610000000117,43.435890000000654],[3.634060000000318,43.45773],[3.507729999999356,43.289520000000266],[3.304239999999481,43.25907999999981],[3.0656,43.05616999999984],[3.009110000000874,42.84072000000015],[3.09231,42.53895000000011],[3.037399999999252,42.48108999999931],[2.738760000000184,42.4362600000004],[2.380030000000261,42.54286999999931],[2.067069999999148,42.54123000000072],[1.58238,42.70249999999942],[1.066279999999097,42.64484000000084],[0.609839999999167,42.7824899999996],[-0.312690000000657,42.861360000000786],[-0.68476,43.101269999999204],[-1.065549999999348,43.16711000000032],[-1.559709999999541,43.375780000000304],[-1.598809999999503,43.463120000000345],[-1.451600000000326,43.70201000000088],[-1.258739999999307,44.53132],[-1.059970000000249,44.676110000000335],[-1.235290000000532,44.793690000000424],[-1.126319999999396,45.48874000000069],[-0.911860000000161,45.51153999999951],[-1.212670000000799,45.71207999999933],[-1.064249999999447,45.8966],[-1.044529999999213,46.02922000000035],[-1.201709999999366,46.17087],[-1.109060000000682,46.29128999999921],[-1.25691,46.285250000000815],[-1.78233,46.49637000000075],[-1.93419,46.71248999999989],[-2.119950000000244,46.83467000000019],[-1.999859999999899,47.056689999999435],[-2.152029999999286,47.11839999999938],[-2.115649999999732,47.289810000000216],[-2.02002,47.324210000000676],[-1.622009999999136,47.189290000000256],[-1.260130000000572,47.3070000000007],[-0.351979999999458,47.07947000000058],[0.302170000000842,47.05662999999913],[0.719199999999546,47.151],[1.814469999999346,47.56322],[2.512430000000677,47.704789999999775]]]},"properties":{}},{"type":"Feature","geometry":{"type":"Polygon","coordinates":[[[-3.196649999999863,47.30421000000024],[-3.211079999999129,47.38172999999915],[-3.12183,47.32768000000033],[-3.196649999999863,47.30421000000024]]]},"properties":{}},{"type":"Feature","geometry":{"type":"Polygon","coordinates":[[[-1.237199999999575,45.84699999999975],[-1.352380000000267,45.94261],[-1.343150000000605,46.03091999999924],[-1.220429999999396,45.96536999999989],[-1.19096,45.867920000000595],[-1.237199999999575,45.84699999999975]]]},"properties":{}},{"type":"Feature","geometry":{"type":"Polygon","coordinates":[[[28.799779999999373,45.34188],[28.94547000000057,45.30956999999944],[29.274279999999635,45.45082999999977],[29.582619999999224,45.40400000000045],[29.677820000000793,45.2792100000006],[29.674020000000382,44.98884],[29.58691,44.86211999999978],[29.181280000000697,44.800600000000486],[28.805249999999432,44.606519999999364],[28.654339999999138,44.28526000000056],[28.679050000000643,43.98265999999967],[28.591560000000754,43.73443000000043],[28.595509999999194,43.48056],[28.451129999999466,43.37557000000015],[28.107319999999163,43.38355000000047],[27.94708,43.196169999999256],[27.91237,42.75518000000011],[27.74055000000044,42.703380000000834],[27.74676,42.65360999999939],[27.49611999999979,42.4969],[27.728139999999257,42.4339400000008],[27.781880000000456,42.278190000000905],[28.029790000000503,42.0222],[28.055920000000697,41.92591],[27.998310000000856,41.86127999999917],[28.195229999999356,41.56784999999945],[29.05494,41.25348999999915],[29.0293700000002,41.0322699999997],[28.611469999999827,40.982599999999366],[28.559429999999338,41.04864000000089],[28.22761999999966,41.09319999999934],[28.027799999999843,41.054229999999734],[27.959360000000743,40.981910000000425],[27.730139999999665,41.038329999999405],[27.531569999999192,40.991149999999834],[27.28201000000081,40.69204],[26.712499999999636,40.46632999999929],[26.653739999999743,40.343220000000656],[26.488579999999274,40.27723],[26.27596000000085,40.076209999999264],[26.212789999999586,40.10841000000073],[26.2502199999999,40.3472899999997],[26.789570000000822,40.554299999999785],[26.823860000000423,40.63779000000068],[26.122269999999844,40.59777000000031],[26.040689999999813,40.82789000000048],[25.5801,40.860420000000886],[25.102740000000267,41.00321000000076],[24.8793399999995,40.908550000000105],[24.400050000000192,40.93993000000046],[24.20455000000038,41.26829],[24.076670000000377,41.36522999999943],[23.59541,41.58314000000064],[23.000200000000405,41.71812999999929],[23.52997999999934,42.361730000000534],[24.363279999999577,43.10903],[24.494919999999183,43.347030000000814],[24.522329999999783,43.75862000000052],[25.375029999999242,43.61392],[25.746800000000803,43.70336999999927],[26.131129999999757,43.97489999999925],[26.335150000000795,44.0298700000003],[26.912319999999454,44.13286999999946],[27.440049999999246,44.11628000000019],[27.596040000000357,44.207689999999275],[27.92106000000058,44.24099000000024],[28.107420000000275,44.44068999999945],[27.848990000000413,44.83779999999933],[28.026490000000194,45.37954],[28.2141900000006,45.44966000000022],[28.693880000000718,45.24885],[28.767760000000635,45.24851999999919],[28.799779999999373,45.34188]]]},"properties":{}},{"type":"Feature","geometry":{"type":"Polygon","coordinates":[[[14.700140000000829,45.16007],[14.690130000000863,45.08433999999943],[14.768480000000636,45.01521],[14.723219999999856,44.94066000000021],[14.446449999999459,45.10623999999916],[14.57654,45.248209999999744],[14.700140000000829,45.16007]]]},"properties":{}},{"type":"Feature","geometry":{"type":"Polygon","coordinates":[[[14.386140000000523,45.01833000000079],[14.296000000000276,45.161009999999806],[14.346470000000409,45.16793999999936],[14.386140000000523,45.01833000000079]]]},"properties":{}},{"type":"Feature","geometry":{"type":"Polygon","coordinates":[[[14.470649999999296,44.968989999999394],[14.488709999999628,44.66728999999941],[14.386500000000524,44.60719000000063],[14.32390999999916,44.940780000000814],[14.386140000000523,45.01833000000079],[14.470649999999296,44.968989999999394]]]},"properties":{}},{"type":"Feature","geometry":{"type":"Polygon","coordinates":[[[14.758200000000215,44.78719],[14.665080000000671,44.80710999999974],[14.696239999999307,44.84741000000031],[14.758200000000215,44.78719]]]},"properties":{}},{"type":"Feature","geometry":{"type":"Polygon","coordinates":[[[20.42483,44.835290000000896],[20.619049999999334,44.83944999999949],[20.60639000000083,44.75384],[20.80271999999968,44.657540000000154],[21.316979999999603,44.813280000000304],[21.508379999999306,44.7755300000008],[21.60429,44.66885],[21.9335200000005,44.634110000000874],[22.08426999999938,44.48265],[22.162790000000314,44.480390000000625],[22.26405,44.63510999999926],[22.459720000000743,44.70455000000038],[22.732029999999213,44.53596],[22.587180000000444,44.55599000000075],[22.462219999999434,44.474990000000616],[22.486800000000585,44.35751999999957],[22.627409999999145,44.29358999999931],[22.66744,44.20167000000038],[23.007620000000315,44.063099999999395],[22.88318000000072,43.99345],[22.84526,43.856980000000476],[23.08525,43.79375000000073],[23.470750000000407,43.84991000000082],[24.144140000000334,43.70027999999911],[24.522329999999783,43.75862000000052],[24.494919999999183,43.347030000000814],[24.363279999999577,43.10903],[23.52997999999934,42.361730000000534],[23.000200000000405,41.71812999999929],[23.59541,41.58314000000064],[24.013520000000426,41.40015999999923],[24.20455000000038,41.26829],[24.380460000000312,40.99963000000025],[24.334899999999834,40.83315000000039],[24.147929999999178,40.74946000000091],[24.05069,40.7186899999997],[23.816860000000815,40.78475000000071],[23.693699999999808,40.70282000000043],[23.875809999999547,40.54082000000017],[23.819439999999304,40.36340000000018],[23.707570000000487,40.290750000000116],[23.955439999999726,40.12752],[24.02021000000059,39.989480000000185],[23.91763,39.95158000000083],[23.62840999999935,40.2240299999994],[23.431950000000143,40.27477999999974],[23.29874000000018,40.231589999999414],[22.905909999999494,40.375739999999496],[22.85932,40.49721999999929],[22.984049999999115,40.5692],[22.920609999999215,40.647000000000844],[22.608389999999417,40.49296999999933],[22.64977,40.34943000000021],[22.550530000000435,40.14444],[22.581819999999425,40.04631999999947],[23.346690000000308,39.19759999999951],[23.317740000000413,39.1551500000005],[23.196640000000116,39.20237000000088],[23.14024000000063,39.2873299999992],[22.94938,39.354779999999664],[22.81815,39.215469999999186],[23.059429999999338,38.971120000000155],[22.854300000000876,38.8793399999995],[22.51691000000028,38.920249999999214],[22.459380000000237,38.84958999999981],[23.017299999999523,38.74656],[23.10613999999987,38.634760000000824],[23.298140000000785,38.64223999999922],[23.38509999999951,38.50851999999941],[23.810740000000806,38.38624999999956],[23.806060000000798,38.317409999999654],[24.00112000000081,38.244950000000244],[24.06667000000016,38.1197200000006],[23.995209999999133,38.07171000000017],[24.073169999999664,37.7851699999992],[24.03084999999919,37.65576999999939],[23.493930000000546,38.03071000000091],[23.012210000000778,37.89393000000018],[23.174409999999625,37.810810000000856],[23.133589999999458,37.72628000000077],[23.186250000000655,37.60932],[23.32575999999972,37.54264999999941],[23.356850000000122,37.63836000000083],[23.407649999999194,37.63392000000022],[23.511749999999665,37.436470000000554],[23.272109999999884,37.397109999999884],[23.193900000000212,37.293760000000475],[23.12257999999929,37.451139999999214],[22.756960000000618,37.580690000000686],[22.784270000000106,37.38796],[23.08511,36.8146799999995],[23.037089999999807,36.645580000000336],[23.14521000000059,36.54428999999982],[23.151529999999184,36.45269],[22.955770000000484,36.56508000000031],[22.728699999999662,36.81729000000087],[22.58393000000069,36.77866999999969],[22.498419999999896,36.61300999999912],[22.50098000000071,36.46012999999948],[22.381400000000212,36.4684699999998],[22.317339999999604,36.78266000000076],[22.130779999999504,36.94086000000061],[22.11737,37.035649999999805],[21.971419999999853,36.99027000000024],[21.97235,36.801509999999325],[21.881960000000618,36.72924000000057],[21.6879399999998,36.868749999999636],[21.57586000000083,37.07599999999911],[21.576999999999316,37.17930999999953],[21.69786000000022,37.28033999999934],[21.673189999999522,37.42760000000089],[21.58403999999973,37.54924000000028],[21.30833999999959,37.67106000000058],[21.29856,37.77052],[21.113869999999224,37.84887999999955],[21.108029999999417,37.91584999999941],[21.280029999999897,38.00348999999915],[21.37275000000045,38.20383000000038],[21.60478999999941,38.14777999999933],[21.69702999999936,38.1875],[21.763520000000426,38.32090000000062],[21.454030000000785,38.32234000000062],[21.344390000000203,38.42506999999932],[21.217319999999745,38.36496000000079],[21.08057,38.42391999999927],[21.086160000000746,38.517729999999574],[21.022460000000137,38.51560000000063],[20.84835000000021,38.798899999999776],[20.730069999999614,38.79032],[20.874519999999393,38.954100000000835],[21.058569999999236,38.88946000000033],[21.139680000000226,38.998680000000604],[20.81532999999945,39.09188],[20.704579999999623,39.04760999999962],[20.45466999999917,39.262549999999464],[20.35577000000012,39.280249999999796],[20.141030000000683,39.60786],[19.98493000000053,39.701059999999416],[20.002189999999246,39.84314000000086],[19.90171,40.00318999999945],[19.412780000000566,40.280720000000656],[19.494759999999587,40.350029999999606],[19.487999999999374,40.450520000000324],[19.34328,40.64477000000079],[19.489369999999326,40.98998000000029],[19.45749000000069,41.12954],[19.52002,41.26267999999982],[19.43419999999969,41.314510000000155],[19.41776000000027,41.41602000000057],[19.611039999999775,41.629070000000866],[19.611500000000888,41.79182000000037],[19.193849999999657,41.94373000000087],[19.088040000000547,42.14974000000075],[18.788119999999253,42.304840000000695],[18.741700000000492,42.415759999999864],[18.82165999999961,42.68118999999933],[18.97149,42.7776300000005],[19.6885199999997,42.98977999999988],[20.28770000000077,43.05955999999969],[20.175419999999576,43.82553999999982],[20.191580000000613,44.46274000000085],[20.42483,44.835290000000896]],[[21.97107,38.39208999999937],[22.06666000000041,38.26975999999922],[22.85793999999987,37.948889999999665],[22.962250000000495,37.94683000000077],[22.926900000000387,38.045829999999114],[23.165580000000773,38.07615000000078],[23.19737999999961,38.130960000000414],[23.136200000000827,38.1904599999998],[22.977419999999256,38.16916999999921],[22.79061,38.23309999999947],[22.663899999999558,38.37536],[22.604230000000825,38.29493],[22.458819999999832,38.4113099999995],[22.353139999999257,38.333080000000336],[21.97107,38.39208999999937]]]},"properties":{}},{"type":"Feature","geometry":{"type":"Polygon","coordinates":[[[14.921570000000429,44.656380000000354],[15.004290000000765,44.58005000000048],[14.961789999999382,44.54911],[14.83868000000075,44.6249399999997],[14.921570000000429,44.656380000000354]]]},"properties":{}},{"type":"Feature","geometry":{"type":"Polygon","coordinates":[[[14.961789999999382,44.54911],[15.004290000000765,44.58005000000048],[15.085800000000745,44.48056],[14.961789999999382,44.54911]]]},"properties":{}},{"type":"Feature","geometry":{"type":"Polygon","coordinates":[[[14.997779999999693,44.49683999999979],[14.928649999999834,44.47602],[14.961789999999382,44.54911],[14.997779999999693,44.49683999999979]]]},"properties":{}},{"type":"Feature","geometry":{"type":"Polygon","coordinates":[[[15.085800000000745,44.48056],[15.215159999999742,44.32170000000042],[15.068250000000262,44.33158],[14.997779999999693,44.49683999999979],[15.085800000000745,44.48056]]]},"properties":{}},{"type":"Feature","geometry":{"type":"Polygon","coordinates":[[[15.174160000000484,44.394790000000285],[15.286299999999756,44.36485],[15.27743,44.27354000000014],[15.174160000000484,44.394790000000285]]]},"properties":{}},{"type":"Feature","geometry":{"type":"Polygon","coordinates":[[[15.359200000000783,43.80696999999964],[15.2465200000006,43.88044000000082],[15.33962000000065,43.8697200000006],[15.359200000000783,43.80696999999964]]]},"properties":{}},{"type":"Feature","geometry":{"type":"Polygon","coordinates":[[[-7.868510000000242,43.7769100000005],[-7.791929999999411,43.72979999999916],[-7.649929999999586,43.79016000000047],[-7.198239999999714,43.56781000000046],[-6.098229999999603,43.56670999999915],[-5.811900000000605,43.647829999999885],[-5.641869999999471,43.54885],[-4.63351,43.40818000000036],[-4.268309999999474,43.396160000000236],[-3.815819999999803,43.48425],[-3.765649999999368,43.4402599999994],[-3.621220000000903,43.50161999999909],[-3.057979999999588,43.335290000000896],[-2.951189999999769,43.426289999999426],[-2.796829999999318,43.447729999999865],[-2.349829999999201,43.30189000000064],[-2.145109999999477,43.29704],[-1.598809999999503,43.463120000000345],[-1.559709999999541,43.375780000000304],[-1.065549999999348,43.16711000000032],[-0.68476,43.101269999999204],[-0.312690000000657,42.861360000000786],[0.609839999999167,42.7824899999996],[1.066279999999097,42.64484000000084],[1.58238,42.70249999999942],[2.067069999999148,42.54123000000072],[2.380030000000261,42.54286999999931],[2.655590000000302,42.44090999999935],[3.037399999999252,42.48108999999931],[3.09231,42.53895000000011],[3.16561,42.3795599999994],[3.27984,42.29965000000084],[3.11276,42.25735],[3.20982,41.92523000000074],[2.952059999999619,41.74692999999934],[2.26901,41.46647999999914],[2.092500000000655,41.28715999999986],[1.011650000000373,41.05510999999933],[0.711059999999634,40.829900000000634],[0.414950000000317,40.369010000000344],[0.036679999999251,40.03204],[-0.336419999999634,39.48014999999941],[-0.186589999999342,39.03685000000041],[0.162539999999353,38.82251999999971],[0.206260000000839,38.730429999999615],[-0.49120000000039,38.34757],[-0.63579000000027,38.145800000000236],[-0.740100000000893,37.81963999999971],[-0.857809999999517,37.73319000000083],[-0.790399999999863,37.65656999999919],[-0.822519999999713,37.58483999999953],[-1.263279999999213,37.570480000000316],[-1.612610000000132,37.39463000000069],[-1.791090000000622,37.27370999999948],[-1.89934,36.94463],[-2.11689,36.736839999999575],[-2.333049999999275,36.835259999999835],[-2.481509999999616,36.83307000000059],[-2.716140000000451,36.684800000000905],[-2.909530000000814,36.74218],[-3.470699999999852,36.6900999999998],[-3.825759999999718,36.7524599999997],[-4.357780000000275,36.71332000000075],[-4.641939999999522,36.5054199999995],[-4.896259999999529,36.50892000000022],[-5.182759999999689,36.38944000000083],[-5.442450000000463,36.064080000000104],[-5.59267,36.02225999999973],[-6.056720000000496,36.2180900000003],[-6.205739999999423,36.40557000000081],[-6.151589999999487,36.581169999999474],[-6.35167,36.59633000000031],[-6.441399999999703,36.71272999999928],[-6.267180000000735,36.840910000000804],[-6.130100000000311,36.84065],[-5.968740000000253,36.999949999999444],[-5.937099999999191,37.119259999999485],[-6.09002,37.2456600000005],[-6.478119999999763,37.10858999999982],[-6.478909999999814,36.99793999999929],[-6.528949999999895,36.98559000000023],[-6.975280000000566,37.23367],[-7.51505,37.14234000000033],[-7.910719999999856,36.96240000000034],[-8.142869999999675,37.068380000000616],[-8.61153000000013,37.13305000000037],[-8.988139999999476,37.01673999999912],[-8.790429999999105,37.47631],[-8.81057999999939,37.87497000000076],[-8.871220000000903,37.94887000000017],[-8.793789999999717,38.19319],[-8.815029999999751,38.39287999999942],[-8.694620000000214,38.44065000000046],[-8.77844,38.5386],[-9.142540000000736,38.42141000000083],[-9.250050000000556,38.67653000000064],[-9.4415599999993,38.68525000000045],[-9.487320000000182,38.77560000000085],[-9.340070000000196,39.3462],[-9.102670000000217,39.5664799999995],[-8.843419999999242,40.12277],[-8.9074,40.20009000000027],[-8.69535,40.74085000000014],[-8.657849999999598,41.069939999999406],[-8.869520000000193,41.744300000000294],[-8.880549999999857,42.07955000000038],[-8.725539999999455,42.282320000000254],[-8.81453,42.26708999999937],[-8.790080000000671,42.3712],[-8.917569999999614,42.44420999999966],[-8.805759999999282,42.49468999999954],[-8.817590000000564,42.607599999999366],[-9.048759999999675,42.55536000000029],[-9.05422,42.76628999999957],[-9.109549999999217,42.77094000000034],[-9.150840000000244,42.90719],[-9.278109999999288,42.92857],[-9.277389999999286,43.02781999999934],[-9.15733,43.18767999999909],[-8.82892,43.3469499999992],[-8.62732,43.32137999999941],[-8.212380000000849,43.39270000000033],[-8.195379999999204,43.47056],[-8.291939999999158,43.47501000000011],[-8.303680000000895,43.57671999999911],[-7.868510000000242,43.7769100000005]],[[-9.120080000000598,38.7328],[-9.085549999999785,38.64068000000043],[-8.96147000000019,38.75807999999961],[-8.99633,38.888339999999516],[-9.120080000000598,38.7328]]]},"properties":{}},{"type":"Feature","geometry":{"type":"Polygon","coordinates":[[[16.6839,43.45087000000058],[16.85668000000078,43.4060300000001],[16.844409999999698,43.28801000000021],[16.574580000000424,43.27298999999948],[16.412379999999757,43.34568000000036],[16.48729,43.39869],[16.682769999999437,43.37262],[16.6839,43.45087000000058]]]},"properties":{}},{"type":"Feature","geometry":{"type":"Polygon","coordinates":[[[16.85668000000078,43.4060300000001],[17.1829400000006,43.14459999999963],[16.722680000000764,43.178610000000845],[16.574580000000424,43.27298999999948],[16.844409999999698,43.28801000000021],[16.85668000000078,43.4060300000001]]]},"properties":{}},{"type":"Feature","geometry":{"type":"Polygon","coordinates":[[[16.574580000000424,43.27298999999948],[16.722680000000764,43.178610000000845],[16.596949999999197,43.14769999999953],[16.574580000000424,43.27298999999948]]]},"properties":{}},{"type":"Feature","geometry":{"type":"Polygon","coordinates":[[[16.124630000000252,43.01673999999912],[16.07260999999926,43.02464999999938],[16.09224,43.072550000000774],[16.196649999999863,43.080840000000535],[16.124630000000252,43.01673999999912]]]},"properties":{}},{"type":"Feature","geometry":{"type":"Polygon","coordinates":[[[17.03645999999935,43.02039999999943],[17.11427999999978,43.018299999999726],[17.13579000000027,42.95531999999912],[17.056459999999788,42.92411],[16.979369999999108,42.98121],[17.03645999999935,43.02039999999943]]]},"properties":{}},{"type":"Feature","geometry":{"type":"Polygon","coordinates":[[[9.479690000000119,42.87183],[9.448029999999562,42.71078999999918],[9.530749999999898,42.53115000000071],[9.54968,42.12275000000045],[9.414950000000317,41.964889999999286],[9.399880000000849,41.69896999999946],[9.209930000000895,41.37139000000025],[8.8408500000005,41.5265],[8.789349999999104,41.60008000000016],[8.834259999999631,41.70701],[8.691279999999097,41.76146999999946],[8.767719999999827,41.92434999999932],[8.614289999999528,41.92422000000079],[8.692310000000361,42.0306],[8.56362000000081,42.242379999999685],[8.7223,42.58828999999969],[9.109070000000429,42.73047000000042],[9.30591,42.70249999999942],[9.374190000000453,43.014499999999316],[9.458870000000388,42.9720899999993],[9.479690000000119,42.87183]]]},"properties":{}},{"type":"Feature","geometry":{"type":"Polygon","coordinates":[[[16.802170000000842,42.912350000000515],[16.64941,42.95583000000079],[16.7758900000008,42.98430999999982],[16.802170000000842,42.912350000000515]]]},"properties":{}},{"type":"Feature","geometry":{"type":"Polygon","coordinates":[[[10.351329999999507,42.807049999999435],[10.38717,42.72545999999966],[10.113670000000639,42.752119999999195],[10.110780000000887,42.80313000000024],[10.25554000000011,42.83957],[10.351329999999507,42.807049999999435]]]},"properties":{}},{"type":"Feature","geometry":{"type":"Polygon","coordinates":[[[18.66518,42.431039999999484],[18.714710000000196,42.5088],[18.76303999999982,42.47501999999986],[18.741700000000492,42.415759999999864],[18.66518,42.431039999999484]]]},"properties":{}},{"type":"Feature","geometry":{"type":"Polygon","coordinates":[[[18.741700000000492,42.415759999999864],[18.668289999999615,42.37061],[18.66518,42.431039999999484],[18.741700000000492,42.415759999999864]]]},"properties":{}},{"type":"Feature","geometry":{"type":"Polygon","coordinates":[[[29.50792,40.74136999999973],[29.583769999999276,40.69796999999926],[29.730279999999766,40.75230999999985],[29.28838999999971,40.80964999999924],[29.05030000000079,40.98681000000033],[29.047590000000127,41.16949000000022],[29.28226,41.23949],[30.128609999999753,41.14686000000074],[30.263150000000678,41.2176500000005],[30.81536000000051,41.08727999999974],[31.24185000000034,41.11602],[31.369290000000547,41.193709999999555],[31.432419999999183,41.3269],[32.26233999999931,41.70597000000089],[33.33748999999989,42.03736000000026],[34.70709999999963,41.94924],[35.013849999999366,42.0976699999992],[35.1614699999991,42.04227],[35.13033,41.884869999999864],[35.306909999999334,41.7119500000008],[35.60579999999936,41.63745000000017],[35.94294000000082,41.73971999999958],[36.038660000000164,41.70844000000034],[36.14812999999958,41.43716999999924],[36.39955,41.26079000000027],[36.7534799999994,41.361839999999575],[37.051219999999375,41.1917],[37.503129999999146,41.0616399999999],[37.77218999999968,41.137870000000476],[37.81753000000026,41.04796999999962],[37.95777000000089,40.99237],[38.52368000000024,40.92785999999978],[38.94018,41.05776999999944],[39.44315,41.11447000000044],[40.11557,40.92865999999958],[40.4947200000006,41.021419999999125],[40.41437000000042,40.85197],[40.78327,40.788549999999304],[42.110280000000785,40.3150999999998],[43.22689,39.61496000000079],[43.64063999999962,39.29324000000088],[43.75164000000041,38.94787],[43.72943999999916,38.71558],[43.58473000000049,38.37189000000035],[43.51192000000083,37.860570000000735],[42.73931000000084,37.5875300000007],[41.77038,37.46437999999944],[39.02464999999938,37.91288999999961],[37.00923999999941,37.923399999999674],[35.16356000000087,37.64588999999978],[33.472030000000814,37.110930000000735],[33.127479999999196,37.3966],[32.79817,37.82208],[32.895220000000336,38.04870999999912],[32.75360999999975,38.281779999999344],[32.31587000000036,38.4332200000008],[31.722939999999653,38.33918000000085],[31.71006,38.51764],[31.171720000000278,39.136060000000725],[31.082459999999628,39.95536],[30.6515,40.032030000000304],[29.974340000000666,39.812079999999696],[29.538790000000517,39.748680000000604],[29.35258000000067,39.8456299999998],[29.121320000000196,39.84669000000031],[28.788759999999456,40.01708999999937],[28.584179999999833,39.962209999999686],[28.435719999999492,40.02815],[28.545389999999315,40.13409],[28.43066,40.29254000000037],[28.482280000000173,40.38905],[29.034770000000208,40.37278999999944],[29.072630000000572,40.47329],[28.920749999999316,40.471480000000156],[28.819799999999304,40.56888000000072],[29.50792,40.74136999999973]]]},"properties":{}},{"type":"Feature","geometry":{"type":"Polygon","coordinates":[[[9.37837000000036,41.24283],[9.4218,41.15294],[9.550279999999475,41.105970000000525],[9.564379999999801,40.95174000000043],[9.825689999999668,40.525910000000295],[9.61269,40.248530000000756],[9.70817999999963,40.069180000000415],[9.620999999999185,39.307740000000194],[9.536729999999807,39.14307999999983],[9.065490000000864,39.213770000000295],[9.015289999999368,39.0347899999997],[8.906590000000506,38.929729999999836],[8.7143300000007,38.941650000000664],[8.635270000000673,38.88882000000012],[8.494619999999486,39.08921],[8.389909999999873,38.99565000000075],[8.345279999999548,39.08426999999938],[8.450049999999464,39.724669999999605],[8.546039999999266,39.82020999999986],[8.50959999999941,39.91623000000072],[8.390869999999268,39.95687],[8.389489999999569,40.05751000000055],[8.476720000000569,40.106949999999415],[8.46176000000014,40.30414000000019],[8.378679999999804,40.36439000000064],[8.3101800000004,40.58504],[8.1641,40.643560000000434],[8.15474,40.78493999999955],[8.218590000000404,40.91487000000052],[8.56394,40.86055999999917],[9.12974000000031,41.16522000000077],[9.156290000000809,41.2603],[9.37837000000036,41.24283]]]},"properties":{}},{"type":"Feature","geometry":{"type":"Polygon","coordinates":[[[24.619269999999233,40.579970000000685],[24.510270000000673,40.67453000000023],[24.55841,40.76534999999967],[24.7456600000005,40.76145],[24.770829999999478,40.61460000000079],[24.619269999999233,40.579970000000685]]]},"properties":{}},{"type":"Feature","geometry":{"type":"Polygon","coordinates":[[[29.50792,40.74136999999973],[29.730279999999766,40.75230999999985],[29.583769999999276,40.69796999999926],[29.50792,40.74136999999973]]]},"properties":{}},{"type":"Feature","geometry":{"type":"Polygon","coordinates":[[[27.62772000000041,40.58194999999978],[27.531310000000303,40.61276],[27.544920000000275,40.661089999999604],[27.65733,40.646020000000135],[27.62772000000041,40.58194999999978]]]},"properties":{}},{"type":"Feature","geometry":{"type":"Polygon","coordinates":[[[27.660620000000563,40.4717099999998],[27.69663000000037,40.52464999999938],[27.999509999999646,40.500560000000405],[27.962579999999434,40.42612],[28.007579999999507,40.36738999999943],[28.482280000000173,40.38905],[28.43066,40.29254000000037],[28.545389999999315,40.13409],[28.452830000000176,40.08016999999927],[28.484850000000733,39.99431999999979],[28.788759999999456,40.01708999999937],[29.17935000000034,39.82879999999932],[29.35258000000067,39.8456299999998],[29.468769999999495,39.754619999999704],[29.974340000000666,39.812079999999696],[30.6515,40.032030000000304],[31.082459999999628,39.95536],[31.171720000000278,39.136060000000725],[31.71006,38.51764],[31.722939999999653,38.33918000000085],[32.40085999999974,38.42821],[32.70692000000054,38.31310999999914],[32.8792799999992,38.10784000000058],[32.89278000000013,37.99647],[32.79817,37.82208],[31.571289999999863,37.4372000000003],[31.82170000000042,37.09812000000056],[32.00221000000056,36.54449000000022],[31.19109000000026,36.84297999999944],[30.695890000000873,36.8798599999991],[30.579429999999775,36.79233000000022],[30.567559999999503,36.54563000000053],[30.450520000000324,36.24028],[30.185009999999238,36.27950000000055],[29.813889999999446,36.19130000000041],[29.76122000000032,36.12514999999985],[29.218010000000504,36.28598000000056],[29.140260000000126,36.36599000000024],[29.07294,36.67864],[28.936170000000857,36.74127000000044],[28.86751,36.59329000000071],[28.77498999999989,36.68345000000045],[28.621680000000197,36.69568000000072],[28.59965000000011,36.79264999999941],[28.281740000000354,36.82275999999911],[28.211170000000493,36.67884000000049],[28.033359999999448,36.605830000000424],[28.05861,36.77614999999969],[27.976769999999306,36.77203],[28.020699999999124,36.899209999999584],[28.177229999999327,36.94677000000047],[28.195910000000367,37.02844],[27.442199999999502,36.97046000000046],[27.418649999999616,37.01555999999982],[27.273909999999887,36.94123000000036],[27.251140000000305,37.12613000000056],[27.489509999999427,37.10405999999966],[27.55272999999943,37.226409999999305],[27.38488999999936,37.35448],[27.21089000000029,37.36924],[27.22646999999961,37.51932999999917],[27.27850000000035,37.52680999999939],[27.167820000000575,37.692119999999704],[27.280319999999847,37.778190000000905],[27.27882999999929,37.981910000000425],[26.863540000000285,38.05993],[26.741249999999127,38.20967000000019],[26.59849000000031,38.08640999999989],[26.255380000000514,38.28052000000025],[26.473900000000867,38.357459999999264],[26.374050000000352,38.60654000000068],[26.431870000000345,38.676620000000185],[26.53016000000025,38.6569099999997],[26.700559999999314,38.37821000000076],[27.136000000000422,38.44093000000066],[27.038650000000416,38.536340000000564],[27.035219999999754,38.628570000000764],[26.788029999999708,38.61619000000064],[26.76647000000048,38.69578],[27.074130000000878,38.884539999999106],[27.05998,38.93361],[26.88257,38.91599999999926],[26.822720000000118,38.9738899999993],[26.886679999999615,39.09699],[26.60211999999956,39.28296000000046],[26.62437999999929,39.381680000000415],[26.724850000000515,39.348040000000765],[26.927050000000236,39.48358999999982],[26.931930000000648,39.58477],[26.083300000000236,39.49426999999923],[26.16313000000082,39.67852999999923],[26.184509999999136,39.99793999999929],[26.329760000000533,40.03286999999909],[26.488579999999274,40.27723],[26.675820000000385,40.39278999999988],[26.994549999999435,40.39190000000053],[27.273549999999886,40.48188999999911],[27.4087,40.342060000000856],[27.806790000000547,40.34560000000056],[27.82115999999951,40.393630000000485],[27.660620000000563,40.4717099999998]]]},"properties":{}},{"type":"Feature","geometry":{"type":"Polygon","coordinates":[[[25.501459999999497,40.51195999999982],[25.688179999999193,40.492889999999534],[25.57459000000017,40.41700999999921],[25.501459999999497,40.51195999999982]]]},"properties":{}},{"type":"Feature","geometry":{"type":"Polygon","coordinates":[[[23.883320000000822,40.38666000000012],[23.978300000000672,40.42124999999942],[24.152210000000196,40.360280000000785],[24.393400000000838,40.185489999999845],[24.376350000000457,40.137329999999565],[23.883320000000822,40.38666000000012]]]},"properties":{}},{"type":"Feature","geometry":{"type":"Polygon","coordinates":[[[25.97686000000067,40.17102999999952],[25.758379999999306,40.10059],[25.717930000000706,40.17872999999963],[25.911879999999655,40.23512],[25.97686000000067,40.17102999999952]]]},"properties":{}},{"type":"Feature","geometry":{"type":"Polygon","coordinates":[[[23.38472,40.14227000000028],[23.687630000000354,39.92115999999987],[23.360849999999118,39.9633300000005],[23.29034,40.08554],[23.329799999999523,40.18001],[23.38472,40.14227000000028]]]},"properties":{}},{"type":"Feature","geometry":{"type":"Polygon","coordinates":[[[4.112160000000586,40.062589999999545],[4.248419999999896,39.98997000000054],[4.280220000000554,39.80407000000014],[3.814420000000609,39.96574999999939],[3.812330000000657,40.06601000000046],[4.112160000000586,40.062589999999545]]]},"properties":{}},{"type":"Feature","geometry":{"type":"Polygon","coordinates":[[[25.39617999999973,39.94386999999915],[25.352209999999104,39.79184999999961],[25.300869999999122,39.79005],[25.269979999999123,39.88271999999961],[25.16961000000083,39.8099000000002],[25.08691,39.83567000000039],[25.034719999999652,39.963550000000396],[25.207479999999123,40.02498000000014],[25.39617999999973,39.94386999999915]]]},"properties":{}},{"type":"Feature","geometry":{"type":"Polygon","coordinates":[[[3.161640000000261,39.93467000000055],[3.13065,39.78698000000077],[3.416900000000169,39.76483],[3.443250000000262,39.66788000000088],[3.075619999999617,39.28921000000082],[2.743189999999231,39.38712999999916],[2.650620000000345,39.55292],[2.466969999999492,39.48543000000063],[2.345289999999295,39.552999999999884],[2.343600000000151,39.60560000000078],[2.765180000000328,39.85107000000062],[3.161640000000261,39.93467000000055]]]},"properties":{}},{"type":"Feature","geometry":{"type":"Polygon","coordinates":[[[3.161640000000261,39.93467000000055],[3.080700000000434,39.88380999999936],[3.066000000000713,39.9367000000002],[3.161640000000261,39.93467000000055]]]},"properties":{}},{"type":"Feature","geometry":{"type":"Polygon","coordinates":[[[19.90827,39.622520000000804],[19.94212999999945,39.482459999999264],[19.877200000000812,39.45260000000053],[19.647209999999177,39.76705000000038],[19.923689999999624,39.792999999999665],[19.90827,39.622520000000804]]]},"properties":{}},{"type":"Feature","geometry":{"type":"Polygon","coordinates":[[[26.063899999999194,39.10225],[25.873250000000553,39.16679],[25.86931999999979,39.256859999999506],[26.323990000000776,39.38334000000032],[26.505559999999605,39.19074],[26.560929999999644,39.00619999999981],[26.383560000000216,38.97794000000067],[26.063899999999194,39.10225]]]},"properties":{}},{"type":"Feature","geometry":{"type":"Polygon","coordinates":[[[23.122059999999692,39.11503000000084],[23.196640000000116,39.20237000000088],[23.181070000000545,39.09677999999985],[23.122059999999692,39.11503000000084]]]},"properties":{}},{"type":"Feature","geometry":{"type":"Polygon","coordinates":[[[23.681109999999535,39.15350000000035],[23.7534799999994,39.08895999999913],[23.679469999999128,39.079170000000886],[23.681109999999535,39.15350000000035]]]},"properties":{}},{"type":"Feature","geometry":{"type":"Polygon","coordinates":[[[1.378720000000612,38.841449999999895],[1.229320000000371,38.87104],[1.293089999999211,39.039049999999406],[1.58381,39.0933100000002],[1.597920000000158,39.04315999999926],[1.378720000000612,38.841449999999895]]]},"properties":{}},{"type":"Feature","geometry":{"type":"Polygon","coordinates":[[[23.25199000000066,39.02519000000029],[23.35454000000027,39.021129999999175],[23.598439999999755,38.7722],[24.127599999999802,38.65344999999979],[24.28462000000036,38.20072000000073],[24.586859999999433,38.128129999999146],[24.57064999999966,37.99166999999943],[24.351189999999406,37.97675999999956],[24.14178,38.20802],[24.041199999999662,38.212069999999585],[24.093430000000808,38.270619999999326],[24.009260000000722,38.394249999999374],[23.71274000000085,38.412570000000414],[23.612119999999777,38.472900000000664],[23.601559999999154,38.56558000000041],[23.185170000000653,38.835549999999785],[23.039189999999508,38.87576000000081],[22.89716000000044,38.82266999999956],[22.854300000000876,38.8793399999995],[23.25199000000066,39.02519000000029]]]},"properties":{}},{"type":"Feature","geometry":{"type":"Polygon","coordinates":[[[24.617990000000646,38.742560000000594],[24.43735000000015,38.88347000000067],[24.496429999999236,38.962499999999636],[24.64761,38.83302],[24.617990000000646,38.742560000000594]]]},"properties":{}},{"type":"Feature","geometry":{"type":"Polygon","coordinates":[[[-9.120080000000598,38.7328],[-8.99633,38.888339999999516],[-8.96147000000019,38.75807999999961],[-9.085549999999785,38.64068000000043],[-9.120080000000598,38.7328]]]},"properties":{}},{"type":"Feature","geometry":{"type":"Polygon","coordinates":[[[20.730069999999614,38.79032],[20.777130000000398,38.635920000000624],[20.61456,38.623530000000756],[20.5922300000002,38.75872999999956],[20.730069999999614,38.79032]]]},"properties":{}},{"type":"Feature","geometry":{"type":"Polygon","coordinates":[[[25.989079999999376,38.16592999999921],[25.8835,38.27520999999979],[25.996279999999388,38.36624],[25.9635300000009,38.46212999999989],[25.85117,38.55269000000044],[25.994469999999637,38.5948499999995],[26.144019999999728,38.49835999999959],[26.158919999999853,38.343479999999545],[25.989079999999376,38.16592999999921]]]},"properties":{}},{"type":"Feature","geometry":{"type":"Polygon","coordinates":[[[-8.694620000000214,38.44065000000046],[-8.815029999999751,38.39287999999942],[-8.883190000000468,38.46294999999918],[-8.728269999999611,38.5349499999993],[-8.694620000000214,38.44065000000046]]]},"properties":{}},{"type":"Feature","geometry":{"type":"Polygon","coordinates":[[[20.63947,38.36787],[20.630189999999857,38.4646300000004],[20.730330000000322,38.35975999999937],[20.63947,38.36787]]]},"properties":{}},{"type":"Feature","geometry":{"type":"Polygon","coordinates":[[[20.763230000000476,38.17590000000018],[20.80760999999984,38.10920000000078],[20.72947000000022,38.064109999999346],[20.537609999999404,38.09634],[20.43989,38.19664999999986],[20.393809999999576,38.15943999999945],[20.34618000000046,38.23371000000043],[20.423800000000483,38.35219999999936],[20.507400000000416,38.329649999999674],[20.53892000000087,38.45886000000064],[20.63947,38.36787],[20.60682000000088,38.29613000000063],[20.763230000000476,38.17590000000018]]]},"properties":{}},{"type":"Feature","geometry":{"type":"Polygon","coordinates":[[[15.599299999999857,38.280179999999746],[15.08684,37.51639000000068],[15.08256000000074,37.36182],[15.231739999999263,37.28031999999985],[15.287210000000414,37.108720000000176],[15.10448,36.887329999999565],[15.096180000000459,36.689080000000104],[14.49899,36.81297000000086],[14.19916000000012,37.09605999999985],[13.74395,37.17273000000023],[12.950339999999414,37.57033000000047],[12.643449999999575,37.59164000000055],[12.42821,37.782209999999395],[12.50753000000077,38.02104999999938],[12.73910000000069,38.17479],[12.93368,38.03260000000046],[13.032279999999446,38.06480999999985],[13.103549999999814,38.19815000000017],[13.297269999999116,38.21932000000015],[13.40438,38.10470999999961],[13.497750000000451,38.12203000000045],[13.765269999999873,37.97751000000062],[14.015880000000834,38.0547600000009],[14.465609999999288,38.04588999999942],[14.740669999999227,38.177309999999125],[15.08354,38.13573],[15.24772,38.25113000000056],[15.599299999999857,38.280179999999746]]]},"properties":{}},{"type":"Feature","geometry":{"type":"Polygon","coordinates":[[[23.57307000000037,38.0044999999991],[23.55394999999953,37.9319200000009],[23.447879999999714,37.89455000000089],[23.493930000000546,38.03071000000091],[23.57307000000037,38.0044999999991]]]},"properties":{}},{"type":"Feature","geometry":{"type":"Polygon","coordinates":[[[35.83828,30.158880000000863],[35.97903000000042,28.39856999999938],[36.16512999999941,27.874439999999595],[36.1299,27.815459999999803],[35.89546999999948,27.7792900000004],[35.39208999999937,27.787109999999302],[35.28609999999935,27.96299],[35.19758,27.96531],[35.17616000000089,28.034050000000207],[35.250449999999546,28.045249999999214],[35.03399,28.124110000000655],[34.76385999999911,28.095900000000256],[34.7148300000008,28.146740000000136],[34.62984999999935,28.05913999999939],[34.60838999999942,28.15400000000045],[34.79355000000032,28.439410000000862],[34.7781300000006,28.64761],[34.944250000000466,29.174800000000687],[34.99237,29.57014],[34.755049999999756,29.3135199999997],[34.620530000000144,28.721929999999702],[34.39199,28.299689999999828],[34.41755000000012,28.00367],[34.216340000000855,27.753160000000207],[33.77946999999949,28.002010000000155],[33.27764000000025,28.516379999999117],[33.158190000000104,28.979950000000827],[32.736080000000584,29.46589],[32.67655999999988,29.75504],[32.53570000000036,29.95799000000079],[32.36752999999953,29.66907],[32.39423,29.524429999999484],[32.58794999999918,29.36280000000079],[32.63520000000062,28.962890000000698],[32.80069999999978,28.79047],[32.86692000000039,28.596530000000712],[33.555490000000646,27.888569999999163],[33.56975000000057,27.685429999999542],[33.52193000000079,27.644969999999375],[33.844960000000356,27.21479999999974],[34.00022999999965,26.862440000000788],[33.94715,26.67972],[34.215039999999135,26.25014999999985],[33.98538,25.058419999999387],[33.874180000000706,24.07469999999921],[33.601699999999255,23.342790000000605],[33.37105999999949,23.02958000000035],[33.11499,22.89549000000079],[32.17660000000069,23.306329999999434],[31.92153,23.572720000000118],[31.506719999999405,24.268270000000484],[30.40618,26.67771999999968],[30.012210000000778,28.01807],[29.555959999999686,28.28492],[28.57561,28.542160000000877],[27.662720000000263,28.619339999999283],[22.636130000000776,28.856330000000526],[22.206640000000334,28.772619999999733],[19.68419999999969,28.730139999999665],[18.419439999999668,28.637870000000476],[18.438000000000102,28.897800000000643],[18.220279999999548,30.6078],[18.22940000000017,30.688710000000356],[18.690819999999803,30.35877000000073],[18.97295,30.248670000000857],[19.326680000000124,30.273160000000644],[19.700999999999112,30.45646999999917],[20.024789999999484,30.78903],[20.15459,31.0664799999995],[19.923479999999472,31.732309999999416],[19.949150000000373,31.988390000000436],[20.061659999999392,32.1596499999996],[20.586530000000494,32.56424],[21.003380000000107,32.76411],[21.30953000000045,32.7765500000005],[21.678900000000795,32.947039999999106],[22.170319999999265,32.94181000000026],[23.07618999999977,32.64106999999967],[23.14148000000023,32.443020000000615],[23.1016,32.35274000000027],[23.292429999999513,32.1923599999991],[23.71647,32.16691],[24.20039,31.986940000000686],[24.729709999999614,32.03047999999944],[25.03136000000086,31.950479999999516],[25.05825999999979,31.80163],[25.249949999999444,31.514870000000883],[25.945820000000822,31.62728000000061],[27.023300000000745,31.434119999999893],[27.361629999999423,31.364260000000286],[27.434010000000853,31.23146000000088],[27.68094000000019,31.177739999999176],[27.87333000000035,31.23356000000058],[27.934540000000197,31.10996999999952],[28.59707999999955,31.03922000000057],[29.002290000000357,30.834399999999732],[29.5046399999992,30.942259999999806],[30.05297000000064,31.305560000000696],[30.221449999999095,31.279319999999643],[30.38422,31.45636999999988],[30.5989699999991,31.38415999999961],[30.900980000000345,31.41603000000032],[31.127270000000863,31.592819999999847],[31.543729999999414,31.443429999999353],[31.94633000000067,31.50796000000082],[32.050460000000385,31.370500000000902],[32.404529999999795,31.2201299999997],[32.56859000000077,31.059450000000652],[32.89803000000029,31.12735000000066],[33.01104999999916,31.078059999999823],[33.087900000000445,31.185090000000855],[33.17105000000083,31.04862999999932],[33.41744,31.15208999999959],[33.598040000000765,31.10726000000068],[33.91309999999976,31.17195],[34.240599999999176,31.324539999999615],[34.58856000000014,31.69715],[34.85432000000037,32.26231],[34.95759,32.811900000000605],[35.0624200000002,32.881320000000414],[35.123320000000604,33.13092999999935],[35.51087,33.924409999999625],[35.623349999999846,34.00174999999945],[35.65450000000055,34.292929999999615],[35.972499999999854,34.5870900000009],[35.866910000000644,34.92913000000044],[35.952149999999165,35.254430000000866],[35.92224999999962,35.39785999999913],[35.73992999999973,35.62774],[35.97404,36.048689999999624],[35.81576999999925,36.35606],[36.18728999999985,36.62082],[36.18674,36.822039999999106],[36.01512999999977,36.923650000000634],[35.63061000000016,36.73128999999972],[35.56211000000076,36.594600000000355],[35.41464000000087,36.562840000000506],[35.17431000000033,36.7206299999998],[34.66735999999946,36.804009999999835],[34.130049999999756,36.43663000000015],[34.026239999999234,36.280259999999544],[33.88318000000072,36.305930000000444],[33.562809999999445,36.126570000000356],[32.97163999999975,36.099669999999605],[32.780720000000656,36.03347000000031],[32.368640000000596,36.18856000000051],[32.00221000000056,36.54449000000022],[31.82170000000042,37.09812000000056],[31.571289999999863,37.4372000000003],[32.79817,37.82208],[33.127479999999196,37.3966],[33.472030000000814,37.110930000000735],[34.97650000000067,37.59998000000087],[36.1859800000002,37.82918000000063],[37.13982000000033,37.92819000000054],[38.86189000000013,37.874550000000454],[39.20948,38.0235100000009],[40.00330000000031,37.92215000000033],[40.45568,38.14304000000084],[41.27165000000059,38.26110999999946],[41.90625,38.44122000000061],[42.98559000000023,38.30761999999959],[43.54262000000017,37.988289999999324],[43.47987,37.17490999999973],[43.22269000000051,36.324469999999565],[42.75871,35.64133000000038],[42.44202000000041,35.433100000000195],[41.662679999999455,35.32695000000058],[39.268159999999625,35.79824],[39.160610000000815,35.50689000000057],[38.72845000000052,34.805599999999686],[37.3793399999995,33.2468000000008],[37.07865999999922,32.54032],[36.71146000000044,31.97818],[36.12960000000021,30.846980000000258],[35.83828,30.158880000000863]]]},"properties":{}},{"type":"Feature","geometry":{"type":"Polygon","coordinates":[[[24.955110000000786,37.71133],[24.711380000000645,37.87393999999949],[24.6929999999993,37.96988000000056],[24.77939999999944,37.99273],[24.936600000000908,37.89559],[24.955110000000786,37.71133]]]},"properties":{}},{"type":"Feature","geometry":{"type":"Polygon","coordinates":[[[20.92217999999957,37.76670000000013],[20.779350000000704,37.69775999999911],[20.641050000000178,37.88056999999935],[20.726220000000467,37.905909999999494],[20.92217999999957,37.76670000000013]]]},"properties":{}},{"type":"Feature","geometry":{"type":"Polygon","coordinates":[[[-0.740100000000893,37.81963999999971],[-0.735539999999673,37.67247999999927],[-0.790399999999863,37.65656999999919],[-0.857809999999517,37.73319000000083],[-0.740100000000893,37.81963999999971]]]},"properties":{}},{"type":"Feature","geometry":{"type":"Polygon","coordinates":[[[27.06931000000077,37.72052000000076],[26.87645,37.65080999999918],[26.59159,37.71430999999939],[26.700399999999718,37.8143799999998],[26.85757999999987,37.818859999999404],[27.019200000000637,37.80011000000013],[27.06931000000077,37.72052000000076]]]},"properties":{}},{"type":"Feature","geometry":{"type":"Polygon","coordinates":[[[23.463299999999435,37.70197999999982],[23.42852,37.741149999999834],[23.52124999999978,37.7765],[23.463299999999435,37.70197999999982]]]},"properties":{}},{"type":"Feature","geometry":{"type":"Polygon","coordinates":[[[26.00569,37.527830000000904],[26.083259999999427,37.642910000000484],[26.329540000000634,37.699319999999716],[26.277910000000702,37.5970699999998],[26.00569,37.527830000000904]]]},"properties":{}},{"type":"Feature","geometry":{"type":"Polygon","coordinates":[[[24.31174,37.53950000000077],[24.26246,37.55106999999953],[24.284449999999197,37.650400000000445],[24.387300000000323,37.66835],[24.31174,37.53950000000077]]]},"properties":{}},{"type":"Feature","geometry":{"type":"Polygon","coordinates":[[[25.181909999999334,37.53441000000021],[25.017830000000686,37.68609],[25.204610000000685,37.64137999999912],[25.2524599999997,37.592759999999544],[25.181909999999334,37.53441000000021]]]},"properties":{}},{"type":"Feature","geometry":{"type":"Polygon","coordinates":[[[24.416149999999107,37.33598999999958],[24.36989999999969,37.35526000000027],[24.420860000000175,37.48569999999927],[24.416149999999107,37.33598999999958]]]},"properties":{}},{"type":"Feature","geometry":{"type":"Polygon","coordinates":[[[24.8747800000001,37.39024000000063],[24.87956999999915,37.48305000000073],[24.949179999999615,37.4688100000003],[24.8747800000001,37.39024000000063]]]},"properties":{}},{"type":"Feature","geometry":{"type":"Polygon","coordinates":[[[-2.329190000000381,35.1359],[-2.04722000000038,35.074759999999515],[-1.738750000000437,35.14052000000083],[-1.280119999999442,35.3489699999991],[-1.167589999999109,35.57762],[-0.92994,35.73228000000017],[-0.801729999999225,35.7771300000004],[-0.606739999999263,35.72718999999961],[-0.38438,35.912679999999455],[-0.104380000000674,35.79701000000023],[0.034240000000864,35.8711600000006],[0.217790000000605,36.116869999999835],[0.996259999999893,36.48070999999982],[2.355840000000171,36.65476999999919],[2.603220000000874,36.62046],[2.998159999999189,36.834609999999884],[3.117299999999886,36.75652000000082],[3.225270000000819,36.82307000000037],[3.482350000000224,36.797169999999824],[3.859800000000178,36.941360000000714],[4.773919999999634,36.91067],[5.310530000000654,36.6582899999994],[5.744150000000445,36.8475099999996],[6.197410000000673,36.91440999999941],[6.294480000000476,37.047529999999824],[6.435499999999593,37.10353000000032],[6.945980000000418,36.9015500000005],[7.19211,36.94836000000032],[7.253339999999298,37.0925900000002],[7.405549999999494,37.089],[7.759079999999813,36.98036999999931],[7.791080000000875,36.88343999999961],[7.893659999999727,36.869300000000294],[8.821250000000873,36.98113000000012],[9.209469999999783,37.25438000000031],[9.708660000000236,37.354230000000825],[10.197120000000723,37.19818999999916],[10.068269999999757,37.11945000000014],[10.095020000000659,37.02363999999943],[10.33556999999928,36.86513999999988],[10.22744000000057,36.78636],[10.411959999999453,36.717749999999796],[10.516019999999116,36.74927000000025],[10.621880000000601,36.898010000000795],[11.045640000000276,37.08499],[11.129269999999451,36.85909999999967],[10.970709999999599,36.732959999999366],[10.80445999999938,36.470139999999446],[10.555060000000594,36.38244999999915],[10.47052000000076,36.19297999999981],[10.645599999999831,35.825520000000324],[10.81934,35.793359999999666],[10.8472299999994,35.699899999999616],[11.04443,35.63341000000037],[11.034530000000814,35.390230000000884],[11.110609999999724,35.2523999999994],[10.754479999999603,34.69369999999981],[10.565629999999146,34.535320000000866],[10.168149999999514,34.388160000000425],[9.97761,34.20324000000073],[10.155710000000909,33.89456000000064],[10.48027,33.661630000000514],[10.7482,33.69833],[10.751640000000407,33.5176],[10.944939999999406,33.576789999999164],[10.973949999999604,33.70300999999927],[11.1021,33.59843],[11.11038,33.3774599999997],[11.195340000000215,33.342060000000856],[11.151659999999538,33.28820000000087],[11.220209999999497,33.2161300000007],[11.707770000000892,33.14585000000079],[12.267159999999421,32.861150000000634],[12.670330000000831,32.80248000000029],[13.207430000000386,32.92901999999958],[13.361189999999624,32.91222000000016],[13.602600000000166,32.8069200000009],[13.80379,32.81385000000046],[14.190919999999096,32.70082],[14.52182,32.50041000000056],[15.176229999999123,32.39239000000089],[15.340319999999338,32.194439999999304],[15.51411,31.615270000000237],[15.715039999999135,31.39121999999952],[16.09469,31.2302],[16.727539999999863,31.187819999999192],[17.375099999999293,31.05757000000085],[18.195260000000417,30.75677],[18.45975,28.679959999999483],[16.934010000000853,28.98483],[14.599239999999554,29.658559999999852],[12.921360000000277,30.37942],[11.77256,31.130409999999756],[10.776519999999437,31.606630000000223],[7.105719999999565,32.955480000000534],[6.056409999999232,33.268],[5.36573,33.36595],[4.254759999999806,33.33237],[-0.110389999999825,33.609340000000884],[-3.54758000000038,33.682880000000296],[-3.329139999999825,34.21285999999964],[-3.148880000000645,34.45298],[-2.68246,34.882949999999255],[-2.413930000000619,34.997880000000805],[-2.329190000000381,35.1359]],[[9.82923,37.26202000000012],[9.783729999999196,37.2395],[9.811869999999544,37.14527000000089],[9.911910000000717,37.17504],[9.82923,37.26202000000012]]]},"properties":{}},{"type":"Feature","geometry":{"type":"Polygon","coordinates":[[[9.82923,37.26202000000012],[9.911910000000717,37.17504],[9.811869999999544,37.14527000000089],[9.783729999999196,37.2395],[9.82923,37.26202000000012]]]},"properties":{}},{"type":"Feature","geometry":{"type":"Polygon","coordinates":[[[24.466839999999138,37.12910000000011],[24.41799,37.14141000000018],[24.48007999999936,37.2131700000009],[24.51426,37.14633999999933],[24.466839999999138,37.12910000000011]]]},"properties":{}},{"type":"Feature","geometry":{"type":"Polygon","coordinates":[[[25.45267000000058,36.93029000000024],[25.38738999999987,37.09530000000086],[25.51959,37.19796999999926],[25.60318,37.11082999999962],[25.546770000000834,36.96863999999914],[25.45267000000058,36.93029000000024]]]},"properties":{}},{"type":"Feature","geometry":{"type":"Polygon","coordinates":[[[25.09545000000071,37.0302300000003],[25.15381999999954,37.12228999999934],[25.265869999999268,37.13779000000068],[25.23171,36.999400000000605],[25.09545000000071,37.0302300000003]]]},"properties":{}},{"type":"Feature","geometry":{"type":"Polygon","coordinates":[[[26.960619999999835,36.94328999999925],[26.92108,36.97847999999976],[26.98315999999977,37.05877],[27.04392999999982,36.992850000000544],[26.960619999999835,36.94328999999925]]]},"properties":{}},{"type":"Feature","geometry":{"type":"Polygon","coordinates":[[[27.273909999999887,36.94123000000036],[27.31083000000035,36.8441899999998],[27.075230000000374,36.76531000000068],[27.04644,36.827470000000176],[27.273909999999887,36.94123000000036]]]},"properties":{}},{"type":"Feature","geometry":{"type":"Polygon","coordinates":[[[25.950989999999365,36.87255],[25.888440000000628,36.79356999999982],[25.851810000000114,36.829680000000735],[25.950989999999365,36.87255]]]},"properties":{}},{"type":"Feature","geometry":{"type":"Polygon","coordinates":[[[11.995790000000852,36.76577],[11.946710000000166,36.83169000000089],[12.036840000000666,36.81334000000061],[11.995790000000852,36.76577]]]},"properties":{}},{"type":"Feature","geometry":{"type":"Polygon","coordinates":[[[27.04644,36.827470000000176],[26.95269,36.69470999999976],[26.925520000000688,36.73979999999938],[27.04644,36.827470000000176]]]},"properties":{}},{"type":"Feature","geometry":{"type":"Polygon","coordinates":[[[27.91802,36.74932000000081],[27.770689999999377,36.77568000000065],[27.850609999999506,36.80928],[27.91802,36.74932000000081]]]},"properties":{}},{"type":"Feature","geometry":{"type":"Polygon","coordinates":[[[25.363279999999577,36.6561899999997],[25.25886,36.762080000000424],[25.29602999999952,36.79775999999947],[25.377909999999247,36.7464400000008],[25.363279999999577,36.6561899999997]]]},"properties":{}},{"type":"Feature","geometry":{"type":"Polygon","coordinates":[[[27.653920000000653,36.79433000000063],[27.631349999999657,36.66623000000072],[27.430790000000343,36.6614699999991],[27.431790000000547,36.741869999999835],[27.653920000000653,36.79433000000063]]]},"properties":{}},{"type":"Feature","geometry":{"type":"Polygon","coordinates":[[[24.365050000000338,36.64990000000034],[24.31408999999985,36.65926000000036],[24.34124999999949,36.75166],[24.512220000000525,36.76742000000013],[24.517789999999877,36.679229999999734],[24.365050000000338,36.64990000000034]]]},"properties":{}},{"type":"Feature","geometry":{"type":"Polygon","coordinates":[[[27.834860000000845,36.538329999999405],[27.762109999999666,36.60857000000033],[27.847719999999754,36.66430000000037],[27.834860000000845,36.538329999999405]]]},"properties":{}},{"type":"Feature","geometry":{"type":"Polygon","coordinates":[[[26.375519999999597,36.58561],[26.36518000000069,36.517620000000534],[26.26752999999917,36.543830000000526],[26.276009999999587,36.593329999999696],[26.375519999999597,36.58561]]]},"properties":{}},{"type":"Feature","geometry":{"type":"Polygon","coordinates":[[[28.15006,36.22878],[28.083950000000186,36.10078000000067],[27.942849999999453,36.04416999999921],[27.851629999999204,35.91432999999961],[27.752959999999803,35.91744],[27.75980999999956,36.07010000000082],[27.69801,36.14321000000018],[27.835269999999582,36.292489999999816],[28.21184,36.447589999999764],[28.15006,36.22878]]]},"properties":{}},{"type":"Feature","geometry":{"type":"Polygon","coordinates":[[[25.443310000000565,36.4351800000004],[25.47226000000046,36.36629],[25.390520000000834,36.380300000000716],[25.443310000000565,36.4351800000004]]]},"properties":{}},{"type":"Feature","geometry":{"type":"Polygon","coordinates":[[[23.018840000000637,36.14300999999978],[22.93319,36.188819999999396],[22.94521999999961,36.3786999999993],[23.066759999999704,36.288979999999356],[23.018840000000637,36.14300999999978]]]},"properties":{}},{"type":"Feature","geometry":{"type":"Polygon","coordinates":[[[14.492630000000645,35.84222000000045],[14.34944,35.89306000000033],[14.324459999999817,35.97809000000052],[14.362639999999374,36.01116],[14.548479999999472,35.906629999999495],[14.492630000000645,35.84222000000045]]]},"properties":{}},{"type":"Feature","geometry":{"type":"Polygon","coordinates":[[[27.185589999999138,35.595330000000104],[27.23048000000017,35.47378000000026],[27.130370000000767,35.41667000000052],[27.081309999999576,35.59469],[27.204569999999876,35.72635000000082],[27.185589999999138,35.595330000000104]]]},"properties":{}},{"type":"Feature","geometry":{"type":"Polygon","coordinates":[[[24.164570000000822,35.59144000000015],[24.293939999999566,35.36225999999988],[24.998349999999846,35.41686],[25.101269999999204,35.3383900000008],[25.71689999999944,35.336240000000544],[25.781769999999597,35.13400999999976],[26.065189999999347,35.23754999999983],[26.161879999999655,35.20530999999937],[26.28033999999934,35.286739999999554],[26.300600000000486,35.15893],[26.257900000000518,35.06142],[26.117260000000897,34.993249999999534],[25.914349999999104,35.02853999999934],[24.788909999999305,34.92986000000019],[24.694229999999152,35.0948499999995],[23.53587999999945,35.27224000000024],[23.569760000000315,35.52462000000014],[23.73007999999936,35.54121999999916],[23.731229999999414,35.67494000000079],[23.840570000000298,35.52960999999959],[23.997059999999692,35.51658999999927],[24.164570000000822,35.59144000000015]]]},"properties":{}},{"type":"Feature","geometry":{"type":"Polygon","coordinates":[[[34.42950000000019,35.620960000000196],[34.42229000000043,35.55261000000064],[33.93425000000025,35.27573999999913],[33.92228000000068,35.17821999999978],[34.026700000000346,35.06431],[33.980359999999564,34.98990000000049],[33.692220000000816,34.9707899999994],[33.627300000000105,34.839490000000296],[33.0876700000008,34.68377999999939],[32.975249999999505,34.56460999999945],[32.87075,34.66172999999981],[32.51570999999967,34.697910000000775],[32.336520000000746,34.863139999999476],[32.27958000000035,35.09512],[32.41791999999987,35.03903],[32.61441999999988,35.18561000000045],[32.86476000000039,35.14803000000029],[32.94906000000083,35.37464999999975],[33.46731,35.33133000000089],[34.42950000000019,35.620960000000196]]]},"properties":{}},{"type":"Feature","geometry":{"type":"Polygon","coordinates":[[[26.915349999999307,35.33496000000014],[26.910369999999602,35.40642999999909],[26.986179999999877,35.39825000000019],[26.915349999999307,35.33496000000014]]]},"properties":{}},{"type":"Feature","geometry":{"type":"Polygon","coordinates":[[[10.853769999999713,33.907750000000306],[10.96803,33.91432999999961],[11.036920000000464,33.83918000000085],[10.973949999999604,33.70300999999927],[10.77006000000074,33.75187],[10.77045,33.85499999999956],[10.853769999999713,33.907750000000306]]]},"properties":{}},{"type":"Feature","geometry":{"type":"Polygon","coordinates":[[[-4.888039999999819,35.33487000000059],[-4.712299999999232,35.22885999999926],[-4.3665,35.162790000000314],[-3.931819999999789,35.26959],[-3.815409999999247,35.20354000000043],[-3.693429999999353,35.30385000000024],[-3.332899999999427,35.21512000000075],[-3.050149999999121,35.30582999999933],[-2.958919999999125,35.45365],[-2.860060000000885,35.14048999999977],[-2.749180000000706,35.11068999999952],[-2.855530000000726,35.21918],[-2.58535,35.09531000000061],[-2.329439999999522,35.13596999999936],[-2.413930000000619,34.99786999999924],[-2.68246,34.882949999999255],[-3.148880000000645,34.45298],[-3.329139999999825,34.21285999999964],[-3.54758000000038,33.682880000000296],[-4.665580000000773,33.7823499999995],[-5.816269999999349,34.042090000000826],[-6.906769999999597,33.9635300000009],[-6.555360000000292,34.406090000000404],[-6.305570000000444,34.877259999999296],[-6.224790000000212,34.86081000000013],[-6.276519999999437,34.97494999999981],[-5.91136,35.80695000000014],[-5.284669999999096,35.91328000000067],[-5.335310000000391,35.78259000000071],[-5.202660000000833,35.54675999999927],[-4.888039999999819,35.33487000000059]]]},"properties":{}},{"type":"Feature","geometry":{"type":"Polygon","coordinates":[[[21.31579000000056,44.795350000000326],[21.41902999999911,45.25445000000036],[22.179949999999735,46.29052000000047],[23.077830000000176,46.723550000000614],[22.99833000000035,47.263629999999466],[23.06027,47.4932000000008],[23.271660000000338,47.66223],[24.468090000000302,47.71429999999964],[25.2395,47.394350000000486],[26.06931000000077,46.90359999999964],[26.069229999999152,46.28485999999975],[26.158939999999347,46.00360999999975],[26.087419999999838,45.846410000000105],[25.925349999999526,45.7176500000005],[24.37176,45.46103000000039],[24.279899999999543,45.27868],[24.35925,45.14177000000018],[24.275480000000243,44.91662],[24.356939999999668,44.44489000000067],[24.772080000000642,43.79830000000038],[24.033919999999853,43.69828000000052],[23.749470000000656,43.78031999999985],[22.813319999999294,43.86539000000084],[22.944910000000164,44.08387000000039],[21.730470000000423,44.31844],[21.31579000000056,44.795350000000326]]]},"properties":{}},{"type":"Feature","geometry":{"type":"Polygon","coordinates":[[[3.62576000000081,51.705260000000635],[4.007890000000771,51.82550000000083],[4.229789999999412,51.752990000000864],[4.381450000000768,51.620849999999336],[4.18989,51.4677300000003],[3.58209,51.607019999999466],[3.569530000000668,51.6941599999991],[3.62576000000081,51.705260000000635]]]},"properties":{}}]}