{"type":"FeatureCollection","features":[{"type":"Feature","geometry":{"type":"Polygon","coordinates":[[[8.185779999999795,43.99641999999949],[8.023090000000593,44.060310000000754],[7.915940000000774,44.20433000000048],[7.693279999999504,44.6384],[7.678939999999784,44.95536],[8.107459999999264,45.452730000000884],[8.378759999999602,45.65288999999939],[8.69038,45.73067000000083],[9.458080000000336,45.737600000000384],[11.85621,46.40716000000066],[12.401840000000448,46.41059999999925],[12.65027,46.03620000000046],[12.7756700000009,45.61340000000018],[12.537819999999556,45.49501000000055],[12.319729999999254,45.47049999999945],[12.169840000000477,45.32315000000017],[12.294879999999466,45.22069999999985],[12.155810000000201,44.73299000000043],[12.280510000000504,44.63465999999971],[12.240309999999226,44.44031],[12.419029999999111,44.18433999999979],[12.686299999999392,43.98583999999937],[13.616739999999481,43.55341000000044],[14.015869999999268,42.66921999999977],[14.80450000000019,42.052019999999175],[15.249770000000353,41.915139999999155],[15.613129999999728,41.92420999999922],[15.73554999999942,41.85248999999931],[15.890960000000632,41.94350999999915],[16.18499999999949,41.88839],[16.18254,41.78921000000082],[15.846349999999802,41.50936999999976],[17.040689999999813,41.0900500000007],[17.557039999999688,40.802309999999125],[18.041769999999815,40.63026],[18.419159999999465,40.31297000000086],[18.525910000000295,40.12889],[18.33651,39.78937000000042],[18.03216000000066,39.95723999999973],[17.985650000000533,40.14535000000069],[17.862419999999474,40.268990000000485],[17.49888,40.29782999999952],[17.140799999999217,40.511060000000725],[16.904829999999492,40.43527999999969],[16.61073000000033,40.11083999999937],[16.641639999999825,39.95803999999953],[16.490100000000893,39.77564999999959],[16.577730000000884,39.65672000000086],[16.78016000000025,39.62185999999929],[17.158030000000508,39.36384],[17.11095000000023,39.11765999999989],[17.157960000000458,38.93409000000065],[16.934649999999237,38.93375999999989],[16.59516000000076,38.806290000000445],[16.56605,38.41258000000016],[16.294959999999264,38.26194000000032],[16.098550000000614,37.96524999999929],[15.702470000000176,37.94232000000011],[15.63825,38.017900000000736],[15.648119999999835,38.26473000000078],[15.787749999999505,38.280539999999746],[15.90129,38.447949999999764],[15.86729000000014,38.656740000000354],[16.18533000000025,38.750850000000355],[16.222820000000866,38.84478999999919],[15.72661,39.97940000000017],[15.545819999999367,40.0597400000006],[15.355830000000424,39.99050999999963],[15.122890000000552,40.16440999999941],[15.037710000000516,40.16480000000047],[14.91914,40.26252000000022],[14.980380000000878,40.399020000000746],[14.799839999999676,40.65046000000075],[14.456490000000485,40.615239999999176],[14.394920000000639,40.657789999999295],[14.451919999999518,40.74034000000029],[14.2716,40.83279000000039],[14.042069999999512,40.847169999999096],[13.744829999999638,41.236039999999775],[13.592909999999392,41.256499999999505],[13.574409999999261,41.20902000000024],[13.280989999999292,41.29890999999952],[13.042100000000573,41.23396999999932],[12.918719999999666,41.38952000000063],[12.635329999999158,41.450839999999516],[12.22487,41.75900999999976],[12.10894,41.92315000000053],[11.825539999999819,42.0311700000002],[11.578719999999521,42.31648999999925],[11.382159999999203,42.402570000000196],[11.092790000000605,42.39777999999933],[11.18431000000055,42.50058],[11.054850000000442,42.654280000000654],[10.777659999999742,42.79011999999966],[10.733539999999266,42.92178000000058],[10.45944000000054,42.96522],[10.530140000000756,43.09895999999935],[10.511689999999362,43.24866],[10.31804000000011,43.48934999999983],[10.206070000000182,43.923829999999725],[10.083189999999377,44.02285],[9.7639,44.08892999999989],[9.28867,44.337540000000445],[9.190269999999146,44.313060000000405],[8.80616,44.43453000000045],[8.4753,44.30356000000029],[8.185779999999795,43.99641999999949]]]},"properties":{}},{"type":"Feature","geometry":{"type":"Polygon","coordinates":[[[4.970349999999598,45.67294000000038],[5.662879999999859,45.72931000000062],[6.066349999999147,45.29853],[6.610109999999622,44.14398000000074],[6.818069999999352,43.93982999999935],[6.829499999999825,43.752730000000156],[6.970279999999548,43.54709],[6.649090000000797,43.32408000000032],[6.659170000000813,43.19167000000016],[6.20737,43.12458999999944],[6.155430000000706,43.04073000000062],[5.910130000000208,43.113900000000285],[5.842559999999139,43.05659000000014],[5.641830000000482,43.19002],[5.393210000000181,43.21857000000091],[5.3213,43.35103999999956],[5.06538,43.3371700000007],[4.957050000000891,43.436680000000706],[4.801090000000841,43.38138000000072],[4.581959999999526,43.460619999999835],[4.2626,43.460619999999835],[4.058730000000651,43.564109999999346],[3.728610000000117,43.435890000000654],[3.634060000000318,43.45773],[3.507729999999356,43.289520000000266],[3.356599999999162,43.2809699999998],[3.13188000000082,43.133060000000114],[3.009110000000874,42.84072000000015],[3.09231,42.53895000000011],[3.037399999999252,42.48108999999931],[2.655590000000302,42.44090999999935],[2.380030000000261,42.54286999999931],[2.067069999999148,42.54123000000072],[1.640240000000631,42.693310000000565],[1.268,42.669889999999214],[1.213820000000851,42.8471499999996],[1.330309999999372,44.08273999999983],[1.509400000000824,44.20298],[1.93275,44.25786],[2.583399999999529,43.934080000000904],[2.808919999999489,43.901159999999436],[3.018490000000384,43.96884999999929],[3.239400000000387,44.204719999999725],[3.326419999999416,44.398839999999836],[3.335870000000796,44.69427],[3.437480000000505,44.95314999999937],[3.853510000000824,45.278550000000905],[4.448790000000372,45.44239000000016],[4.970349999999598,45.67294000000038]]]},"properties":{}},{"type":"Feature","geometry":{"type":"Polygon","coordinates":[[[23.074189999999362,42.09292],[23.504580000000715,42.032929999999396],[24.031530000000203,41.86595],[24.894500000000335,41.21258999999918],[25.01397,40.98630000000048],[24.84991000000082,40.90461999999934],[24.395300000000134,40.9359000000004],[24.334899999999834,40.83315000000039],[24.05069,40.7186899999997],[23.816860000000815,40.78475000000071],[23.725650000000314,40.74289999999928],[23.693699999999808,40.70282000000043],[23.875809999999547,40.54082000000017],[23.819439999999304,40.36340000000018],[23.707570000000487,40.290750000000116],[23.955439999999726,40.12752],[23.99102,39.94828000000052],[23.91763,39.95158000000083],[23.62840999999935,40.2240299999994],[23.431950000000143,40.27477999999974],[23.29874000000018,40.231589999999414],[22.905909999999494,40.375739999999496],[22.85932,40.49721999999929],[22.984049999999115,40.5692],[22.920609999999215,40.647000000000844],[22.63054000000011,40.53820000000087],[22.64977,40.34943000000021],[22.550530000000435,40.14444],[22.581819999999425,40.04631999999947],[23.346690000000308,39.19759999999951],[23.317740000000413,39.1551500000005],[23.196640000000116,39.20237000000088],[23.14024000000063,39.2873299999992],[22.94938,39.354779999999664],[22.81815,39.215469999999186],[23.059429999999338,38.971120000000155],[22.854300000000876,38.8793399999995],[22.51691000000028,38.920249999999214],[22.459380000000237,38.84958999999981],[23.017299999999523,38.74656],[23.10613999999987,38.634760000000824],[23.298140000000785,38.64223999999922],[23.38509999999951,38.50851999999941],[23.810740000000806,38.38624999999956],[23.806060000000798,38.317409999999654],[24.041199999999662,38.212069999999585],[24.06667000000016,38.1197200000006],[23.995209999999133,38.07171000000017],[24.070799999999508,37.68593999999939],[23.97972999999911,37.664049999999406],[23.493930000000546,38.03071000000091],[23.012210000000778,37.89393000000018],[23.174409999999625,37.810810000000856],[23.133589999999458,37.72628000000077],[23.186250000000655,37.60932],[23.32575999999972,37.54264999999941],[23.356850000000122,37.63836000000083],[23.407649999999194,37.63392000000022],[23.511749999999665,37.436470000000554],[23.272109999999884,37.397109999999884],[23.193900000000212,37.293760000000475],[23.12257999999929,37.451139999999214],[22.8724600000005,37.51489000000038],[22.806000000000495,37.5923700000003],[22.736619999999675,37.53363],[22.997810000000754,37.05949999999939],[23.0967,36.76568000000043],[23.037089999999807,36.645580000000336],[23.14521000000059,36.54428999999982],[23.151529999999184,36.45269],[22.955770000000484,36.56508000000031],[22.728699999999662,36.81729000000087],[22.58393000000069,36.77866999999969],[22.463879999999335,36.42509000000064],[22.381400000000212,36.4684699999998],[22.317339999999604,36.78266000000076],[22.130779999999504,36.94086000000061],[22.11737,37.035649999999805],[21.971419999999853,36.99027000000024],[21.97235,36.801509999999325],[21.881960000000618,36.72924000000057],[21.6879399999998,36.868749999999636],[21.57586000000083,37.07599999999911],[21.576999999999316,37.17930999999953],[21.69786000000022,37.28033999999934],[21.673189999999522,37.42760000000089],[21.58403999999973,37.54924000000028],[21.30833999999959,37.67106000000058],[21.29856,37.77052],[21.113869999999224,37.84887999999955],[21.108029999999417,37.91584999999941],[21.280029999999897,38.00348999999915],[21.37275000000045,38.20383000000038],[21.60478999999941,38.14777999999933],[21.69702999999936,38.1875],[21.763520000000426,38.32090000000062],[21.454030000000785,38.32234000000062],[21.344390000000203,38.42506999999932],[21.217319999999745,38.36496000000079],[21.08057,38.42391999999927],[21.086160000000746,38.517729999999574],[21.022460000000137,38.51560000000063],[20.84835000000021,38.798899999999776],[20.730069999999614,38.79032],[20.874519999999393,38.954100000000835],[21.058569999999236,38.88946000000033],[21.139680000000226,38.998680000000604],[20.81532999999945,39.09188],[20.704579999999623,39.04760999999962],[20.45466999999917,39.262549999999464],[20.35577000000012,39.280249999999796],[20.141030000000683,39.60786],[19.98493000000053,39.701059999999416],[20.002189999999246,39.84314000000086],[19.90171,40.00318999999945],[19.412780000000566,40.280720000000656],[19.494759999999587,40.350029999999606],[19.487999999999374,40.450520000000324],[19.34328,40.64477000000079],[19.489369999999326,40.98998000000029],[19.45749000000069,41.12954],[19.52002,41.26267999999982],[19.43419999999969,41.314510000000155],[19.41776000000027,41.41602000000057],[19.611039999999775,41.629070000000866],[19.611500000000888,41.79182000000037],[19.189440000000104,41.95075],[19.25301000000036,42.01185000000078],[20.140760000000228,42.160799999999654],[21.195299999999406,42.25308000000041],[23.074189999999362,42.09292]],[[21.97107,38.39208999999937],[22.06666000000041,38.26975999999922],[22.85793999999987,37.948889999999665],[22.962250000000495,37.94683000000077],[22.926900000000387,38.045829999999114],[23.165580000000773,38.07615000000078],[23.19737999999961,38.130960000000414],[23.136200000000827,38.1904599999998],[22.977419999999256,38.16916999999921],[22.79061,38.23309999999947],[22.663899999999558,38.37536],[22.604230000000825,38.29493],[22.458819999999832,38.4113099999995],[22.353139999999257,38.333080000000336],[21.97107,38.39208999999937]]]},"properties":{}},{"type":"Feature","geometry":{"type":"Polygon","coordinates":[[[-7.324909999999363,37.16482999999971],[-7.337470000000394,37.39423],[-6.82661,38.05940999999984],[-6.568419999999605,38.29667999999947],[-6.209220000000641,38.50403],[-5.076890000000276,38.86548000000039],[-4.302929999999833,39.36751],[-3.44811,40.46285999999964],[-3.36809,40.63955999999962],[-3.11841,40.887360000000626],[-2.921379999999772,41.36334],[-2.598260000000664,41.855900000000474],[-1.93862000000081,42.43699000000015],[-0.971729999999297,43.0006400000002],[-0.662270000000717,43.08915999999954],[0.999949999999444,42.634509999999864],[1.515869999999268,42.69252000000051],[2.000679999999193,42.53158000000076],[2.31358,42.533439999999246],[2.589219999999841,42.43167],[2.97091,42.47211000000061],[3.025739999999132,42.5300100000004],[3.099229999999807,42.370670000000246],[3.198389999999563,42.3390500000005],[3.176499999999578,42.25631000000067],[3.046539999999368,42.248429999999644],[3.143990000000485,41.91638000000057],[2.886490000000776,41.73790999999983],[2.203900000000431,41.457000000000335],[2.027630000000499,41.277570000000196],[0.947260000000824,41.04479],[0.646989999999278,40.81938000000082],[0.351479999999356,40.35830999999962],[-0.026330000000598,40.0211],[-0.398740000000544,39.46897999999965],[-0.248439999999391,39.02578999999969],[0.100850000000719,38.81171],[0.144669999999678,38.71964999999909],[-0.552240000000893,38.336339999999836],[-0.69659,38.13448000000062],[-0.800530000000435,37.80825999999979],[-0.918120000000272,37.721740000000864],[-0.850640000000567,37.64517],[-0.882680000000619,37.573420000000624],[-1.323340000000826,37.55877],[-1.672409999999218,37.382690000000366],[-1.850730000000112,37.26166000000012],[-1.958619999999428,36.93253],[-2.17591,36.724599999999555],[-2.392120000000432,36.82287],[-2.540549999999712,36.820589999999356],[-2.774980000000141,36.672169999999824],[-2.968380000000252,36.729419999999664],[-3.529370000000199,36.67697000000044],[-3.884410000000571,36.73910000000069],[-4.416269999999713,36.699609999999666],[-4.700150000000576,36.49152999999933],[-4.95442,36.49487000000045],[-5.24073,36.37521000000015],[-5.500029999999242,36.049699999999575],[-5.650170000000799,36.00778],[-6.114299999999275,36.20329999999922],[-6.26347,36.39067000000068],[-6.209500000000844,36.56630000000041],[-6.409550000000309,36.58133000000089],[-6.499369999999544,36.697659999999814],[-6.325329999999667,36.82594000000063],[-6.188280000000304,36.825769999999466],[-6.02712000000065,36.98517],[-5.99561,37.104489999999714],[-6.14862,37.230789999999615],[-6.536480000000665,37.0934699999998],[-6.537159999999858,36.98283000000083],[-6.587170000000697,36.97045000000071],[-6.933549999999741,37.11989],[-6.953680000000531,37.19882999999936],[-7.324909999999363,37.16482999999971]]]},"properties":{}},{"type":"Feature","geometry":{"type":"Polygon","coordinates":[[[9.479690000000119,42.87183],[9.448029999999562,42.71078999999918],[9.530749999999898,42.53115000000071],[9.54968,42.12275000000045],[9.414950000000317,41.964889999999286],[9.399880000000849,41.69896999999946],[9.209930000000895,41.37139000000025],[8.8408500000005,41.5265],[8.789349999999104,41.60008000000016],[8.834259999999631,41.70701],[8.691279999999097,41.76146999999946],[8.767719999999827,41.92434999999932],[8.614289999999528,41.92422000000079],[8.692310000000361,42.0306],[8.56362000000081,42.242379999999685],[8.7223,42.58828999999969],[9.109070000000429,42.73047000000042],[9.30591,42.70249999999942],[9.374190000000453,43.014499999999316],[9.458870000000388,42.9720899999993],[9.479690000000119,42.87183]]]},"properties":{}},{"type":"Feature","geometry":{"type":"Polygon","coordinates":[[[10.351329999999507,42.807049999999435],[10.38717,42.72545999999966],[10.113670000000639,42.752119999999195],[10.110780000000887,42.80313000000024],[10.25554000000011,42.83957],[10.351329999999507,42.807049999999435]]]},"properties":{}},{"type":"Feature","geometry":{"type":"Polygon","coordinates":[[[31.1263,39.06022],[31.26505999999972,38.60835000000043],[31.708220000000438,38.55923000000075],[32.6595899999993,38.25326999999925],[32.93449999999939,38.04443],[33.1268799999998,37.7914],[34.67787999999928,37.50692999999956],[36.18718000000081,37.44584000000032],[36.58956000000035,37.30789],[36.73753000000033,37.13069],[36.705589999999575,37.001290000000154],[36.00532000000021,36.92030999999952],[35.845289999999295,36.794019999999364],[35.644930000000386,36.74445000000014],[35.56211000000076,36.594600000000355],[35.39877999999953,36.55696],[35.17928000000029,36.71911],[34.69032999999945,36.808929999999236],[34.111689999999726,36.42460000000028],[34.00193000000036,36.24633999999969],[33.905619999999544,36.31308999999965],[33.704499999999825,36.1524700000009],[32.80379999999968,36.03864000000067],[32.60151000000042,36.08376999999928],[32.37974000000031,36.18050000000039],[32.04537999999957,36.52360000000044],[31.074259999999413,36.857710000000225],[31.201499999999214,36.9297600000009],[31.04161000000022,38.05725999999959],[30.743329999999332,38.05191999999988],[29.623089999999138,39.276379999999335],[29.77277999999933,39.786050000000614],[29.468769999999495,39.754619999999704],[29.35258000000067,39.8456299999998],[29.17935000000034,39.82879999999932],[28.788759999999456,40.01708999999937],[28.584179999999833,39.962209999999686],[28.435719999999492,40.02815],[28.545389999999315,40.13409],[28.43066,40.29254000000037],[28.482280000000173,40.38905],[29.034770000000208,40.37278999999944],[29.072630000000572,40.47329],[28.920749999999316,40.471480000000156],[28.819799999999304,40.56888000000072],[29.00467000000026,40.651200000000244],[29.730279999999766,40.75230999999985],[29.370349999999235,40.77125999999953],[29.05030000000079,40.98681000000033],[29.047590000000127,41.16949000000022],[29.181189999999333,41.227349999999205],[29.939759999999296,41.143879999999626],[30.263150000000678,41.2176500000005],[30.81536000000051,41.08727999999974],[31.24185000000034,41.11602],[31.369290000000547,41.193709999999555],[31.432419999999183,41.3269],[32.26233999999931,41.70597000000089],[33.33748999999989,42.03736000000026],[34.70709999999963,41.94924],[35.013849999999366,42.0976699999992],[35.1614699999991,42.04227],[35.11098999999922,41.931179999999586],[35.26143000000047,41.735029999999824],[35.60579999999936,41.63745000000017],[35.99316,41.73047000000042],[36.10577999999987,41.6322],[36.14812999999958,41.43716999999924],[36.39955,41.26079000000027],[36.51289999999972,41.27135000000089],[36.31411999999909,41.110350000000835],[35.877730000000156,40.99008999999933],[35.20563000000038,40.98590999999942],[33.91691,40.78013],[32.66577999999936,40.342319999999745],[31.41662,40.0266900000006],[30.873240000000806,39.6893],[31.1263,39.06022]]]},"properties":{}},{"type":"Feature","geometry":{"type":"Polygon","coordinates":[[[9.37837000000036,41.24283],[9.4218,41.15294],[9.550279999999475,41.105970000000525],[9.564379999999801,40.95174000000043],[9.825689999999668,40.525910000000295],[9.61269,40.248530000000756],[9.70817999999963,40.069180000000415],[9.620999999999185,39.307740000000194],[9.536729999999807,39.14307999999983],[9.065490000000864,39.213770000000295],[9.015289999999368,39.0347899999997],[8.906590000000506,38.929729999999836],[8.7143300000007,38.941650000000664],[8.635270000000673,38.88882000000012],[8.494619999999486,39.08921],[8.389909999999873,38.99565000000075],[8.345279999999548,39.08426999999938],[8.450049999999464,39.724669999999605],[8.546039999999266,39.82020999999986],[8.50959999999941,39.91623000000072],[8.390869999999268,39.95687],[8.389489999999569,40.05751000000055],[8.476720000000569,40.106949999999415],[8.46176000000014,40.30414000000019],[8.378679999999804,40.36439000000064],[8.3101800000004,40.58504],[8.1641,40.643560000000434],[8.15474,40.78493999999955],[8.218590000000404,40.91487000000052],[8.56394,40.86055999999917],[9.12974000000031,41.16522000000077],[9.156290000000809,41.2603],[9.37837000000036,41.24283]]]},"properties":{}},{"type":"Feature","geometry":{"type":"Polygon","coordinates":[[[24.619269999999233,40.579970000000685],[24.510270000000673,40.67453000000023],[24.55841,40.76534999999967],[24.7456600000005,40.76145],[24.770829999999478,40.61460000000079],[24.619269999999233,40.579970000000685]]]},"properties":{}},{"type":"Feature","geometry":{"type":"Polygon","coordinates":[[[29.50792,40.74136999999973],[29.730279999999766,40.75230999999985],[29.583769999999276,40.69796999999926],[29.50792,40.74136999999973]]]},"properties":{}},{"type":"Feature","geometry":{"type":"Polygon","coordinates":[[[27.62772000000041,40.58194999999978],[27.531310000000303,40.61276],[27.544920000000275,40.661089999999604],[27.65733,40.646020000000135],[27.62772000000041,40.58194999999978]]]},"properties":{}},{"type":"Feature","geometry":{"type":"Polygon","coordinates":[[[28.60139,36.74194999999963],[28.59965000000011,36.79264999999941],[28.420889999999417,36.843440000000555],[28.385039999999208,36.7842],[28.281740000000354,36.82275999999911],[28.247880000000805,36.7133900000008],[28.09312999999929,36.5878900000007],[28.033359999999448,36.605830000000424],[28.05861,36.77614999999969],[27.976769999999306,36.77203],[28.020699999999124,36.899209999999584],[28.177229999999327,36.94677000000047],[28.195910000000367,37.02844],[27.442199999999502,36.97046000000046],[27.418649999999616,37.01555999999982],[27.273909999999887,36.94123000000036],[27.251140000000305,37.12613000000056],[27.489509999999427,37.10405999999966],[27.55272999999943,37.226409999999305],[27.38488999999936,37.35448],[27.21089000000029,37.36924],[27.22646999999961,37.51932999999917],[27.27850000000035,37.52680999999939],[27.167820000000575,37.692119999999704],[27.280319999999847,37.778190000000905],[27.27882999999929,37.981910000000425],[26.863540000000285,38.05993],[26.741249999999127,38.20967000000019],[26.59849000000031,38.08640999999989],[26.255380000000514,38.28052000000025],[26.473900000000867,38.357459999999264],[26.374050000000352,38.60654000000068],[26.431870000000345,38.676620000000185],[26.53016000000025,38.6569099999997],[26.700559999999314,38.37821000000076],[27.136000000000422,38.44093000000066],[27.038650000000416,38.536340000000564],[27.035219999999754,38.628570000000764],[26.788029999999708,38.61619000000064],[26.76647000000048,38.69578],[27.074130000000878,38.884539999999106],[27.05998,38.93361],[26.88257,38.91599999999926],[26.822720000000118,38.9738899999993],[26.886679999999615,39.09699],[26.60211999999956,39.28296000000046],[26.62437999999929,39.381680000000415],[26.724850000000515,39.348040000000765],[26.927050000000236,39.48358999999982],[26.931930000000648,39.58477],[26.083300000000236,39.49426999999923],[26.16313000000082,39.67852999999923],[26.184509999999136,39.99793999999929],[26.329760000000533,40.03286999999909],[26.430829999999332,40.14579000000049],[26.409669999999096,40.20563000000038],[26.675820000000385,40.39278999999988],[26.994549999999435,40.39190000000053],[27.273549999999886,40.48188999999911],[27.4087,40.342060000000856],[27.762409999999363,40.32224999999926],[27.82115999999951,40.393630000000485],[27.660620000000563,40.4717099999998],[27.69663000000037,40.52464999999938],[27.999509999999646,40.500560000000405],[27.962579999999434,40.42612],[28.007579999999507,40.36738999999943],[28.482280000000173,40.38905],[28.43066,40.29254000000037],[28.545389999999315,40.13409],[28.435719999999492,40.02815],[28.52976999999919,39.9680900000003],[28.788759999999456,40.01708999999937],[29.17935000000034,39.82879999999932],[29.35258000000067,39.8456299999998],[29.468769999999495,39.754619999999704],[29.974340000000666,39.812079999999696],[30.6515,40.032030000000304],[31.082459999999628,39.95536],[31.10736999999972,39.85492999999951],[30.993720000000394,39.79025999999976],[30.912420000000566,39.63658000000032],[31.268309999999474,38.567800000000716],[31.615390000000843,38.5938299999998],[32.19966000000022,38.421870000000126],[32.68527,38.24006],[32.888049999999566,38.07532],[32.79817,37.82208],[31.571289999999863,37.4372000000003],[31.82170000000042,37.09812000000056],[32.00221000000056,36.54449000000022],[31.340500000000247,36.79738999999972],[30.95305,36.8787799999991],[30.608969999999317,36.83375999999953],[30.570920000000115,36.56324999999924],[29.891120000000228,36.95919],[29.460370000000694,37.34159],[29.23120000000017,37.36827000000085],[28.696679999999105,36.748499999999694],[28.60139,36.74194999999963]]]},"properties":{}},{"type":"Feature","geometry":{"type":"Polygon","coordinates":[[[25.501459999999497,40.51195999999982],[25.688179999999193,40.492889999999534],[25.57459000000017,40.41700999999921],[25.501459999999497,40.51195999999982]]]},"properties":{}},{"type":"Feature","geometry":{"type":"Polygon","coordinates":[[[23.883320000000822,40.38666000000012],[23.978300000000672,40.42124999999942],[24.152210000000196,40.360280000000785],[24.393400000000838,40.185489999999845],[24.376350000000457,40.137329999999565],[23.883320000000822,40.38666000000012]]]},"properties":{}},{"type":"Feature","geometry":{"type":"Polygon","coordinates":[[[25.97686000000067,40.17102999999952],[25.758379999999306,40.10059],[25.717930000000706,40.17872999999963],[25.911879999999655,40.23512],[25.97686000000067,40.17102999999952]]]},"properties":{}},{"type":"Feature","geometry":{"type":"Polygon","coordinates":[[[23.38472,40.14227000000028],[23.687630000000354,39.92115999999987],[23.360849999999118,39.9633300000005],[23.29034,40.08554],[23.329799999999523,40.18001],[23.38472,40.14227000000028]]]},"properties":{}},{"type":"Feature","geometry":{"type":"Polygon","coordinates":[[[4.112160000000586,40.062589999999545],[4.248419999999896,39.98997000000054],[4.280220000000554,39.80407000000014],[3.814420000000609,39.96574999999939],[3.812330000000657,40.06601000000046],[4.112160000000586,40.062589999999545]]]},"properties":{}},{"type":"Feature","geometry":{"type":"Polygon","coordinates":[[[25.39617999999973,39.94386999999915],[25.352209999999104,39.79184999999961],[25.300869999999122,39.79005],[25.269979999999123,39.88271999999961],[25.16961000000083,39.8099000000002],[25.08691,39.83567000000039],[25.034719999999652,39.963550000000396],[25.207479999999123,40.02498000000014],[25.39617999999973,39.94386999999915]]]},"properties":{}},{"type":"Feature","geometry":{"type":"Polygon","coordinates":[[[3.161640000000261,39.93467000000055],[3.13065,39.78698000000077],[3.416900000000169,39.76483],[3.443250000000262,39.66788000000088],[3.075619999999617,39.28921000000082],[2.743189999999231,39.38712999999916],[2.650620000000345,39.55292],[2.466969999999492,39.48543000000063],[2.345289999999295,39.552999999999884],[2.343600000000151,39.60560000000078],[2.765180000000328,39.85107000000062],[3.161640000000261,39.93467000000055]]]},"properties":{}},{"type":"Feature","geometry":{"type":"Polygon","coordinates":[[[35.29786000000058,33.46262000000024],[35.46874000000025,33.916440000000875],[35.56610999999975,33.92429000000084],[35.62651,34.00951999999961],[35.669630000000325,34.32645000000048],[35.97277000000031,34.57503],[35.8690000000006,34.91502000000037],[35.955190000000584,35.24517999999989],[35.91639000000032,35.42921000000024],[35.73351,35.614809999999125],[35.842860000000655,35.743099999999686],[35.8129399999998,35.8701],[35.97583999999915,36.01441999999952],[35.818460000000414,36.36317000000054],[36.19918999999936,36.649240000000646],[36.19094000000041,36.81187999999929],[36.06500000000051,36.92753000000084],[37.32282999999916,37.10296000000017],[37.8085200000005,37.09408000000076],[37.95814000000064,37.01519],[38.02233999999953,36.722820000000866],[38.243790000000445,36.550600000000486],[38.082290000000285,36.12311000000045],[38.236839999999575,35.96829000000071],[38.589749999999185,35.83510000000024],[38.35081999999966,35.54116000000067],[38.09415000000081,35.42720999999983],[37.62674,35.26152],[37.24924,35.267069999999876],[37.07644000000073,35.16786999999931],[36.72911000000022,34.821099999999205],[36.61760999999933,34.58443000000079],[36.344199999999546,34.283330000000205],[35.699940000000424,33.6566899999998],[35.57170000000042,32.92194000000018],[35.497989999999845,32.88191],[35.557160000000295,32.697840000000724],[35.51528999999937,31.775680000000648],[35.4030500000008,31.68577],[35.13370000000032,31.76238999999987],[34.759690000000774,32.02642999999989],[34.95832,32.82039000000077],[35.058530000000246,32.83688000000075],[35.09531000000061,33.11686],[35.186359999999695,33.17562],[35.29786000000058,33.46262000000024]]]},"properties":{}},{"type":"Feature","geometry":{"type":"Polygon","coordinates":[[[3.161640000000261,39.93467000000055],[3.080700000000434,39.88380999999936],[3.066000000000713,39.9367000000002],[3.161640000000261,39.93467000000055]]]},"properties":{}},{"type":"Feature","geometry":{"type":"Polygon","coordinates":[[[19.90827,39.622520000000804],[19.94212999999945,39.482459999999264],[19.877200000000812,39.45260000000053],[19.647209999999177,39.76705000000038],[19.923689999999624,39.792999999999665],[19.90827,39.622520000000804]]]},"properties":{}},{"type":"Feature","geometry":{"type":"Polygon","coordinates":[[[26.063899999999194,39.10225],[25.873250000000553,39.16679],[25.86931999999979,39.256859999999506],[26.323990000000776,39.38334000000032],[26.505559999999605,39.19074],[26.560929999999644,39.00619999999981],[26.383560000000216,38.97794000000067],[26.063899999999194,39.10225]]]},"properties":{}},{"type":"Feature","geometry":{"type":"Polygon","coordinates":[[[23.122059999999692,39.11503000000084],[23.196640000000116,39.20237000000088],[23.181070000000545,39.09677999999985],[23.122059999999692,39.11503000000084]]]},"properties":{}},{"type":"Feature","geometry":{"type":"Polygon","coordinates":[[[23.681109999999535,39.15350000000035],[23.7534799999994,39.08895999999913],[23.679469999999128,39.079170000000886],[23.681109999999535,39.15350000000035]]]},"properties":{}},{"type":"Feature","geometry":{"type":"Polygon","coordinates":[[[1.378720000000612,38.841449999999895],[1.229320000000371,38.87104],[1.293089999999211,39.039049999999406],[1.58381,39.0933100000002],[1.597920000000158,39.04315999999926],[1.378720000000612,38.841449999999895]]]},"properties":{}},{"type":"Feature","geometry":{"type":"Polygon","coordinates":[[[23.25199000000066,39.02519000000029],[23.35454000000027,39.021129999999175],[23.598439999999755,38.7722],[24.127599999999802,38.65344999999979],[24.28462000000036,38.20072000000073],[24.586859999999433,38.128129999999146],[24.57064999999966,37.99166999999943],[24.351189999999406,37.97675999999956],[24.14178,38.20802],[24.041199999999662,38.212069999999585],[24.093430000000808,38.270619999999326],[24.009260000000722,38.394249999999374],[23.71274000000085,38.412570000000414],[23.612119999999777,38.472900000000664],[23.601559999999154,38.56558000000041],[23.185170000000653,38.835549999999785],[23.039189999999508,38.87576000000081],[22.89716000000044,38.82266999999956],[22.854300000000876,38.8793399999995],[23.25199000000066,39.02519000000029]]]},"properties":{}},{"type":"Feature","geometry":{"type":"Polygon","coordinates":[[[24.617990000000646,38.742560000000594],[24.43735000000015,38.88347000000067],[24.496429999999236,38.962499999999636],[24.64761,38.83302],[24.617990000000646,38.742560000000594]]]},"properties":{}},{"type":"Feature","geometry":{"type":"Polygon","coordinates":[[[20.730069999999614,38.79032],[20.777130000000398,38.635920000000624],[20.61456,38.623530000000756],[20.5922300000002,38.75872999999956],[20.730069999999614,38.79032]]]},"properties":{}},{"type":"Feature","geometry":{"type":"Polygon","coordinates":[[[25.989079999999376,38.16592999999921],[25.8835,38.27520999999979],[25.996279999999388,38.36624],[25.9635300000009,38.46212999999989],[25.85117,38.55269000000044],[25.994469999999637,38.5948499999995],[26.144019999999728,38.49835999999959],[26.158919999999853,38.343479999999545],[25.989079999999376,38.16592999999921]]]},"properties":{}},{"type":"Feature","geometry":{"type":"Polygon","coordinates":[[[20.63947,38.36787],[20.630189999999857,38.4646300000004],[20.730330000000322,38.35975999999937],[20.63947,38.36787]]]},"properties":{}},{"type":"Feature","geometry":{"type":"Polygon","coordinates":[[[20.763230000000476,38.17590000000018],[20.80760999999984,38.10920000000078],[20.72947000000022,38.064109999999346],[20.537609999999404,38.09634],[20.43989,38.19664999999986],[20.393809999999576,38.15943999999945],[20.34618000000046,38.23371000000043],[20.423800000000483,38.35219999999936],[20.507400000000416,38.329649999999674],[20.53892000000087,38.45886000000064],[20.63947,38.36787],[20.60682000000088,38.29613000000063],[20.763230000000476,38.17590000000018]]]},"properties":{}},{"type":"Feature","geometry":{"type":"Polygon","coordinates":[[[15.599299999999857,38.280179999999746],[15.08684,37.51639000000068],[15.08256000000074,37.36182],[15.231739999999263,37.28031999999985],[15.287210000000414,37.108720000000176],[15.10448,36.887329999999565],[15.096180000000459,36.689080000000104],[14.49899,36.81297000000086],[14.19916000000012,37.09605999999985],[13.74395,37.17273000000023],[12.950339999999414,37.57033000000047],[12.643449999999575,37.59164000000055],[12.42821,37.782209999999395],[12.50753000000077,38.02104999999938],[12.73910000000069,38.17479],[12.93368,38.03260000000046],[13.032279999999446,38.06480999999985],[13.103549999999814,38.19815000000017],[13.297269999999116,38.21932000000015],[13.40438,38.10470999999961],[13.497750000000451,38.12203000000045],[13.765269999999873,37.97751000000062],[14.015880000000834,38.0547600000009],[14.465609999999288,38.04588999999942],[14.740669999999227,38.177309999999125],[15.08354,38.13573],[15.24772,38.25113000000056],[15.599299999999857,38.280179999999746]]]},"properties":{}},{"type":"Feature","geometry":{"type":"Polygon","coordinates":[[[23.57307000000037,38.0044999999991],[23.55394999999953,37.9319200000009],[23.447879999999714,37.89455000000089],[23.493930000000546,38.03071000000091],[23.57307000000037,38.0044999999991]]]},"properties":{}},{"type":"Feature","geometry":{"type":"Polygon","coordinates":[[[21.70184,30.80272999999943],[21.243389999999636,30.793949999999313],[20.139639999999417,30.923720000000685],[20.157030000000304,31.174639999999272],[19.923479999999472,31.732309999999416],[19.949150000000373,31.988390000000436],[20.061659999999392,32.1596499999996],[20.586530000000494,32.56424],[21.003380000000107,32.76411],[21.30953000000045,32.7765500000005],[21.678900000000795,32.947039999999106],[22.170319999999265,32.94181000000026],[23.07618999999977,32.64106999999967],[23.14148000000023,32.443020000000615],[23.1016,32.35274000000027],[23.292429999999513,32.1923599999991],[23.48989000000074,32.16965999999957],[23.505639999999403,32.07238999999936],[23.41266,31.90128],[23.14937,31.554340000000593],[22.63861999999972,31.08455999999933],[22.3449,30.937850000000253],[21.70184,30.80272999999943]]]},"properties":{}},{"type":"Feature","geometry":{"type":"Polygon","coordinates":[[[24.955110000000786,37.71133],[24.711380000000645,37.87393999999949],[24.6929999999993,37.96988000000056],[24.77939999999944,37.99273],[24.936600000000908,37.89559],[24.955110000000786,37.71133]]]},"properties":{}},{"type":"Feature","geometry":{"type":"Polygon","coordinates":[[[20.92217999999957,37.76670000000013],[20.779350000000704,37.69775999999911],[20.641050000000178,37.88056999999935],[20.726220000000467,37.905909999999494],[20.92217999999957,37.76670000000013]]]},"properties":{}},{"type":"Feature","geometry":{"type":"Polygon","coordinates":[[[-0.740100000000893,37.81963999999971],[-0.735539999999673,37.67247999999927],[-0.790399999999863,37.65656999999919],[-0.857809999999517,37.73319000000083],[-0.740100000000893,37.81963999999971]]]},"properties":{}},{"type":"Feature","geometry":{"type":"Polygon","coordinates":[[[27.06931000000077,37.72052000000076],[26.87645,37.65080999999918],[26.59159,37.71430999999939],[26.700399999999718,37.8143799999998],[26.85757999999987,37.818859999999404],[27.019200000000637,37.80011000000013],[27.06931000000077,37.72052000000076]]]},"properties":{}},{"type":"Feature","geometry":{"type":"Polygon","coordinates":[[[23.463299999999435,37.70197999999982],[23.42852,37.741149999999834],[23.52124999999978,37.7765],[23.463299999999435,37.70197999999982]]]},"properties":{}},{"type":"Feature","geometry":{"type":"Polygon","coordinates":[[[26.00569,37.527830000000904],[26.083259999999427,37.642910000000484],[26.329540000000634,37.699319999999716],[26.277910000000702,37.5970699999998],[26.00569,37.527830000000904]]]},"properties":{}},{"type":"Feature","geometry":{"type":"Polygon","coordinates":[[[24.31174,37.53950000000077],[24.26246,37.55106999999953],[24.284449999999197,37.650400000000445],[24.387300000000323,37.66835],[24.31174,37.53950000000077]]]},"properties":{}},{"type":"Feature","geometry":{"type":"Polygon","coordinates":[[[25.181909999999334,37.53441000000021],[25.017830000000686,37.68609],[25.204610000000685,37.64137999999912],[25.2524599999997,37.592759999999544],[25.181909999999334,37.53441000000021]]]},"properties":{}},{"type":"Feature","geometry":{"type":"Polygon","coordinates":[[[24.416149999999107,37.33598999999958],[24.36989999999969,37.35526000000027],[24.420860000000175,37.48569999999927],[24.416149999999107,37.33598999999958]]]},"properties":{}},{"type":"Feature","geometry":{"type":"Polygon","coordinates":[[[24.8747800000001,37.39024000000063],[24.87956999999915,37.48305000000073],[24.949179999999615,37.4688100000003],[24.8747800000001,37.39024000000063]]]},"properties":{}},{"type":"Feature","geometry":{"type":"Polygon","coordinates":[[[9.58734,34.18428],[9.254769999999553,34.480820000000676],[8.637360000000626,35.40080999999918],[8.184900000000198,36.94628999999986],[8.821110000000772,36.987890000000334],[9.209380000000237,37.26115000000027],[9.708629999999175,37.361000000000786],[10.197140000000218,37.20495999999912],[10.068279999999504,37.1262200000001],[10.095030000000406,37.030399999999645],[10.302079999999478,36.912389999999505],[10.33561,36.8719],[10.227469999999812,36.79312000000027],[10.354660000000877,36.728289999999106],[10.51608,36.756030000000464],[10.621950000000652,36.90476999999919],[11.045760000000882,37.09176],[11.129399999999805,36.865859999999884],[10.970820000000458,36.73971999999958],[10.804550000000745,36.47689],[10.555120000000898,36.38919999999962],[10.470400000000154,36.25293000000056],[10.500949999999648,36.043760000000475],[10.645669999999882,35.832249999999476],[10.819429999999556,35.80009000000064],[10.847330000000511,35.70663000000059],[11.044550000000527,35.64012999999977],[11.034649999999601,35.39695000000029],[11.11074,35.259110000000874],[11.023750000000291,35.06581],[10.56568999999945,34.54200999999921],[10.168170000000828,34.39485000000059],[9.97761,34.20991999999933],[10.075249999999869,33.9987600000004],[9.58734,34.18428]],[[9.829209999999875,37.26879],[9.7837,37.24627],[9.81185,37.15204000000085],[9.9119,37.18181],[9.829209999999875,37.26879]]]},"properties":{}},{"type":"Feature","geometry":{"type":"Polygon","coordinates":[[[9.82923,37.26202000000012],[9.911910000000717,37.17504],[9.811869999999544,37.14527000000089],[9.783729999999196,37.2395],[9.82923,37.26202000000012]]]},"properties":{}},{"type":"Feature","geometry":{"type":"Polygon","coordinates":[[[24.466839999999138,37.12910000000011],[24.41799,37.14141000000018],[24.48007999999936,37.2131700000009],[24.51426,37.14633999999933],[24.466839999999138,37.12910000000011]]]},"properties":{}},{"type":"Feature","geometry":{"type":"Polygon","coordinates":[[[25.45267000000058,36.93029000000024],[25.38738999999987,37.09530000000086],[25.51959,37.19796999999926],[25.60318,37.11082999999962],[25.546770000000834,36.96863999999914],[25.45267000000058,36.93029000000024]]]},"properties":{}},{"type":"Feature","geometry":{"type":"Polygon","coordinates":[[[25.09545000000071,37.0302300000003],[25.15381999999954,37.12228999999934],[25.265869999999268,37.13779000000068],[25.23171,36.999400000000605],[25.09545000000071,37.0302300000003]]]},"properties":{}},{"type":"Feature","geometry":{"type":"Polygon","coordinates":[[[26.960619999999835,36.94328999999925],[26.92108,36.97847999999976],[26.98315999999977,37.05877],[27.04392999999982,36.992850000000544],[26.960619999999835,36.94328999999925]]]},"properties":{}},{"type":"Feature","geometry":{"type":"Polygon","coordinates":[[[27.273909999999887,36.94123000000036],[27.31083000000035,36.8441899999998],[27.075230000000374,36.76531000000068],[27.04644,36.827470000000176],[27.273909999999887,36.94123000000036]]]},"properties":{}},{"type":"Feature","geometry":{"type":"Polygon","coordinates":[[[25.950989999999365,36.87255],[25.888440000000628,36.79356999999982],[25.851810000000114,36.829680000000735],[25.950989999999365,36.87255]]]},"properties":{}},{"type":"Feature","geometry":{"type":"Polygon","coordinates":[[[11.995790000000852,36.76577],[11.946710000000166,36.83169000000089],[12.036840000000666,36.81334000000061],[11.995790000000852,36.76577]]]},"properties":{}},{"type":"Feature","geometry":{"type":"Polygon","coordinates":[[[27.04644,36.827470000000176],[26.95269,36.69470999999976],[26.925520000000688,36.73979999999938],[27.04644,36.827470000000176]]]},"properties":{}},{"type":"Feature","geometry":{"type":"Polygon","coordinates":[[[27.91802,36.74932000000081],[27.770689999999377,36.77568000000065],[27.850609999999506,36.80928],[27.91802,36.74932000000081]]]},"properties":{}},{"type":"Feature","geometry":{"type":"Polygon","coordinates":[[[25.363279999999577,36.6561899999997],[25.25886,36.762080000000424],[25.29602999999952,36.79775999999947],[25.377909999999247,36.7464400000008],[25.363279999999577,36.6561899999997]]]},"properties":{}},{"type":"Feature","geometry":{"type":"Polygon","coordinates":[[[27.653920000000653,36.79433000000063],[27.631349999999657,36.66623000000072],[27.430790000000343,36.6614699999991],[27.431790000000547,36.741869999999835],[27.653920000000653,36.79433000000063]]]},"properties":{}},{"type":"Feature","geometry":{"type":"Polygon","coordinates":[[[24.365050000000338,36.64990000000034],[24.31408999999985,36.65926000000036],[24.34124999999949,36.75166],[24.512220000000525,36.76742000000013],[24.517789999999877,36.679229999999734],[24.365050000000338,36.64990000000034]]]},"properties":{}},{"type":"Feature","geometry":{"type":"Polygon","coordinates":[[[27.834860000000845,36.538329999999405],[27.762109999999666,36.60857000000033],[27.847719999999754,36.66430000000037],[27.834860000000845,36.538329999999405]]]},"properties":{}},{"type":"Feature","geometry":{"type":"Polygon","coordinates":[[[26.375519999999597,36.58561],[26.36518000000069,36.517620000000534],[26.26752999999917,36.543830000000526],[26.276009999999587,36.593329999999696],[26.375519999999597,36.58561]]]},"properties":{}},{"type":"Feature","geometry":{"type":"Polygon","coordinates":[[[28.15006,36.22878],[28.083950000000186,36.10078000000067],[27.942849999999453,36.04416999999921],[27.851629999999204,35.91432999999961],[27.752959999999803,35.91744],[27.75980999999956,36.07010000000082],[27.69801,36.14321000000018],[27.835269999999582,36.292489999999816],[28.21184,36.447589999999764],[28.15006,36.22878]]]},"properties":{}},{"type":"Feature","geometry":{"type":"Polygon","coordinates":[[[25.443310000000565,36.4351800000004],[25.47226000000046,36.36629],[25.390520000000834,36.380300000000716],[25.443310000000565,36.4351800000004]]]},"properties":{}},{"type":"Feature","geometry":{"type":"Polygon","coordinates":[[[23.018840000000637,36.14300999999978],[22.93319,36.188819999999396],[22.94521999999961,36.3786999999993],[23.066759999999704,36.288979999999356],[23.018840000000637,36.14300999999978]]]},"properties":{}},{"type":"Feature","geometry":{"type":"Polygon","coordinates":[[[14.492630000000645,35.84222000000045],[14.34944,35.89306000000033],[14.324459999999817,35.97809000000052],[14.362639999999374,36.01116],[14.548479999999472,35.906629999999495],[14.492630000000645,35.84222000000045]]]},"properties":{}},{"type":"Feature","geometry":{"type":"Polygon","coordinates":[[[27.185589999999138,35.595330000000104],[27.23048000000017,35.47378000000026],[27.130370000000767,35.41667000000052],[27.081309999999576,35.59469],[27.204569999999876,35.72635000000082],[27.185589999999138,35.595330000000104]]]},"properties":{}},{"type":"Feature","geometry":{"type":"Polygon","coordinates":[[[24.164570000000822,35.59144000000015],[24.293939999999566,35.36225999999988],[24.998349999999846,35.41686],[25.101269999999204,35.3383900000008],[25.71689999999944,35.336240000000544],[25.781769999999597,35.13400999999976],[26.065189999999347,35.23754999999983],[26.161879999999655,35.20530999999937],[26.28033999999934,35.286739999999554],[26.300600000000486,35.15893],[26.257900000000518,35.06142],[26.117260000000897,34.993249999999534],[25.914349999999104,35.02853999999934],[24.788909999999305,34.92986000000019],[24.694229999999152,35.0948499999995],[23.53587999999945,35.27224000000024],[23.569760000000315,35.52462000000014],[23.73007999999936,35.54121999999916],[23.731229999999414,35.67494000000079],[23.840570000000298,35.52960999999959],[23.997059999999692,35.51658999999927],[24.164570000000822,35.59144000000015]]]},"properties":{}},{"type":"Feature","geometry":{"type":"Polygon","coordinates":[[[26.915349999999307,35.33496000000014],[26.910369999999602,35.40642999999909],[26.986179999999877,35.39825000000019],[26.915349999999307,35.33496000000014]]]},"properties":{}}]}