{"type":"FeatureCollection","features":[{"type":"Feature","geometry":{"type":"MultiPolygon","coordinates":[[[[12.469329499152707,41.88369900289945],[12.460049601229855,41.89214608947009],[12.475278151667283,41.91368021157302],[12.506924983044769,41.91249048107011],[12.517870503671702,41.89654809233099],[12.519060234174617,41.88976662846426],[12.497407139021448,41.88476976035213],[12.500976330530193,41.875846781580265],[12.469329499152707,41.88369900289945]]]]},"properties":{}},{"type":"Feature","geometry":{"type":"MultiPolygon","coordinates":[[[[12.271240485789633,41.78161107583588],[12.25011087205786,41.77923161483005],[12.261532284885845,41.78132554051518],[12.253442117466136,41.78218214647734],[12.255821578471966,41.78760731757069],[12.271240485789633,41.78161107583588]]]]},"properties":{}},{"type":"Feature","geometry":{"type":"MultiPolygon","coordinates":[[[[12.393063241072582,42.0312809490394],[12.405055724541967,42.03090023527858],[12.406102687384646,42.018241502727506],[12.393063241072582,42.0312809490394]]]]},"properties":{}},{"type":"Feature","geometry":{"type":"MultiPolygon","coordinates":[[[[12.54199628918576,41.610375507959816],[12.561055771842405,41.620868930995584],[12.552418328391298,41.61030412412981],[12.54199628918576,41.610375507959816]]]]},"properties":{}},{"type":"Feature","geometry":{"type":"MultiPolygon","coordinates":[[[[12.094651043259375,42.00114484254982],[12.115757814165534,42.019387123118804],[12.103696802219247,41.99586814982331],[12.094651043259375,42.00114484254982]]]]},"properties":{}},{"type":"Feature","geometry":{"type":"MultiPolygon","coordinates":[[[[12.61482370393486,41.76488095456159],[12.623104228235036,41.7551727536578],[12.61282495669002,41.7533167740732],[12.61482370393486,41.76488095456159]]]]},"properties":{}},{"type":"Feature","geometry":{"type":"MultiPolygon","coordinates":[[[[12.657815957068863,41.73760384358735],[12.646680079561634,41.7436000853221],[12.64924989744793,41.750167397698135],[12.657815957068863,41.73760384358735]]]]},"properties":{}},{"type":"Feature","geometry":{"type":"MultiPolygon","coordinates":[[[[12.718634980377999,41.89007970484096],[12.711639365020744,41.88850926057705],[12.716921768453687,41.897360855518684],[12.718634980377999,41.89007970484096]]]]},"properties":{}},{"type":"Feature","geometry":{"type":"MultiPolygon","coordinates":[[[[12.800444887631556,41.96294078372358],[12.790260794526546,41.9665575644525],[12.800349709191323,41.97093577270323],[12.800444887631556,41.96294078372358]]]]},"properties":{}},{"type":"Feature","geometry":{"type":"MultiPolygon","coordinates":[[[[12.77618866213811,41.94796921507492],[12.779044015345164,41.93711887288839],[12.7654097037817,41.941330518868824],[12.768836127630152,41.951538406583666],[12.77618866213811,41.94796921507492]]]]},"properties":{}},{"type":"Feature","geometry":{"type":"MultiPolygon","coordinates":[[[[12.893153050763829,41.83636059659659],[12.882445476237592,41.836479569646826],[12.890773589757998,41.85075633568181],[12.893153050763829,41.83636059659659]]]]},"properties":{}},{"type":"Feature","geometry":{"type":"MultiPolygon","coordinates":[[[[12.913854361514609,41.721670576115514],[12.906002140195426,41.72773820168038],[12.913497442363848,41.72857101303231],[12.913854361514609,41.721670576115514]]]]},"properties":{}},{"type":"Feature","geometry":{"type":"MultiPolygon","coordinates":[[[[13.156996386213507,41.746028419826075],[13.160517988502193,41.74222128221663],[13.147954434391352,41.74688502578806],[13.156996386213507,41.746028419826075]]]]},"properties":{}},{"type":"Feature","geometry":{"type":"MultiPolygon","coordinates":[[[[11.632796153860113,42.418299995377936],[11.624943932540873,42.41615848047263],[11.63065463895498,42.425081459244495],[11.632796153860113,42.418299995377936]]]]},"properties":{}},{"type":"Feature","geometry":{"type":"MultiPolygon","coordinates":[[[[12.107755606311969,42.72407025247111],[12.115560238411149,42.7227377543079],[12.102806327419842,42.72140525614452],[12.107755606311969,42.72407025247111]]]]},"properties":{}},{"type":"Feature","geometry":{"type":"MultiPolygon","coordinates":[[[[11.877804494708414,43.47236314958468],[11.880659847915467,43.464368160605034],[11.873426286457743,43.466081372529175],[11.877804494708414,43.47236314958468]]]]},"properties":{}},{"type":"Feature","geometry":{"type":"MultiPolygon","coordinates":[[[[13.577414824931736,42.85915027088788],[13.586635236329357,42.85825797301072],[13.576819959680279,42.85230932049615],[13.577414824931736,42.85915027088788]]]]},"properties":{}},{"type":"Feature","geometry":{"type":"MultiPolygon","coordinates":[[[[13.507872697575351,43.62041717913576],[13.500829492998093,43.63050609380048],[13.520245894805726,43.624985744266894],[13.507872697575351,43.62041717913576]]]]},"properties":{}},{"type":"Feature","geometry":{"type":"MultiPolygon","coordinates":[[[[10.50128888058515,43.84416186328235],[10.490283873433214,43.84445929590805],[10.490581306058914,43.85427457255713],[10.501586313210908,43.853382274679916],[10.50128888058515,43.84416186328235]]]]},"properties":{}},{"type":"Feature","geometry":{"type":"MultiPolygon","coordinates":[[[[10.404028411971865,43.715670968967515],[10.390941376439798,43.715968401593216],[10.391536241691256,43.72786570662237],[10.404623277223322,43.72667597611945],[10.404028411971865,43.715670968967515]]]]},"properties":{}},{"type":"Feature","geometry":{"type":"MultiPolygon","coordinates":[[[[15.56259775407716,38.18002447549998],[15.557600885964803,38.189780265623824],[15.5730673825027,38.196918648641315],[15.56259775407716,38.18002447549998]]]]},"properties":{}},{"type":"Feature","geometry":{"type":"MultiPolygon","coordinates":[[[[15.294670444820554,37.077858137599435],[15.296336067524692,37.06358137156445],[15.280631624886269,37.06786440137489],[15.294670444820554,37.077858137599435]]]]},"properties":{}},{"type":"Feature","geometry":{"type":"MultiPolygon","coordinates":[[[[13.605966968982784,37.2927234664258],[13.582410305025178,37.294627035230576],[13.582172358924481,37.30961763956725],[13.574320137605241,37.31509039988066],[13.602635723574735,37.308427909064335],[13.605966968982784,37.2927234664258]]]]},"properties":{}},{"type":"Feature","geometry":{"type":"MultiPolygon","coordinates":[[[[12.83621133359668,37.58373154743896],[12.823124298064613,37.583255655237735],[12.820744837058783,37.606336426994346],[12.83383187259085,37.59991188227855],[12.83621133359668,37.58373154743896]]]]},"properties":{}},{"type":"Feature","geometry":{"type":"MultiPolygon","coordinates":[[[[12.43765161512016,37.81120801959622],[12.450976596752923,37.803117852176456],[12.445265890338874,37.790982601046665],[12.435748046315553,37.79169643934853],[12.428133771096839,37.80406963657873],[12.43765161512016,37.81120801959622]]]]},"properties":{}},{"type":"Feature","geometry":{"type":"MultiPolygon","coordinates":[[[[13.364689622991705,38.13981158450139],[13.360168647080513,38.127914279472236],[13.340181174631653,38.13148347098098],[13.364689622991705,38.13981158450139]]]]},"properties":{}},{"type":"Feature","geometry":{"type":"MultiPolygon","coordinates":[[[[36.172180283025796,36.2225158675833],[36.18550526465833,36.218708729973855],[36.182269197690516,36.20804874466785],[36.17332242430848,36.1935816217524],[36.160568513317344,36.19453340615462],[36.172180283025796,36.2225158675833]]]]},"properties":{}},{"type":"Feature","geometry":{"type":"MultiPolygon","coordinates":[[[[35.946417022792616,36.119532795250905],[35.93328239804032,36.120674936533646],[35.94508452462924,36.13590348697102],[35.946417022792616,36.119532795250905]]]]},"properties":{}},{"type":"Feature","geometry":{"type":"MultiPolygon","coordinates":[[[[38.79880066245346,37.152409228661554],[38.785856394581685,37.153361013064],[38.79270924227848,37.16554385341385],[38.79880066245346,37.152409228661554]]]]},"properties":{}},{"type":"Feature","geometry":{"type":"MultiPolygon","coordinates":[[[[38.524267969444736,37.52836406758274],[38.515701909823804,37.51941729420088],[38.50846834836608,37.529506208865655],[38.52541011072765,37.537881911606064],[38.524267969444736,37.52836406758274]]]]},"properties":{}},{"type":"Feature","geometry":{"type":"MultiPolygon","coordinates":[[[[29.931790382638553,31.218407253787404],[29.942795389790547,31.216920090658903],[29.938036467778886,31.20026386361809],[29.897288198054014,31.182120473448492],[29.886878056153535,31.18747426071161],[29.889257517159365,31.196099806857887],[29.931790382638553,31.218407253787404]]]]},"properties":{}},{"type":"Feature","geometry":{"type":"MultiPolygon","coordinates":[[[[10.336623635463695,36.85732136346604],[10.319015624020494,36.83257496900535],[10.30902188779595,36.83899951372109],[10.317350001316356,36.85732136346604],[10.336623635463695,36.85732136346604]]]]},"properties":{}},{"type":"Feature","geometry":{"type":"MultiPolygon","coordinates":[[[[-5.790269997154581,35.79356101336256],[-5.804844195815377,35.79594047436839],[-5.790269997154581,35.8039711552631],[-5.790269997154581,35.79356101336256]]]]},"properties":{}},{"type":"Feature","geometry":{"type":"MultiPolygon","coordinates":[[[[4.356795572695432,43.84770395828275],[4.362223028071185,43.84544251854277],[4.352724981163476,43.84287955350413],[4.356795572695432,43.84770395828275]]]]},"properties":{}},{"type":"Feature","geometry":{"type":"MultiPolygon","coordinates":[[[[4.630279018578904,43.69211690417484],[4.634651135409399,43.6886493632403],[4.625303851151159,43.685483347604304],[4.630279018578904,43.69211690417484]]]]},"properties":{}},{"type":"Feature","geometry":{"type":"MultiPolygon","coordinates":[[[[5.446899984936692,43.5383390018589],[5.451573627065841,43.53472069827484],[5.438155751275474,43.537132900664176],[5.446899984936692,43.5383390018589]]]]},"properties":{}},{"type":"Feature","geometry":{"type":"MultiPolygon","coordinates":[[[[4.818461488635535,45.759557558526694],[4.807010332544962,45.773834324561676],[4.820543517015608,45.771454863555846],[4.818461488635535,45.759557558526694]]],[[[4.84166123344238,45.779039395511745],[4.837645892995056,45.761044721655196],[4.82893968312078,45.7585084541692],[4.825874461453168,45.77635488760512],[4.813107701372417,45.78231115439496],[4.84166123344238,45.779039395511745]]]]},"properties":{}},{"type":"Feature","geometry":{"type":"MultiPolygon","coordinates":[[[[4.864418398502153,45.52390026148521],[4.86230543712901,45.53372267651713],[4.869615141338727,45.53383689064543],[4.864418398502153,45.52390026148521]]],[[[4.887032795901462,45.53480771073589],[4.883549264989028,45.52378604735674],[4.860711793120231,45.5166726486799],[4.872641815738177,45.53377978358128],[4.887032795901462,45.53480771073589]]]]},"properties":{}},{"type":"Feature","geometry":{"type":"MultiPolygon","coordinates":[[[[29.011719795651288,41.03374464976258],[29.020761747473443,41.03612411076841],[29.02195147797636,41.02803394334853],[29.014337202757645,41.02613037454387],[29.011719795651288,41.03374464976258]]]]},"properties":{}},{"type":"Feature","geometry":{"type":"MultiPolygon","coordinates":[[[[29.024568885082658,40.997576842473904],[29.03789386671542,40.99376970486469],[29.027662184390238,40.98805899845058],[29.024568885082658,40.997576842473904]]]]},"properties":{}},{"type":"Feature","geometry":{"type":"MultiPolygon","coordinates":[[[[29.91891309873415,40.77295572352364],[29.93033451156208,40.76938653201489],[29.91986488313637,40.766531178807895],[29.91891309873415,40.77295572352364]]]]},"properties":{}},{"type":"Feature","geometry":{"type":"MultiPolygon","coordinates":[[[[29.711899991226915,40.43392218787619],[29.72046605084779,40.4422503013966],[29.73164951757525,40.439157002089075],[29.72927005656942,40.43249451127275],[29.711899991226915,40.43392218787619]]]]},"properties":{}},{"type":"Feature","geometry":{"type":"MultiPolygon","coordinates":[[[[22.953440203395132,40.639261785606436],[22.968073888580875,40.64640016862393],[22.980566058861484,40.62676961532583],[22.960935505563384,40.62962496853288],[22.953440203395132,40.639261785606436]]]]},"properties":{}},{"type":"Feature","geometry":{"type":"MultiPolygon","coordinates":[[[[20.726547258131347,39.015547076603525],[20.743917323473852,39.002697987171985],[20.726071365930125,39.00246004107146],[20.726547258131347,39.015547076603525]]]]},"properties":{}},{"type":"Feature","geometry":{"type":"MultiPolygon","coordinates":[[[[26.557975081382722,39.11773889060629],[26.568063996047442,39.11336068235562],[26.559497936426567,39.10460426585399],[26.557975081382722,39.11773889060629]]],[[[26.552264374968843,39.10764997594151],[26.54274653094552,39.11431246675784],[26.55036080616418,39.12383031078116],[26.552264374968843,39.10764997594151]]]]},"properties":{}},{"type":"Feature","geometry":{"type":"MultiPolygon","coordinates":[[[[28.060680849316725,38.472524244265344],[28.065439771328386,38.48223244516913],[28.0730540465471,38.478996378201145],[28.060680849316725,38.472524244265344]]]]},"properties":{}},{"type":"Feature","geometry":{"type":"MultiPolygon","coordinates":[[[[27.125647852465647,38.41950985305539],[27.13802104969602,38.43721304293882],[27.153059243252926,38.422365206262384],[27.125647852465647,38.41950985305539]]]]},"properties":{}},{"type":"Feature","geometry":{"type":"MultiPolygon","coordinates":[[[[23.718715960880616,37.98347028303306],[23.731469871871923,37.98404135367434],[23.734896295720375,37.97166815644397],[23.71719310583694,37.969574230758894],[23.718715960880616,37.98347028303306]]]]},"properties":{}},{"type":"Feature","geometry":{"type":"MultiPolygon","coordinates":[[[[23.636481788519177,37.943114624374005],[23.650568197673692,37.94958675831003],[23.66503532058914,37.943495338134994],[23.64771284446664,37.93702320419919],[23.636481788519177,37.943114624374005]]]]},"properties":{}},{"type":"Feature","geometry":{"type":"MultiPolygon","coordinates":[[[[23.69415992330056,37.93987855740619],[23.702345269160503,37.937784631721115],[23.70082241411683,37.92465000696882],[23.689210644408377,37.934358207872606],[23.69415992330056,37.93987855740619]]]]},"properties":{}},{"type":"Feature","geometry":{"type":"MultiPolygon","coordinates":[[[[22.872532037987185,37.89546829719325],[22.86967668478036,37.905937925619014],[22.87881381504269,37.91393291459866],[22.894613436121347,37.909173992587],[22.89137736915353,37.898133293519834],[22.872532037987185,37.89546829719325]]]]},"properties":{}},{"type":"Feature","geometry":{"type":"MultiPolygon","coordinates":[[[[27.275054451305664,37.52976553793019],[27.271628027457325,37.53928338195351],[27.280574800839247,37.53642802874646],[27.275054451305664,37.52976553793019]]]]},"properties":{}},{"type":"Feature","geometry":{"type":"MultiPolygon","coordinates":[[[[27.412492119002366,37.03442520880981],[27.416299256611808,37.04108769962613],[27.427911026320203,37.03728056201686],[27.412492119002366,37.03442520880981]]]]},"properties":{}},{"type":"Feature","geometry":{"type":"MultiPolygon","coordinates":[[[[28.977051048796284,41.02898572775092],[28.992041653133015,41.029699566052614],[28.99489700634001,41.02041966812999],[28.983832512662843,41.011853608508886],[28.94808077789412,41.01072347275078],[28.923524740313894,40.99701777735726],[28.929235446727944,41.02785559199282],[28.944463997165144,41.04460699747386],[28.9515072017424,41.04784306444185],[28.977051048796284,41.02898572775092]]]]},"properties":{}},{"type":"Feature","geometry":{"type":"MultiPolygon","coordinates":[[[[35.019862593411005,39.74410373379408],[35.04403791723024,39.75247943653466],[35.03661399889205,39.743342306272325],[35.019862593411005,39.74410373379408]]]]},"properties":{}},{"type":"Feature","geometry":{"type":"MultiPolygon","coordinates":[[[[38.27247830385272,34.56720347208835],[38.2846135549824,34.5707726635971],[38.29270372240228,34.557209735863864],[38.28199614787604,34.55364054435512],[38.27247830385272,34.56720347208835]]]]},"properties":{}},{"type":"Feature","geometry":{"type":"MultiPolygon","coordinates":[[[[35.81516133391153,34.454607377292405],[35.8267731036201,34.456701302977535],[35.822204538488734,34.449848455280744],[35.81516133391153,34.454607377292405]]]]},"properties":{}},{"type":"Feature","geometry":{"type":"MultiPolygon","coordinates":[[[[35.50545462913715,33.90458260802012],[35.52943959607592,33.90553439242234],[35.5300106667172,33.896968332801464],[35.5062160566589,33.89601654839902],[35.50545462913715,33.90458260802012]]]]},"properties":{}},{"type":"Feature","geometry":{"type":"MultiPolygon","coordinates":[[[[36.195355553167474,34.01789254111782],[36.20630107379441,34.02288940922995],[36.21105999580607,34.015751026212456],[36.202493936184965,34.010754158100326],[36.195355553167474,34.01789254111782]]]]},"properties":{}},{"type":"Feature","geometry":{"type":"MultiPolygon","coordinates":[[[[36.30338308283223,33.51473171682494],[36.32337055528109,33.51492207370541],[36.31404306813829,33.50825958288891],[36.30338308283223,33.51473171682494]]]]},"properties":{}},{"type":"Feature","geometry":{"type":"MultiPolygon","coordinates":[[[[35.38285845288743,33.56086153419125],[35.371056326298515,33.558767608506116],[35.38133559784359,33.57399615894332],[35.38285845288743,33.56086153419125]]]]},"properties":{}},{"type":"Feature","geometry":{"type":"MultiPolygon","coordinates":[[[[36.4740285083264,32.52174774033057],[36.481404837444416,32.528172285046196],[36.48497402895316,32.518654441022875],[36.4740285083264,32.516274980017045],[36.4740285083264,32.52174774033057]]]]},"properties":{}},{"type":"Feature","geometry":{"type":"MultiPolygon","coordinates":[[[[32.5514780950038,31.047571650088855],[32.57741421996724,31.054710033106346],[32.584076710783734,31.04424040468058],[32.570513783050444,31.037339967763785],[32.5514780950038,31.047571650088855]]]]},"properties":{}},{"type":"Feature","geometry":{"type":"MultiPolygon","coordinates":[[[[31.254674728217083,29.87793387685923],[31.270664706176206,29.84957070166979],[31.252580802531952,29.852806768637777],[31.254674728217083,29.87793387685923]]]]},"properties":{}},{"type":"Feature","geometry":{"type":"MultiPolygon","coordinates":[[[[35.137553017145024,42.022701349235206],[35.151829783180006,42.0298397322527],[35.159919950599715,42.021273672631764],[35.137553017145024,42.022701349235206]]]]},"properties":{}},{"type":"Feature","geometry":{"type":"MultiPolygon","coordinates":[[[[44.573020722720116,33.12530035879399],[44.588189786632256,33.144038614214935],[44.60633317680174,33.134818202817314],[44.593543573895374,33.114295351642056],[44.573020722720116,33.12530035879399]]]]},"properties":{}},{"type":"Feature","geometry":{"type":"MultiPolygon","coordinates":[[[[44.55011841053897,33.10656210337311],[44.55993368718805,33.114295351642056],[44.57569761635165,33.112808188513384],[44.58164626886622,33.09585452884687],[44.57242585746866,33.08693155007501],[44.55695936093076,33.08722898270071],[44.55011841053897,33.10656210337311]]]]},"properties":{}},{"type":"Feature","geometry":{"type":"MultiPolygon","coordinates":[[[[44.50163689254521,33.08663411744925],[44.50758554505978,33.097936557226944],[44.53881597076128,33.08603925219779],[44.53405704874962,33.07622397554877],[44.50163689254521,33.08663411744925]]]]},"properties":{}},{"type":"Feature","geometry":{"type":"MultiPolygon","coordinates":[[[[44.431073976417224,32.52308257282846],[44.42250791679635,32.521297977074084],[44.41786796783492,32.53628858141076],[44.425363270003345,32.53807317716513],[44.431073976417224,32.52308257282846]]],[[[44.446421499904886,32.53236247075108],[44.43856927858553,32.528793279242336],[44.43535700622772,32.55199302404935],[44.44106771264177,32.554134538954486],[44.45355988292238,32.53807317716513],[44.446421499904886,32.53236247075108]]]]},"properties":{}},{"type":"Feature","geometry":{"type":"MultiPolygon","coordinates":[[[[44.58847532195284,32.55056534744574],[44.59811213902657,32.55234994320011],[44.61881344977735,32.53771625801437],[44.58847532195284,32.55056534744574]]]]},"properties":{}},{"type":"Feature","geometry":{"type":"MultiPolygon","coordinates":[[[[35.019862593411005,39.74410373379408],[35.04403791723024,39.75247943653466],[35.03661399889205,39.743342306272325],[35.019862593411005,39.74410373379408]]]]},"properties":{}}]}