{"type":"FeatureCollection","features":[{"type":"Feature","geometry":{"type":"MultiLineString","coordinates":[[[44.21130969711671,33.14381661921952],[44.28791850963026,33.11721603775817],[44.325288662075906,33.14929220888368]]]},"properties":{}},{"type":"Feature","geometry":{"type":"MultiLineString","coordinates":[[[5.01380038422991,35.710370690570244],[5.24460810179545,35.65564308743615],[5.390944953654014,35.69490419403235],[5.476605549863905,35.75558044968102],[5.450431478799771,35.78413398175098],[5.380237379127777,35.79246209527139],[5.176793463129286,35.7460626056577],[5.157757775082644,35.76509829370434],[5.21010591721091,35.81149778331803],[5.189880498661353,35.85194862041715],[5.143481009047662,35.874553499972535],[5.032836072276552,35.85432808142298]]]},"properties":{}},{"type":"Feature","geometry":{"type":"MultiLineString","coordinates":[[[5.442698230530823,35.034603764914436],[5.552153436799017,35.02865511239986],[5.552153436799017,35.13454112715931],[5.517651252214478,35.15238708470304],[5.42128308147835,35.15833573721761],[5.354658173315102,35.30348285857326]]]},"properties":{}},{"type":"Feature","geometry":{"type":"MultiLineString","coordinates":[[[5.334432754765544,34.53015803167841],[5.420093350975435,34.590834287327084],[5.698490288657581,34.60868024487081],[5.855534715042381,34.64794135146701]]]},"properties":{}},{"type":"Feature","geometry":{"type":"MultiLineString","coordinates":[[[8.397393934520437,34.30886815813619],[8.245108430147297,34.29459139210121],[7.938157960395358,34.30410923612453],[7.916742811342885,34.30886815813619],[7.888189279272922,34.34931899523531],[7.793010839039709,34.33861142070907],[7.506285787837157,34.41237471188981]]]},"properties":{}},{"type":"Feature","geometry":{"type":"MultiLineString","coordinates":[[[6.696013321676901,49.87727590150507],[6.627484844709045,49.85443307584916],[6.630340197916041,49.812316616045905]]]},"properties":{}},{"type":"Feature","geometry":{"type":"MultiLineString","coordinates":[[[7.318718266902749,50.52044421138095],[7.327641245674613,50.50497771484305],[7.381179118305795,50.508546906351796],[7.406163458867013,50.474639587018714],[7.432337529931146,50.46631147349831],[7.55666436748578,50.47582931752163],[7.626263601906317,50.40979927460984],[7.736313673425968,50.40504035259818],[7.762487744490102,50.38897899080882],[7.76784153175322,50.363994650247605],[7.72858042515702,50.31581056487954],[7.730365020911393,50.29439541582707],[7.977234100266287,50.20100157134823],[8.066106968833935,50.18375047905596],[8.353426885287945,50.214088606880296],[8.569362971567045,50.283092976049375],[8.643721127999243,50.329492465663066],[8.650264645765276,50.418127388130245],[8.712073128275904,50.50739088487984],[8.807251568509116,50.51976408211016],[8.90861660735743,50.43315170149788],[8.903381793144547,50.34415985987994],[8.98005,50.21830000000057],[8.999987909981371,50.07813611942794]]]},"properties":{}},{"type":"Feature","geometry":{"type":"MultiLineString","coordinates":[[[9.15798412076839,49.80042922543754],[9.105635978640123,49.76830650185883],[9.086124398392485,49.66932092401635],[9.107539547444958,49.582232651203014],[9.170357317998764,49.510848821028105],[9.187965329441965,49.32905800018261],[9.21651886151193,49.2338795599494]]]},"properties":{}},{"type":"Feature","geometry":{"type":"MultiLineString","coordinates":[[[9.263211817983006,49.7079673365194],[9.388847359090846,49.59518088484299],[9.396461634309503,49.52236937806464],[9.577300670752606,49.0383870094787],[9.652015746335621,48.85707208083454],[9.68199695500914,48.82756676436219],[9.774605577356056,48.803772154303886],[10.005889187122818,48.83946406939134],[10.068231065475402,48.864686356053085],[10.143897925460976,48.92512466560123],[10.296183429834116,48.986514759551596]]]},"properties":{}},{"type":"Feature","geometry":{"type":"MultiLineString","coordinates":[[[10.296183429834116,48.986514759551596],[10.3951690076766,49.020303105834444],[10.57077322990682,49.110722624055995],[10.73257657830328,49.12024046807932],[10.95862537385716,49.08121730758364],[11.191336660227307,48.981755837539936],[11.657235125169052,48.88943275051378],[11.781442989673224,48.88752918170917]]]},"properties":{}},{"type":"Feature","geometry":{"type":"MultiLineString","coordinates":[[[22.9940936965736,37.88183686329063],[22.95444289023027,37.9082872864206],[22.93601479384506,37.94444353792966]]]},"properties":{}},{"type":"Feature","geometry":{"type":"MultiLineString","coordinates":[[[14.431857586989224,45.497944775744884],[14.463980310567933,45.574087527931454],[14.530010353479724,45.64547135810636]],[[14.235254621382524,45.9726472464078],[14.254290309429166,45.95539615411553],[14.288197628762248,45.96193967188157]]]},"properties":{}},{"type":"Feature","geometry":{"type":"MultiLineString","coordinates":[[[19.713816853877972,47.619028042488594],[20.13141226040119,47.66899672361103],[20.53722933494572,47.678276621533826]]]},"properties":{}},{"type":"Feature","geometry":{"type":"MultiLineString","coordinates":[[[21.18261054355696,47.9288338654477],[21.382485268046707,47.940255278275686],[21.415321829927166,47.89671114186899],[21.448872230109487,47.743949745294685],[21.461721319540857,47.566204008159275],[21.43174011086745,47.16003001446404],[21.33251658692427,46.74528996114782]]]},"properties":{}},{"type":"Feature","geometry":{"type":"MultiLineString","coordinates":[[[21.57557852866995,47.72467611114752],[21.584858426592575,47.68827035775837],[21.546311158298238,47.474832705535334],[21.572723175462897,47.39559665404124],[21.649103873749993,47.28281020236477]]]},"properties":{}},{"type":"Feature","geometry":{"type":"MultiLineString","coordinates":[[[21.276837199387955,46.29128880123545],[21.29396931862982,46.14423811107514],[21.16833377752198,45.78089441548485]]]},"properties":{}},{"type":"Feature","geometry":{"type":"MultiLineString","coordinates":[[[20.94026244011326,46.07428195750367],[20.96738829557961,45.96720621224131],[20.890293758990822,45.74306098549209]]]},"properties":{}},{"type":"Feature","geometry":{"type":"MultiLineString","coordinates":[[[21.3896236510642,46.12639215353141],[21.329661233717275,45.93080045885216],[21.336799616734766,45.650975844566574],[21.32609204220853,45.55246615892514],[21.279692552594838,45.39328021763504],[21.29325548032807,45.21838983370668],[21.278264875991397,45.129160045988044]]]},"properties":{}},{"type":"Feature","geometry":{"type":"MultiLineString","coordinates":[[[21.26612962486172,45.070625305244505],[21.271840331275598,45.01423207940644],[21.232579224679398,44.94784511734372],[21.243286799205634,44.87788896377225]]]},"properties":{}},{"type":"Feature","geometry":{"type":"MultiLineString","coordinates":[[[20.989874202084707,45.00637985808709],[20.970600567937595,44.93856521942092],[20.994871070197064,44.853618461512895],[20.987732687179573,44.767957865303]]]},"properties":{}},{"type":"Feature","geometry":{"type":"MultiLineString","coordinates":[[[21.09722755113114,47.008815267543525],[20.70699594617497,46.99275390575417],[20.40034290904856,46.95408766440943],[20.24389334791522,46.8773500469714],[20.142171389915973,46.77979214573236]]]},"properties":{}},{"type":"Feature","geometry":{"type":"MultiLineString","coordinates":[[[20.356025447815,47.431050623028],[20.057997956834754,47.498865261694164],[19.790606026304545,47.52860852426704],[19.366288642439827,47.515521488734976],[19.077184130231444,47.557162056337006]]]},"properties":{}},{"type":"Feature","geometry":{"type":"MultiLineString","coordinates":[[[22.818301611069103,44.5220306559296],[23.156185073897007,44.3929448963633],[23.60471347349602,44.2864640163524],[23.68561514769425,44.28348969009511],[23.93873031218925,44.32275079669131],[24.036169240377887,44.3058566235498],[24.173081443769433,44.254200507997325],[24.248748303754837,44.24991747818666],[24.606024373780315,44.34271645741404],[24.65456537829914,44.37341150438937],[24.841591013357515,44.4326600834346],[25.246337330449194,44.658232986787255],[25.375542063065723,44.68250348904661],[25.51759588511385,44.74817661280764],[25.76494085666974,44.77316095336886],[25.912705385131915,44.87024296240668],[26.34778983004793,44.96589729484111]]]},"properties":{}},{"type":"Feature","geometry":{"type":"MultiLineString","coordinates":[[[25.05901426276506,43.719773566087895],[25.057824532262146,43.881576914484356],[25.031055595946555,44.09156434824888],[24.954912843759985,44.171276291944196]]]},"properties":{}},{"type":"Feature","geometry":{"type":"MultiLineString","coordinates":[[[24.814524644415997,44.24682417887914],[24.83356033246264,44.57935385444392],[24.79370436061498,44.73282908931998],[24.891262261854024,44.85537133112024]]]},"properties":{}},{"type":"Feature","geometry":{"type":"MultiLineString","coordinates":[[[24.571522189195605,44.06241595092746],[24.686926047978375,43.99519617751275],[24.861221566655445,43.94463263113886],[24.969189609794967,43.92976099985242],[25.117311057407903,43.9398737091272],[25.281196434184494,43.90834585079995],[25.466794392639258,43.904181794039744],[26.100920750693035,43.97853995047194]]]},"properties":{}},{"type":"Feature","geometry":{"type":"MultiLineString","coordinates":[[[26.843704056183867,40.606804635821106],[26.894834487797823,40.574197546823996],[26.91384183297157,40.54051344217521]]]},"properties":{}},{"type":"Feature","geometry":{"type":"MultiLineString","coordinates":[[[23.497278639088393,38.46567428423862],[23.526129603784057,38.43533615641445],[23.58353410054974,38.446341163566274]]]},"properties":{}}]}