{"type":"FeatureCollection","features":[{"type":"Feature","geometry":{"type":"MultiPolygon","coordinates":[[[[31.441829999999754,37.960689999999886],[31.581560000000536,37.85334999999941],[31.603730000000724,37.76586],[31.655989999999292,37.79040999999961],[31.716959999999744,37.67236000000048],[31.457099999999627,37.58678999999938],[31.4643300000007,37.71127999999953],[31.315819999999803,37.9329],[31.441829999999754,37.960689999999886]],[[31.460300000000643,37.95231000000058],[31.460300000000643,37.95231000000058]],[[31.50971000000027,37.87189000000035],[31.50971000000027,37.87189000000035]],[[31.355980000000272,37.88911999999982],[31.355980000000272,37.88911999999982]],[[31.386759999999413,37.86456],[31.386759999999413,37.86456]],[[31.45242,37.834500000000844],[31.45242,37.834500000000844]],[[31.448570000000473,37.83238999999958],[31.448570000000473,37.83238999999958]],[[31.434450000000652,37.823420000000624],[31.434450000000652,37.823420000000624]],[[31.55913999999939,37.787819999999556],[31.55913999999939,37.787819999999556]],[[31.559429999999338,37.78296000000046],[31.559429999999338,37.78296000000046]],[[31.4748,37.780109999999695],[31.4748,37.780109999999695]],[[31.451639999999315,37.775470000000496],[31.451639999999315,37.775470000000496]],[[31.434080000000904,37.76211999999941],[31.434080000000904,37.76211999999941]],[[31.64712999999938,37.76286000000073],[31.64712999999938,37.76286000000073]],[[31.6298599999991,37.75699999999961],[31.6298599999991,37.75699999999961]],[[31.654990000000907,37.69846999999936],[31.654990000000907,37.69846999999936]],[[31.46171999999933,37.695700000000215],[31.46171999999933,37.695700000000215]],[[31.467070000000604,37.691179999999804],[31.467070000000604,37.691179999999804]],[[31.478699999999662,37.67425999999978],[31.478699999999662,37.67425999999978]],[[31.479559999999765,37.663979999999356],[31.479559999999765,37.663979999999356]],[[31.479489999999714,37.64119000000028],[31.479489999999714,37.64119000000028]],[[31.47527000000082,37.626539999999295],[31.47527000000082,37.626539999999295]],[[31.51799000000028,37.61859999999979],[31.51799000000028,37.61859999999979]],[[31.475769999999102,37.61825999999928],[31.475769999999102,37.61825999999928]],[[31.50098000000071,37.60540000000037],[31.50098000000071,37.60540000000037]],[[31.51597000000038,37.60110999999961],[31.51597000000038,37.60110999999961]]],[[[31.526739999999336,37.61541000000034],[31.526739999999336,37.61541000000034]]]]},"properties":{}},{"type":"Feature","geometry":{"type":"MultiPolygon","coordinates":[[[[37.52195000000029,36.082179999999425],[37.734049999999115,36.08157000000028],[37.653120000000854,35.91875000000073],[37.75096999999914,35.913399999999456],[37.70130000000063,35.90685999999914],[37.71528000000035,35.860899999999674],[37.64477000000079,35.91697000000022],[37.59213000000091,35.870569999999134],[37.586380000000645,35.992959999999584],[37.45923000000039,36.08383999999933],[37.52195000000029,36.082179999999425]],[[37.56355000000076,36.06842999999935],[37.56355000000076,36.06842999999935]],[[37.61685000000034,36.06996000000072],[37.61685000000034,36.06996000000072]],[[37.55935999999929,36.064440000000104],[37.55935999999929,36.064440000000104]],[[37.61665999999968,36.05091999999968],[37.61665999999968,36.05091999999968]],[[37.64456000000064,35.978510000000824],[37.64456000000064,35.978510000000824]]]]},"properties":{}},{"type":"Feature","geometry":{"type":"MultiPolygon","coordinates":[[[[28.49145999999928,40.22520000000077],[28.728030000000217,40.18548],[28.58915,40.12336999999934],[28.45825,40.202760000000126],[28.49145999999928,40.22520000000077]],[[28.469680000000153,40.21697999999924],[28.469680000000153,40.21697999999924]],[[28.47475999999915,40.21716000000015],[28.47475999999915,40.21716000000015]],[[28.461709999999584,40.207039999999324],[28.461709999999584,40.207039999999324]],[[28.461049999999886,40.20377],[28.461049999999886,40.20377]],[[28.57879999999932,40.20413],[28.57879999999932,40.20413]],[[28.667639999999665,40.1868400000003],[28.667639999999665,40.1868400000003]],[[28.657789999999295,40.18018999999913],[28.657789999999295,40.18018999999913]],[[28.64173,40.17389],[28.64173,40.17389]],[[28.65135999999984,40.170570000000225],[28.65135999999984,40.170570000000225]],[[28.634659999999712,40.16316999999981],[28.634659999999712,40.16316999999981]],[[28.650470000000496,40.17959999999948],[28.650470000000496,40.17959999999948]],[[28.6864800000003,40.15295999999944],[28.6864800000003,40.15295999999944]]]]},"properties":{}},{"type":"Feature","geometry":{"type":"MultiPolygon","coordinates":[[[[4.31027,43.518739999999525],[4.313089999999647,43.466089999999895],[4.234969999999521,43.472719999999754],[4.31027,43.518739999999525]],[[4.291869999999108,43.50274999999965],[4.291869999999108,43.50274999999965]],[[4.301149999999325,43.49591999999939],[4.301149999999325,43.49591999999939]],[[4.278840000000855,43.487740000000485],[4.278840000000855,43.487740000000485]],[[4.258470000000671,43.48164999999972],[4.258470000000671,43.48164999999972]],[[4.253329999999551,43.48735999999917],[4.253329999999551,43.48735999999917]],[[4.304469999999128,43.47472000000016],[4.304469999999128,43.47472000000016]],[[4.299510000000737,43.47124000000076],[4.299510000000737,43.47124000000076]]]]},"properties":{}},{"type":"Feature","geometry":{"type":"MultiPolygon","coordinates":[[[[45.14977999999974,38.26514999999927],[45.35916999999972,38.25444000000061],[45.53465999999935,38.12536],[45.54774,37.94511000000057],[45.41628,37.910610000000815],[45.4061700000002,37.810670000000755],[45.489449999999124,37.72204000000056],[45.600689999999304,37.82257000000027],[45.77795999999944,37.70537999999942],[45.79699000000073,37.62151000000085],[45.667310000000725,37.6221000000005],[45.88264999999956,37.39783999999963],[45.97664000000077,37.37344999999914],[45.798179999999775,37.21224000000075],[45.70537999999942,37.21104999999989],[45.657789999999295,37.11528],[45.7470200000007,37.07899],[45.72739,37.026050000000396],[45.656010000000606,37.008200000000215],[45.66671999999926,37.04150999999911],[45.58403,37.049839999999676],[45.52752,37.123600000000806],[45.45079000000078,37.10873],[45.31753000000026,37.2497199999998],[45.23365999999987,37.65243999999984],[45.26020000000062,37.738649999999325],[45.06293,37.83506],[45.0635199999997,37.97426000000087],[45.19557999999961,38.03255999999965],[45.21342999999979,38.11678000000029],[45.17059999999947,38.16045],[45.14205000000038,38.114050000000134],[45.12241999999969,38.15034000000014],[45.00761000000057,38.13904],[45.06174,38.240169999999125],[45.14977999999974,38.26514999999927]],[[45.126070000000254,38.15350000000035],[45.126070000000254,38.15350000000035]],[[45.24127000000044,38.12785000000076],[45.24127000000044,38.12785000000076]],[[45.23877,38.07824000000073],[45.23877,38.07824000000073]],[[45.207360000000335,38.06538999999975],[45.207360000000335,38.06538999999975]],[[45.44828000000052,37.72298000000046],[45.44828000000052,37.72298000000046]],[[45.44007000000056,37.70941999999923],[45.44007000000056,37.70941999999923]],[[45.5287100000005,37.60621],[45.5287100000005,37.60621]],[[45.55369000000064,37.59757999999965],[45.55369000000064,37.59757999999965]],[[45.56142,37.592829999999594],[45.56142,37.592829999999594]],[[45.53911999999946,37.591340000000855],[45.53911999999946,37.591340000000855]],[[45.54060000000027,37.57676],[45.54060000000027,37.57676]],[[45.593839999999545,37.54523999999947],[45.593839999999545,37.54523999999947]],[[45.67237000000023,37.487240000000384],[45.58849,37.51579],[45.5640999999996,37.47564000000057],[45.61644999999953,37.4447],[45.67237000000023,37.487240000000384]],[[45.61585000000014,37.50984000000062],[45.61585000000014,37.50984000000062]],[[45.696749999999156,37.50389],[45.696749999999156,37.50389]],[[45.6917,37.492889999999534],[45.6917,37.492889999999534]],[[45.67622999999912,37.4670100000003],[45.67622999999912,37.4670100000003]],[[45.64905,37.44988999999987],[45.64905,37.44988999999987]],[[45.5640999999996,37.44381000000067],[45.5640999999996,37.44381000000067]],[[45.470110000000204,37.44619000000057],[45.470110000000204,37.44619000000057]],[[45.48735999999917,37.450950000000375],[45.53940999999941,37.4723699999995],[45.48588000000018,37.499729999999545],[45.48735999999917,37.450950000000375]],[[45.467140000000654,37.45809],[45.467140000000654,37.45809]],[[45.550719999999274,37.47295999999915],[45.550719999999274,37.47295999999915]],[[45.564399999999296,37.44024],[45.564399999999296,37.44024]],[[45.55964,37.43727000000035],[45.55964,37.43727000000035]],[[45.65392000000065,37.436970000000656],[45.65392000000065,37.436970000000656]],[[45.567370000000665,37.42864],[45.567370000000665,37.42864]],[[45.66493000000082,37.43073],[45.66493000000082,37.43073]],[[45.53852,37.424479999999676],[45.50461,37.439650000000256],[45.48290000000088,37.38938000000053],[45.55369000000064,37.33316999999988],[45.53852,37.424479999999676]],[[45.660470000000714,37.42298999999912],[45.660470000000714,37.42298999999912]]]]},"properties":{}},{"type":"Feature","geometry":{"type":"MultiPolygon","coordinates":[[[[27.99243000000024,40.25332999999955],[28.05105999999978,40.236000000000786],[28.06582999999955,40.14955],[27.843619999999646,40.16972999999962],[27.99243000000024,40.25332999999955]],[[28.05523,40.198169999999664],[28.05523,40.198169999999664]],[[28.055609999999433,40.1850400000003],[28.055609999999433,40.1850400000003]],[[28.05877,40.180280000000494],[28.05877,40.180280000000494]],[[28.05555,40.17782000000079],[28.05555,40.17782000000079]],[[27.84647000000041,40.16983000000073],[27.84647000000041,40.16983000000073]],[[27.904630000000907,40.14156],[27.904630000000907,40.14156]],[[27.94082999999955,40.15574000000015],[27.94082999999955,40.15574000000015]]]]},"properties":{}},{"type":"Feature","geometry":{"type":"MultiPolygon","coordinates":[[[[8.859049999999115,46.15608000000066],[8.734599999999773,46.10729999999967],[8.7463800000005,46.01997999999912],[8.598830000000817,45.91338],[8.625239999999394,45.83414000000084],[8.565520000000106,45.80083000000013],[8.589309999999386,45.73015999999916],[8.540530000000217,45.79796999999962],[8.564570000000458,45.878640000000814],[8.481519999999364,45.9383600000001],[8.55812,45.92385],[8.709500000000844,46.03806000000077],[8.731270000000222,46.149419999999736],[8.859049999999115,46.15608000000066]],[[8.493360000000393,45.9408399999993],[8.493360000000393,45.9408399999993]],[[8.534519999999247,45.91788000000088],[8.534519999999247,45.91788000000088]],[[8.518700000000536,45.906699999999546],[8.518700000000536,45.906699999999546]],[[8.521790000000692,45.905979999999545],[8.521790000000692,45.905979999999545]],[[8.525480000000243,45.901819999999134],[8.525480000000243,45.901819999999134]]]]},"properties":{}},{"type":"Feature","geometry":{"type":"MultiPolygon","coordinates":[[[[33.10929698438514,37.58417112082276],[33.01907102104576,37.496085022238105],[32.98668038442793,37.58060192931384],[33.024156895270096,37.6055862698754],[33.363242574279866,37.68241539460621],[33.10929698438514,37.58417112082276]],[[33.20432760601017,37.62885136693939],[33.20432760601017,37.62885136693939]],[[33.06477000000086,37.56963],[33.06477000000086,37.56963]],[[33.05930501174481,37.56841572479368],[33.05930501174481,37.56841572479368]],[[33.05399219059876,37.564966573324],[33.05399219059876,37.564966573324]],[[33.066328929109545,37.56320456876148],[33.066328929109545,37.56320456876148]],[[33.05786670506927,37.55989933269285],[33.05786670506927,37.55989933269285]]]]},"properties":{}},{"type":"Feature","geometry":{"type":"MultiPolygon","coordinates":[[[[23.249364866622443,51.43757279615585],[23.21034170612694,51.43091030533958],[23.33478478563933,51.41428821957436],[23.423657654207204,51.49923497748233],[23.667314461204114,51.468896849657995],[23.75062000000071,51.50729999999936],[23.75454,51.54941999999937],[23.570029198607187,51.55214686151214],[23.616577404533757,51.57951066307919],[23.58861873771525,51.65327395425993],[23.681417716942633,51.71038101839986],[23.776298724550145,51.69788884811925],[23.795334412596787,51.7841443095806],[24.025194636126344,51.847351491165455],[24.5320198303682,51.86876664021793],[24.665269646694696,51.82593634211298],[24.710479405805472,51.7093427528273],[24.650992880659715,51.01216067811902],[24.5824157124149,50.98448132542683],[24.47890915866128,51.05729283220518],[24.388251694339033,51.010179504289795],[24.597406316751574,50.877405580164464],[24.44535875847896,50.892396184501195],[24.386142526499725,50.95209847479066],[24.138083716641916,50.869412204838056],[23.895233816572215,51.02605691249147],[23.809970607984724,50.96904322710088],[23.95040421094484,50.942026064972595],[23.857605231717457,50.87421142630643],[23.791515338313275,50.93635103511144],[23.624477175703987,50.94705860963768],[23.782949278692172,50.98846123113924],[23.850763917358336,51.107672227531225],[23.57950536269368,51.0113040567951],[23.562373243451702,51.05127900169305],[23.68443959305091,51.09196778489286],[23.570939303072805,51.107672227531225],[23.56094556684826,51.16906232148165],[23.484250085698818,51.15556259818135],[23.458373447260442,51.2263515631048],[23.34624134736066,51.29297647126805],[23.448397061272544,51.31911708116178],[23.46172204290508,51.264865370228904],[23.805147666992355,51.156818011722464],[23.845690051600968,51.1991254498156],[23.637768552809575,51.26873065359712],[23.64633461243045,51.34868054339313],[23.496904461264364,51.33440377735815],[23.521650855725056,51.4400518460169],[23.309402934004993,51.37818585986531],[23.378883195375238,51.36866801584199],[23.36746178254731,51.330596639748705],[23.057239553911984,51.34408025211508],[23.024242883147906,51.4614443541376],[23.088473533230456,51.55120675175516],[23.022800409469653,51.639722701172104],[23.138442214352892,51.70682350153652],[22.965733003013042,51.74776609391],[23.07847979700597,51.8453081320759],[23.088473533230456,51.77106894869394],[23.23076818518001,51.724716389145954],[23.204154995797296,51.64557617524645],[23.37236306006787,51.65596648830524],[23.483007996838978,51.75233465904137],[23.547114642104248,51.643434660341086],[23.56281908474267,51.58204456639072],[23.47822924598546,51.54977907515172],[23.298341993944746,51.612596845705525],[23.088599999999076,51.532999999999504],[23.253029999999853,51.47445999999945],[23.249364866622443,51.43757279615585]],[[23.08777999999984,51.40629000000075],[23.08777999999984,51.40629000000075]],[[23.07172,51.379170000000215],[23.07172,51.379170000000215]],[[23.139180000000238,51.37238000000082],[23.139180000000238,51.37238000000082]],[[24.315006927369268,51.45143071897917],[24.222239674288573,51.41879244551592],[24.254362397867283,51.35692645936433],[24.193092971883345,51.34701109683863],[24.2037081365188,51.29940127286085],[24.375088317766483,51.43180016568107],[24.345939920445062,51.47998425104913],[24.315006927369268,51.45143071897917]],[[23.834140000000843,51.4748199999994],[23.88875,51.52193000000091],[23.7738200000004,51.48373999999973],[23.834140000000843,51.4748199999994]],[[24.25594849304798,51.518155033338246],[24.220256577960527,51.50435415950426],[24.262746301665686,51.47385856647816],[24.516026392672757,51.49826182839837],[24.43118411097896,51.54235587266453],[24.25594849304798,51.518155033338246]],[[23.97900966373726,51.53680752769674],[23.97900966373726,51.53680752769674]],[[23.863180000000398,51.539899999999875],[23.88637999999986,51.56130999999925],[23.814990000000876,51.581659999999886],[23.863180000000398,51.539899999999875]],[[24.48933000000045,51.58071000000018],[24.48933000000045,51.58071000000018]],[[24.594873798869457,51.574268951307545],[24.594873798869457,51.574268951307545]],[[23.966897891254007,51.56180528409175],[23.966897891254007,51.56180528409175]],[[23.923619999999687,51.57618],[23.923619999999687,51.57618]],[[24.342640000000756,51.55107999999939],[24.342640000000756,51.55107999999939]],[[24.17508000000089,51.48773000000074],[24.17508000000089,51.48773000000074]],[[23.972225344517426,51.49580008707915],[23.972225344517426,51.49580008707915]],[[23.986095508255687,51.50544889663615],[23.986095508255687,51.50544889663615]],[[23.906129999999393,51.481599999999275],[23.906129999999393,51.481599999999275]],[[24.414349424362683,51.40443636411402],[24.31976584938093,51.37171877528385],[24.337643533071343,51.20226149398536],[24.400699249725847,51.1975025719737],[24.369287500737414,51.35714237055993],[24.414349424362683,51.40443636411402]],[[24.275036939681627,51.19720513934794],[24.17912941899249,51.17368578095858],[24.28442056850048,51.11122492955553],[24.343565416649483,51.17007928388142],[24.275036939681627,51.19720513934794]],[[24.485333703376853,51.127962824078224],[24.60882772957956,51.13153201558697],[24.508890367334686,51.18506988821815],[24.485333703376853,51.127962824078224]],[[23.97507874043754,51.20237315771004],[24.085723677208648,51.24734497072029],[23.931869933130088,51.28110385082749],[23.838464048251637,51.24202770822899],[23.917395269895167,51.2108850665669],[23.867806806812553,51.17367252718043],[23.91144017300701,51.15264404054153],[23.97507874043754,51.20237315771004]],[[23.98949,51.37887000000046],[23.98949,51.37887000000046]],[[24.30405112179858,51.0808868017312],[24.23266729162367,51.03627190787188],[24.312379235318986,50.977677680603335],[24.30405112179858,51.0808868017312]],[[23.909298658101875,51.066709017507776],[23.909298658101875,51.066709017507776]],[[23.81674956164926,51.61966406755255],[23.81674956164926,51.61966406755255]],[[23.96392356499672,51.688214150026454],[23.96392356499672,51.688214150026454]],[[24.507719999999722,51.739890000000855],[24.507719999999722,51.739890000000855]],[[24.50986000000023,51.76416000000063],[24.50986000000023,51.76416000000063]]]]},"properties":{}},{"type":"Feature","geometry":{"type":"MultiPolygon","coordinates":[[[[-6.305126293579633,34.769770266519345],[-6.294180772952814,34.64461061761256],[-6.354048011859561,34.551811638385175],[-6.317042729475304,34.532483942883914],[-6.209324529741366,34.63720402175045],[-6.253939423600684,34.69752335824836],[-6.178629482766155,34.6689698261784],[-6.112987291998365,34.74282353687738],[-6.027117303219939,34.71161452632481],[-6.080417229750537,34.65831459979432],[-5.890812258961944,34.581026533710144],[-5.882960037642704,34.504883781523574],[-5.826856313715837,34.49034617676074],[-5.78844784649101,34.5529488938414],[-5.75706,34.53425000000061],[-5.820808516170416,34.48561014737646],[-5.790351415295731,34.44825260958487],[-5.682049999999435,34.463830000000655],[-5.578750000000468,34.40989000000093],[-5.915150364881242,34.27689791038836],[-6.048876073408849,34.29087724379764],[-6.264271836441708,34.34545592836463],[-6.151675741645761,34.47330912712994],[-6.043648211981122,34.463791283106616],[-6.075532989459191,34.43761721204248],[-5.890166024320024,34.34173822279723],[-5.880913701177633,34.3991246713511],[-6.232881193698972,34.570460140536966],[-6.236735920528531,34.461100112709005],[-6.319900000000359,34.4952200000007],[-6.379979999999648,34.4544700000007],[-6.298304474054362,34.37900870800786],[-6.3861065851695,34.39292855489185],[-6.351485427534726,34.336535329053845],[-6.470992135021618,34.337226383056134],[-6.549906288659486,34.25063064376809],[-6.561327701487414,34.363417095444504],[-6.42674054558762,34.49815479270376],[-6.433284063353653,34.58559998466802],[-6.424955949833247,34.5171904807504],[-6.374392403459353,34.518380211253316],[-6.420641130423633,34.513621289241655],[-6.320497611677297,34.60820486422341],[-6.305126293579633,34.769770266519345]],[[-6.452493547232223,34.37401183989567],[-6.452493547232223,34.37401183989567]],[[-6.549268213563948,34.30472250747414],[-6.549268213563948,34.30472250747414]],[[-5.995145048470306,34.622604326988665],[-5.995145048470306,34.622604326988665]],[[-5.968688237512424,34.38903001028814],[-6.066127165701118,34.31615901698456],[-6.009733939862997,34.34263052067445],[-5.9353757834308,34.299205357318044],[-5.968688237512424,34.38903001028814]],[[-6.114013818443482,34.32299996737635],[-6.07802447073027,34.35006633631764],[-6.176481070596651,34.36117065027469],[-6.114013818443482,34.32299996737635]],[[-6.099439619782743,34.37386094637594],[-6.075565167403056,34.394574597657254],[-6.125704210302445,34.410922324553326],[-6.099439619782743,34.37386094637594]],[[-6.134728427208643,34.66825598787648],[-6.091267571937124,34.66326387868645],[-6.141731180948796,34.687429684661595],[-6.133464240752403,34.63386675727628],[-6.134728427208643,34.66825598787648]]]]},"properties":{}},{"type":"Feature","geometry":{"type":"MultiPolygon","coordinates":[[[[4.351280119769703,43.5411333989636],[4.309546625268666,43.5617952824328],[4.23913,43.5051399999993],[4.16740481663874,43.6027782330974],[4.44597897069051,43.66292237518056],[4.464141182455139,43.73494432929404],[4.567987783264741,43.77064159832234],[4.482891263156872,43.66427094818751],[4.625866222731221,43.58083097047942],[4.49350870428191,43.57726177897067],[4.420060463882312,43.45648760194953],[4.351280119769703,43.5411333989636]],[[4.391340597344055,43.56685163707016],[4.349677235767857,43.55067464345515],[4.423109999999724,43.55279999999948],[4.391340597344055,43.56685163707016]],[[4.408450000000812,43.54233000000022],[4.408450000000812,43.54233000000022]],[[4.423109999999724,43.55279999999948],[4.423109999999724,43.55279999999948]],[[4.261969999999565,43.5535],[4.261969999999565,43.5535]],[[4.359630000000834,43.64354],[4.359630000000834,43.64354]],[[4.297950000000128,43.61499],[4.297950000000128,43.61499]],[[4.317940000000817,43.631359999999404],[4.317940000000817,43.631359999999404]],[[4.426910000000134,43.47588999999971],[4.426910000000134,43.47588999999971]],[[4.431099999999788,43.485790000000634],[4.431099999999788,43.485790000000634]],[[4.420819999999367,43.50310999999965],[4.420819999999367,43.50310999999965]],[[4.426910000000134,43.4955000000009],[4.426910000000134,43.4955000000009]],[[4.41835,43.47798999999941],[4.41835,43.47798999999941]],[[4.412070000000313,43.47247000000061],[4.412070000000313,43.47247000000061]],[[4.406929999999193,43.46522999999979],[4.406929999999193,43.46522999999979]],[[4.405979999999545,43.53966000000037],[4.405979999999545,43.53966000000037]],[[4.40712,43.53262],[4.40712,43.53262]],[[4.40274,43.52671999999984],[4.40274,43.52671999999984]]]]},"properties":{}},{"type":"Feature","geometry":{"type":"MultiPolygon","coordinates":[[[[27.908250000000407,44.94247],[27.91400000000067,45.0],[28.11844000000019,45.0],[28.129689999999755,44.918579999999565],[27.969390000000203,44.8065600000009],[27.99683,44.85132999999951],[27.940080000000307,44.922529999999824],[27.960139999999228,44.850000000000364],[27.889390000000276,44.80420000000049],[27.855970000000525,44.847859999999855],[27.908250000000407,44.94247]],[[28.095439999999144,44.97206],[28.095439999999144,44.97206]],[[28.074360000000524,44.94361000000026],[28.074360000000524,44.94361000000026]],[[28.019860000000335,44.89739],[28.019860000000335,44.89739]],[[28.040499999999156,44.86103],[28.040499999999156,44.86103]],[[28.01786,44.85139],[28.01786,44.85139]]]]},"properties":{}},{"type":"Feature","geometry":{"type":"MultiPolygon","coordinates":[[[[28.03603,45.35733000000073],[28.104330000000118,45.43982999999935],[28.188169999999445,45.41625000000022],[28.24749999999949,45.46147000000019],[28.37572,45.3126400000001],[28.29486,45.30153000000064],[28.170980000000775,45.37725],[28.08325,45.25928000000022],[28.0057199999992,45.288109999999506],[28.03603,45.35733000000073]],[[28.229040000000182,45.37821000000076],[28.229040000000182,45.37821000000076]],[[28.100070000000407,45.36345000000073],[28.100070000000407,45.36345000000073]],[[28.102860000000874,45.34643999999935],[28.14669,45.32208],[28.13286,45.366939999999886],[28.102860000000874,45.34643999999935]],[[28.109220000000278,45.31811000000016],[28.109220000000278,45.31811000000016]],[[28.07775000000038,45.29686000000038],[28.07775000000038,45.29686000000038]]]]},"properties":{}},{"type":"Feature","geometry":{"type":"MultiPolygon","coordinates":[[[[47.87189000000035,46.206889999999476],[47.83136000000013,46.20660999999927],[47.6925,46.00069000000076],[47.56308,46.00886],[47.68453000000045,46.085189999999784],[47.66878,46.1571100000001],[47.75994,46.22997000000032],[47.92807999999968,46.29670000000078],[47.87189000000035,46.206889999999476]],[[47.82978,46.22975000000042],[47.82978,46.22975000000042]],[[47.79193999999916,46.21836000000076],[47.79193999999916,46.21836000000076]],[[47.88746999999967,46.273300000000745],[47.88746999999967,46.273300000000745]],[[47.80703,46.18964000000051],[47.80703,46.18964000000051]],[[47.777860000000146,46.16459000000032],[47.777860000000146,46.16459000000032]],[[47.722390000000814,46.069439999999304],[47.722390000000814,46.069439999999304]],[[47.6929999999993,46.06444999999985],[47.6929999999993,46.06444999999985]],[[47.66708,46.07085999999981],[47.66708,46.07085999999981]],[[47.668110000000524,46.042059999999765],[47.668110000000524,46.042059999999765]],[[47.60132999999951,46.01521999999932],[47.60132999999951,46.01521999999932]]]]},"properties":{}},{"type":"Feature","geometry":{"type":"MultiPolygon","coordinates":[[[[47.87189000000035,46.206889999999476],[47.83136000000013,46.20660999999927],[47.6925,46.00069000000076],[47.56308,46.00886],[47.68453000000045,46.085189999999784],[47.66878,46.1571100000001],[47.75994,46.22997000000032],[47.92807999999968,46.29670000000078],[47.87189000000035,46.206889999999476]],[[47.82978,46.22975000000042],[47.82978,46.22975000000042]],[[47.79193999999916,46.21836000000076],[47.79193999999916,46.21836000000076]],[[47.88746999999967,46.273300000000745],[47.88746999999967,46.273300000000745]],[[47.80703,46.18964000000051],[47.80703,46.18964000000051]],[[47.777860000000146,46.16459000000032],[47.777860000000146,46.16459000000032]],[[47.722390000000814,46.069439999999304],[47.722390000000814,46.069439999999304]],[[47.6929999999993,46.06444999999985],[47.6929999999993,46.06444999999985]],[[47.66708,46.07085999999981],[47.66708,46.07085999999981]],[[47.668110000000524,46.042059999999765],[47.668110000000524,46.042059999999765]],[[47.60132999999951,46.01521999999932],[47.60132999999951,46.01521999999932]]]]},"properties":{}},{"type":"Feature","geometry":{"type":"MultiPolygon","coordinates":[[[[48.227775600073194,29.536074057686044],[48.044196162999064,29.80322992520716],[47.993297542749644,30.003346154838134],[48.20214607486978,30.0050523857862],[48.52218,29.790590000000517],[48.227775600073194,29.536074057686044]]],[[[48.08081033175956,30.30460760086988],[48.276359546975364,30.195396704558004],[48.48258105353421,29.96124983960319],[48.65256241248062,29.88681788601701],[48.53045140217627,29.796852801310077],[48.20805688238261,30.009602191533915],[47.99953672845766,30.003914901747514],[47.78313549784887,30.384523942459346],[47.813510480901265,30.450221762232953],[47.87393206881026,30.451920256946376],[48.08081033175956,30.30460760086988]]],[[[48.25994063721806,30.308860112854866],[48.280360000000655,30.368529999999716],[48.45333000000027,30.262360000000605],[48.467749999999796,30.190860000000594],[48.559310000000565,30.206389999999356],[48.57370000000082,30.117749999999422],[48.744691721304015,29.939447104138214],[48.658154073556055,29.890277382558224],[48.48126754075361,29.970353257470585],[48.16503933881751,30.28674503622207],[48.25994063721806,30.308860112854866]]],[[[48.44769087029875,30.37843332822418],[48.53357999999935,30.400390000000655],[48.61197,30.353810000000518],[48.644220000000125,30.394220000000114],[48.72931000000062,30.31278000000019],[48.763919999999416,30.192559999999467],[48.460825998105065,30.316088959810628],[48.44769087029875,30.37843332822418]]],[[[48.73668999999973,30.29817],[48.91825682395936,30.346274261274736],[49.15229,30.054029999999333],[49.005645681909094,30.04464100103066],[48.91331,30.139189999999846],[48.75575000000026,30.203499999999607],[48.73668999999973,30.29817]]],[[[48.75021999999989,30.16641999999955],[48.824280000000726,30.180529999999607],[48.99855735058004,30.04358347957252],[48.90195372612974,30.020718098171045],[48.75021999999989,30.16641999999955]]],[[[50.17266152946199,30.058144150143544],[50.24418999999944,29.84015],[49.98192000000016,30.043149999999507],[49.16126190560176,30.053825794373225],[48.920555471325464,30.358459116679928],[49.09295402378309,30.460978395458543],[49.03745810880151,30.507105215268147],[48.896255484883795,30.500597847711617],[49.04139864714337,30.501446659476553],[49.09164051100247,30.43606648858459],[48.78118999999968,30.30353],[48.64761,30.396609999999768],[48.60981,30.35743999999976],[48.5366699999995,30.40374999999949],[48.44178006278593,30.38409902820201],[48.456557081568036,30.30985233910556],[48.6825000000008,30.188609999999215],[48.73125000000074,30.041559999999656],[48.74039000000085,30.10214000000084],[48.6613300000008,30.203810000000857],[48.878919999999205,30.05424999999922],[48.89326448983044,30.016679730028137],[48.75723474191572,29.94604233527716],[48.57740025738595,30.128391875663084],[48.58120000000052,30.20161],[48.47560301688717,30.196815805679876],[48.46805031839914,30.25774688637051],[48.26060999999935,30.384780000000305],[48.46345302366694,30.665905267907284],[48.539636764943495,30.93330234323629],[49.142539131252754,31.24376126386616],[49.192452616916704,31.167365598452847],[49.145166156814014,30.721250867387138],[49.409182225720684,30.746089585754337],[49.55629565715127,30.688499141459566],[49.612776706718364,30.49628294004477],[49.71129016526563,30.368305071299726],[50.08170076940335,30.18908145655142],[50.17266152946199,30.058144150143544]]],[[[47.84971417691745,30.242712690168535],[47.98902862621264,30.003346154838134],[48.033031304363725,29.813772373531588],[48.22126000000025,29.530860000000736],[48.19043000000055,29.50994],[47.992558691811,29.844609774660753],[47.84971417691745,30.242712690168535]]]]},"properties":{}},{"type":"Feature","geometry":{"type":"MultiPolygon","coordinates":[[[[46.75301309963995,30.786791472692677],[46.507386209662194,30.75039337181184],[46.098719545787915,30.95301733171855],[45.936200000000106,31.110919999999144],[46.05656000000088,31.11989],[46.478488928488346,30.908864197744638],[46.317699999999604,30.9791100000002],[46.302139999999774,31.030080000000435],[46.16993999999976,31.039810000000205],[46.0570800000005,31.122300000000873],[45.93278,31.115470000000624],[45.75375825177575,31.270218523313822],[45.715994759332624,31.45780255294074],[46.09494319654439,31.21771783713232],[46.159962079185576,31.33391006452665],[46.25322148661031,31.387747700457123],[46.09954049127659,31.423622322558995],[45.970816238774916,31.589363864826844],[45.97738380267806,31.693361745717198],[46.046999980051446,31.790544690355038],[46.27423769110041,31.78607874598996],[46.3661835857445,31.6732422032129],[46.3530484579382,31.59160160187415],[46.49228081268497,31.55914915518508],[46.607869937380386,31.441554489743886],[46.640707756896134,31.50540994648357],[46.496221351026854,31.64752755447285],[46.536940247226376,31.836308178302023],[46.72608608763707,31.758161706863817],[46.87714005740951,31.792777581635676],[46.99404269488557,31.594958106667097],[47.16873989470933,31.52892465560259],[47.3342425050687,31.312590818572016],[47.35131817121689,30.996727842554343],[47.3073000000004,30.928970000000835],[47.20403000000078,30.944170000000657],[47.30593000000045,30.924650000000828],[47.35958000000028,30.966249999999466],[47.60335973082937,30.772473574721413],[47.617304509294435,30.68546339710861],[47.56804778002073,30.647049460676694],[47.40254516966138,30.7063586807774],[46.75301309963995,30.786791472692677]]],[[[47.50434241016045,30.652063910721164],[47.170381785685066,30.716804625929413],[47.5444045499694,30.650722041123192],[47.50434241016045,30.652063910721164]]],[[[47.15790341426907,30.71906305991021],[46.83822724128309,30.714757874446722],[46.67518746738765,30.772685315554547],[47.15790341426907,30.71906305991021]]],[[[46.61410912308802,30.753709272512577],[46.52544701039542,30.73988050638712],[46.655484775678204,30.77607098192073],[46.61410912308802,30.753709272512577]]],[[[46.43744165409313,30.745242916679597],[45.95965138013857,31.03802677535586],[45.75901230289715,31.08725251950997],[45.687920000000304,31.161389999999283],[45.932231800842985,31.111715263377825],[46.09937630217824,30.947384892871284],[46.479474063073795,30.750675580571944],[46.43744165409313,30.745242916679597]]],[[[45.46774084379218,31.40533638699946],[45.52947594448184,31.401973068322228],[45.6496623639096,31.28193594694528],[45.83847982612532,31.226352976134834],[45.927798695208246,31.11537007480041],[45.69417000000067,31.16367],[45.46774084379218,31.40533638699946]]]]},"properties":{}},{"type":"Feature","geometry":{"type":"MultiPolygon","coordinates":[[[[27.4498688,37.5263406],[27.5394076,37.4803343],[27.3693891,37.5121681],[27.4284229,37.5568402],[27.4073564,37.5210549],[27.4498688,37.5263406]],[[27.4010624,37.5265423],[27.4010624,37.5265423]],[[27.399846,37.5257553],[27.399846,37.5257553]],[[27.3995956,37.5231795],[27.3995956,37.5231795]],[[27.4137438,37.5445812],[27.4137438,37.5445812]],[[27.4298114,37.5410503],[27.4298114,37.5410503]],[[27.4656019,37.5094561],[27.4656019,37.5094561]],[[27.4851749,37.4785034],[27.4851749,37.4785034]],[[27.4879865,37.5056283],[27.4879865,37.5056283]],[[27.4925815,37.505451],[27.4925815,37.505451]],[[27.5211872,37.5002885],[27.5211872,37.5002885]],[[27.5345394,37.4834681],[27.5345394,37.4834681]]]]},"properties":{}},{"type":"Feature","geometry":{"type":"MultiPolygon","coordinates":[[[[33.82611,28.207220000000234],[34.03064000000086,28.12536],[33.98939000000064,28.089780000000246],[34.042779999999766,28.087799999999334],[34.03100000000086,28.015779999999722],[34.136500000000524,27.934110000000146],[34.07256000000052,27.81495],[33.857389999999214,27.95991999999933],[33.901,28.02291999999943],[33.78788999999961,28.231359999999768],[33.82611,28.207220000000234]],[[33.93535999999949,28.08439],[33.93535999999949,28.08439]],[[33.96502999999939,28.07322000000022],[33.96502999999939,28.07322000000022]],[[33.97849999999926,28.07314000000042],[33.97849999999926,28.07314000000042]],[[34.01224999999977,28.024310000000696],[34.01224999999977,28.024310000000696]],[[34.029169999999795,27.914919999999256],[34.07409,27.9636100000007],[34.024639999999636,27.947249999999258],[33.959279999999126,28.037780000000566],[34.029169999999795,27.914919999999256]],[[33.97933000000012,28.10736],[33.97933000000012,28.10736]]]]},"properties":{}},{"type":"Feature","geometry":{"type":"MultiPolygon","coordinates":[[[[4.445261050812623,43.45952743268236],[4.459509579175074,43.517237504322765],[4.536708721408219,43.510410009647956],[4.503839339906278,43.49715984049659],[4.531856617721895,43.47197782100097],[4.445261050812623,43.45952743268236]],[[4.502436212907434,43.47434934561499],[4.502436212907434,43.47434934561499]],[[4.473830526995527,43.46985585167288],[4.473830526995527,43.46985585167288]],[[4.48273812033012,43.47695068940386],[4.48273812033012,43.47695068940386]],[[4.443776451923523,43.4635486299997],[4.443776451923523,43.4635486299997]],[[4.456332175455112,43.485706410090565],[4.456332175455112,43.485706410090565]],[[4.462252466147007,43.48658650987231],[4.462252466147007,43.48658650987231]],[[4.463284443423574,43.485640730488214],[4.463284443423574,43.485640730488214]],[[4.491021095839423,43.4888720822494],[4.491021095839423,43.4888720822494]],[[4.475088815078362,43.49559694299877],[4.475088815078362,43.49559694299877]],[[4.485209434334536,43.490330074617724],[4.485209434334536,43.490330074617724]],[[4.490197324504618,43.48415635243084],[4.490197324504618,43.48415635243084]],[[4.500797722670075,43.48543055528078],[4.500797722670075,43.48543055528078]]]]},"properties":{}}]}