{"type":"FeatureCollection","features":[{"type":"Feature","geometry":{"type":"MultiPolygon","coordinates":[[[[-7.661889999999403,29.35081],[-7.425569999999425,29.4092],[-7.133099999999104,29.62684000000081],[-6.944900000000416,29.683530000000246],[-6.838669999999183,29.62369000000035],[-6.491550000000643,29.593269999999393],[-6.468969999999899,29.835259999999835],[-6.56639,29.759589999999662],[-6.821729999999661,29.931140000000596],[-6.663300000000163,29.838260000000446],[-6.388890000000174,29.94836000000032],[-6.267990000000282,29.945980000000418],[-6.151069999999891,29.898150000000896],[-6.142190000000483,29.81536000000051],[-5.983410000000731,29.772730000000593],[-5.796329999999216,29.850689999999304],[-5.75742,30.04277],[-5.677820000000793,29.997950000000856],[-5.684180000000197,29.930050000000847],[-5.61305,29.845649999999296],[-5.755769999999757,29.855030000000625],[-5.85103,29.76541],[-5.78324000000066,29.638170000000173],[-6.04653,29.56909000000087],[-6.30779000000075,29.60587999999916],[-6.509299999999712,29.545669999999518],[-6.800370000000839,29.533369999999195],[-7.062149999999747,29.613639999999577],[-7.430449999999837,29.36117000000013],[-7.661889999999403,29.35081]]]]},"properties":{}},{"type":"Feature","geometry":{"type":"MultiPolygon","coordinates":[[[[45.14977999999974,38.26514999999927],[45.35916999999972,38.25444000000061],[45.53465999999935,38.12536],[45.54774,37.94511000000057],[45.41628,37.910610000000815],[45.4061700000002,37.810670000000755],[45.489449999999124,37.72204000000056],[45.600689999999304,37.82257000000027],[45.77795999999944,37.70537999999942],[45.79699000000073,37.62151000000085],[45.667310000000725,37.6221000000005],[45.88264999999956,37.39783999999963],[45.97664000000077,37.37344999999914],[45.798179999999775,37.21224000000075],[45.70537999999942,37.21104999999989],[45.657789999999295,37.11528],[45.7470200000007,37.07899],[45.72739,37.026050000000396],[45.656010000000606,37.008200000000215],[45.66671999999926,37.04150999999911],[45.58403,37.049839999999676],[45.52752,37.123600000000806],[45.45079000000078,37.10873],[45.31753000000026,37.2497199999998],[45.23365999999987,37.65243999999984],[45.26020000000062,37.738649999999325],[45.06293,37.83506],[45.0635199999997,37.97426000000087],[45.19557999999961,38.03255999999965],[45.21342999999979,38.11678000000029],[45.17059999999947,38.16045],[45.14205000000038,38.114050000000134],[45.12241999999969,38.15034000000014],[45.00761000000057,38.13904],[45.06174,38.240169999999125],[45.14977999999974,38.26514999999927]],[[45.67237000000023,37.487240000000384],[45.58849,37.51579],[45.5640999999996,37.47564000000057],[45.61644999999953,37.4447],[45.67237000000023,37.487240000000384]],[[45.48735999999917,37.450950000000375],[45.53940999999941,37.4723699999995],[45.48588000000018,37.499729999999545],[45.48735999999917,37.450950000000375]],[[45.53852,37.424479999999676],[45.50461,37.439650000000256],[45.48290000000088,37.38938000000053],[45.55369000000064,37.33316999999988],[45.53852,37.424479999999676]]]]},"properties":{}},{"type":"Feature","geometry":{"type":"MultiPolygon","coordinates":[[[[43.456200000000536,39.001000000000204],[43.66201999999976,38.9308],[43.55138000000079,38.9195],[43.39552,38.82193999999981],[43.32829999999922,38.8469299999997],[43.0980899999995,38.61374000000069],[43.18433999999979,38.62444999999934],[43.322949999999764,38.548899999999776],[43.32771,38.44717999999921],[43.15281999999934,38.368060000000696],[43.1563900000001,38.31452],[42.93985000000066,38.33296],[42.907139999999345,38.426949999999124],[42.94283,38.43527999999969],[42.87322999999924,38.44956],[42.88989000000038,38.50191000000086],[42.70190999999977,38.42874],[42.57818000000043,38.50488000000041],[42.51571999999942,38.468590000000404],[42.44671000000017,38.51797000000079],[42.302159999999276,38.50130999999965],[42.42707999999948,38.57745000000068],[42.41697000000022,38.620279999999184],[42.498460000000705,38.6208800000004],[42.43779,38.697620000000825],[42.495489999999336,38.75294000000031],[42.73640999999952,38.79815000000053],[43.06478000000061,38.78744],[43.17303999999967,38.832650000000285],[43.20694999999978,38.89749],[43.0980899999995,38.85526000000027],[43.07251,38.93853999999919],[43.456200000000536,39.001000000000204]]]]},"properties":{}},{"type":"Feature","geometry":{"type":"MultiPolygon","coordinates":[[[[33.30912,38.93007000000034],[33.18657999999955,38.80455000000074],[33.30733999999945,38.62609],[33.49234000000082,38.5945599999996],[33.54052000000053,38.72007999999916],[33.497495535397945,38.803980719755764],[33.553355537265595,38.75686325881185],[33.56045000000092,38.81645000000037],[33.654140000000666,38.635910000000884],[33.545280000000396,38.48689000000025],[33.66008999999953,38.59843],[33.66842,38.70997],[33.78435956036408,38.531201125671885],[33.736770340247645,38.530725233470676],[33.749619429678994,38.45696194228992],[33.65872401925641,38.44791999046783],[33.690608796734416,38.403186123558285],[33.95044593857113,38.40366201575944],[33.95282539957696,38.35559690344168],[33.63159816378988,38.282309504462106],[33.601616955116484,38.20378729126969],[33.55878665701154,38.2989657315029],[33.51768580668626,38.28324303839851],[33.53077284221832,38.333211719520946],[33.478127267464345,38.32607333650345],[33.485265650481836,38.2439819318023],[33.42182922006636,38.43015096089829],[33.38851676598471,38.28119670193327],[33.277575888293654,38.456124594531325],[33.32472601219416,38.26044780196241],[33.220881803405966,38.41042312456263],[33.179479181904426,38.37116201796642],[33.20196508840957,38.31441187297743],[33.12308595606641,38.34475000080175],[33.058513333020656,38.52767106562492],[32.93495000000082,38.56542000000082],[33.139156481184166,38.550700778114],[33.27692727342163,38.600758689024076],[33.13273193646837,38.716400493907486],[33.19174256941295,38.9138957573914],[33.30912,38.93007000000034]]],[[[33.30912,38.93007000000034],[33.35973251642453,39.01764025724555],[33.29025225505438,39.127571355714984],[33.32879952334872,39.15469721118149],[33.39121,39.00443000000082],[33.30912,38.93007000000034]]]]},"properties":{}},{"type":"Feature","geometry":{"type":"MultiPolygon","coordinates":[[[[23.249364866622443,51.43757279615585],[23.21034170612694,51.43091030533958],[23.33478478563933,51.41428821957436],[23.423657654207204,51.49923497748233],[23.667314461204114,51.468896849657995],[23.75062000000071,51.50729999999936],[23.75454,51.54941999999937],[23.570029198607187,51.55214686151214],[23.616577404533757,51.57951066307919],[23.58861873771525,51.65327395425993],[23.681417716942633,51.71038101839986],[23.776298724550145,51.69788884811925],[23.795334412596787,51.7841443095806],[24.025194636126344,51.847351491165455],[24.5320198303682,51.86876664021793],[24.665269646694696,51.82593634211298],[24.710479405805472,51.7093427528273],[24.650992880659715,51.01216067811902],[24.5824157124149,50.98448132542683],[24.47890915866128,51.05729283220518],[24.388251694339033,51.010179504289795],[24.597406316751574,50.877405580164464],[24.44535875847896,50.892396184501195],[24.386142526499725,50.95209847479066],[24.138083716641916,50.869412204838056],[23.895233816572215,51.02605691249147],[23.809970607984724,50.96904322710088],[23.95040421094484,50.942026064972595],[23.857605231717457,50.87421142630643],[23.791515338313275,50.93635103511144],[23.624477175703987,50.94705860963768],[23.782949278692172,50.98846123113924],[23.850763917358336,51.107672227531225],[23.57950536269368,51.0113040567951],[23.562373243451702,51.05127900169305],[23.68443959305091,51.09196778489286],[23.570939303072805,51.107672227531225],[23.56094556684826,51.16906232148165],[23.484250085698818,51.15556259818135],[23.458373447260442,51.2263515631048],[23.34624134736066,51.29297647126805],[23.448397061272544,51.31911708116178],[23.46172204290508,51.264865370228904],[23.805147666992355,51.156818011722464],[23.845690051600968,51.1991254498156],[23.637768552809575,51.26873065359712],[23.64633461243045,51.34868054339313],[23.496904461264364,51.33440377735815],[23.521650855725056,51.4400518460169],[23.309402934004993,51.37818585986531],[23.378883195375238,51.36866801584199],[23.36746178254731,51.330596639748705],[23.057239553911984,51.34408025211508],[23.024242883147906,51.4614443541376],[23.088473533230456,51.55120675175516],[23.022800409469653,51.639722701172104],[23.138442214352892,51.70682350153652],[22.965733003013042,51.74776609391],[23.07847979700597,51.8453081320759],[23.088473533230456,51.77106894869394],[23.23076818518001,51.724716389145954],[23.204154995797296,51.64557617524645],[23.37236306006787,51.65596648830524],[23.483007996838978,51.75233465904137],[23.547114642104248,51.643434660341086],[23.56281908474267,51.58204456639072],[23.47822924598546,51.54977907515172],[23.298341993944746,51.612596845705525],[23.088599999999076,51.532999999999504],[23.253029999999853,51.47445999999945],[23.249364866622443,51.43757279615585]],[[24.315006927369268,51.45143071897917],[24.222239674288573,51.41879244551592],[24.254362397867283,51.35692645936433],[24.193092971883345,51.34701109683863],[24.2037081365188,51.29940127286085],[24.375088317766483,51.43180016568107],[24.345939920445062,51.47998425104913],[24.315006927369268,51.45143071897917]],[[23.834140000000843,51.4748199999994],[23.88875,51.52193000000091],[23.7738200000004,51.48373999999973],[23.834140000000843,51.4748199999994]],[[24.25594849304798,51.518155033338246],[24.220256577960527,51.50435415950426],[24.262746301665686,51.47385856647816],[24.516026392672757,51.49826182839837],[24.43118411097896,51.54235587266453],[24.25594849304798,51.518155033338246]],[[23.863180000000398,51.539899999999875],[23.88637999999986,51.56130999999925],[23.814990000000876,51.581659999999886],[23.863180000000398,51.539899999999875]],[[24.414349424362683,51.40443636411402],[24.31976584938093,51.37171877528385],[24.337643533071343,51.20226149398536],[24.400699249725847,51.1975025719737],[24.369287500737414,51.35714237055993],[24.414349424362683,51.40443636411402]],[[24.275036939681627,51.19720513934794],[24.17912941899249,51.17368578095858],[24.28442056850048,51.11122492955553],[24.343565416649483,51.17007928388142],[24.275036939681627,51.19720513934794]],[[24.485333703376853,51.127962824078224],[24.60882772957956,51.13153201558697],[24.508890367334686,51.18506988821815],[24.485333703376853,51.127962824078224]],[[23.97507874043754,51.20237315771004],[24.085723677208648,51.24734497072029],[23.931869933130088,51.28110385082749],[23.838464048251637,51.24202770822899],[23.917395269895167,51.2108850665669],[23.867806806812553,51.17367252718043],[23.91144017300701,51.15264404054153],[23.97507874043754,51.20237315771004]],[[24.30405112179858,51.0808868017312],[24.23266729162367,51.03627190787188],[24.312379235318986,50.977677680603335],[24.30405112179858,51.0808868017312]]]]},"properties":{}},{"type":"Feature","geometry":{"type":"MultiPolygon","coordinates":[[[[-0.82683,45.38369000000057],[-0.646183853114735,45.04669085009459],[-0.754259606323785,45.126372383321836],[-0.870035255888638,45.36184582734302],[-0.943322654868268,45.37231545576856],[-0.995139582327056,45.187644297375584],[-0.867243553263677,45.13708075100169],[-0.97946257901998,45.073099309429324],[-0.987862076370504,44.87547714135826],[-0.945031778265559,44.86405572853033],[-0.887210875823939,44.944719456628036],[-0.803691794519239,44.86976643494438],[-0.857943505452226,44.801237957976525],[-0.964305412412784,44.808376340994016],[-0.942890263360312,44.51570263727689],[-0.983646587380463,44.30774460176019],[-1.200653431112187,44.22779471196418],[-1.192090000000348,44.304930000000354],[-1.106069999999818,44.33919000000071],[-1.195299999999406,44.383449999999414],[-1.180669999999679,44.429850000000556],[-1.08144,44.48696000000024],[-1.224459815716898,44.56233015857032],[-1.204610000000628,44.640859999999634],[-1.02006000000074,44.655300000000295],[-1.165956185224388,44.78052080668516],[-1.102979999999661,44.96249],[-1.13213,45.06362000000087],[-1.05753,45.12393999999949],[-1.156580000000758,45.478580000000875],[-1.065839999999241,45.56366],[-0.82683,45.38369000000057]]]]},"properties":{}},{"type":"Feature","geometry":{"type":"MultiPolygon","coordinates":[[[[-6.305126293579633,34.769770266519345],[-6.294180772952814,34.64461061761256],[-6.354048011859561,34.551811638385175],[-6.317042729475304,34.532483942883914],[-6.209324529741366,34.63720402175045],[-6.253939423600684,34.69752335824836],[-6.178629482766155,34.6689698261784],[-6.112987291998365,34.74282353687738],[-6.027117303219939,34.71161452632481],[-6.080417229750537,34.65831459979432],[-5.890812258961944,34.581026533710144],[-5.882960037642704,34.504883781523574],[-5.826856313715837,34.49034617676074],[-5.78844784649101,34.5529488938414],[-5.75706,34.53425000000061],[-5.820808516170416,34.48561014737646],[-5.790351415295731,34.44825260958487],[-5.682049999999435,34.463830000000655],[-5.578750000000468,34.40989000000093],[-5.915150364881242,34.27689791038836],[-6.048876073408849,34.29087724379764],[-6.264271836441708,34.34545592836463],[-6.151675741645761,34.47330912712994],[-6.043648211981122,34.463791283106616],[-6.075532989459191,34.43761721204248],[-5.890166024320024,34.34173822279723],[-5.880913701177633,34.3991246713511],[-6.232881193698972,34.570460140536966],[-6.236735920528531,34.461100112709005],[-6.319900000000359,34.4952200000007],[-6.379979999999648,34.4544700000007],[-6.298304474054362,34.37900870800786],[-6.3861065851695,34.39292855489185],[-6.351485427534726,34.336535329053845],[-6.470992135021618,34.337226383056134],[-6.549906288659486,34.25063064376809],[-6.561327701487414,34.363417095444504],[-6.42674054558762,34.49815479270376],[-6.433284063353653,34.58559998466802],[-6.424955949833247,34.5171904807504],[-6.374392403459353,34.518380211253316],[-6.420641130423633,34.513621289241655],[-6.320497611677297,34.60820486422341],[-6.305126293579633,34.769770266519345]],[[-5.968688237512424,34.38903001028814],[-6.066127165701118,34.31615901698456],[-6.009733939862997,34.34263052067445],[-5.9353757834308,34.299205357318044],[-5.968688237512424,34.38903001028814]],[[-6.114013818443482,34.32299996737635],[-6.07802447073027,34.35006633631764],[-6.176481070596651,34.36117065027469],[-6.114013818443482,34.32299996737635]],[[-6.099439619782743,34.37386094637594],[-6.075565167403056,34.394574597657254],[-6.125704210302445,34.410922324553326],[-6.099439619782743,34.37386094637594]],[[-6.134728427208643,34.66825598787648],[-6.091267571937124,34.66326387868645],[-6.141731180948796,34.687429684661595],[-6.133464240752403,34.63386675727628],[-6.134728427208643,34.66825598787648]]]]},"properties":{}},{"type":"Feature","geometry":{"type":"MultiPolygon","coordinates":[[[[7.794499759451639,33.85612066224542],[7.954018825282503,33.81995285495674],[8.193868494670141,33.852313524636145],[8.174832806623499,33.922745570408665],[8.481307384174386,34.03505612988391],[8.65643571420344,33.99127404737652],[8.972428135777704,34.004599029009285],[9.208470667556071,33.90561345116663],[9.391213272803839,33.90370988236202],[9.279283427089524,33.8009171669101],[9.00707308802265,33.81043501093342],[8.944255317468674,33.88086705670611],[8.81861977636089,33.913227726385344],[8.793873381900141,33.89038490072943],[8.89476252854746,33.791399322886775],[8.782451969072213,33.79711002930088],[8.696791372862322,33.86563850626874],[8.624455758285194,33.85040995583154],[8.751994868197642,33.755231515598325],[8.923316060617424,33.70764229548172],[9.048951601725207,33.517285415015294],[8.911894647789438,33.49444258935921],[8.904280372570781,33.593428167201864],[8.841462602016747,33.58391032317854],[8.811005501142176,33.5191889838199],[8.868112565282104,33.45256407565665],[8.791969813095534,33.444949800437996],[8.780548400267605,33.399264149126],[8.740573455369656,33.48492474533589],[8.66633427198775,33.48492474533589],[8.592095088605959,33.33263924096275],[8.538795162075303,33.39355344271212],[8.37318467606957,33.41449269956337],[7.975338795894743,33.66005307536511],[7.866835374028767,33.65434236895106],[7.741199832920927,33.75713508440293],[7.794499759451639,33.85612066224542]]]]},"properties":{}},{"type":"Feature","geometry":{"type":"MultiPolygon","coordinates":[[[[27.007607163453823,29.949779772714976],[26.939971087216833,29.905669288212593],[27.023781007771362,30.076229828288476],[27.188460149913592,30.177683942643956],[27.26785902201788,30.14974730245911],[27.39430907759138,30.251201416814595],[27.832473223648385,30.373240423937855],[28.022148307008635,30.39235496722222],[28.150068712065544,30.34824448271984],[28.44560895823151,30.385003219805157],[28.533829927236276,30.283549105449676],[28.658809633326364,30.308545046667692],[28.573529363288422,30.252671766298008],[28.32209960162484,30.28501945493309],[28.03097040390911,30.20120953437856],[27.970686075089187,30.24384966939753],[27.903049998852197,30.124751361241096],[27.863350562800054,30.102696118989904],[27.83541392261521,30.145336254008875],[27.7765999432787,30.074759478805063],[27.595746956818928,30.11592926434062],[27.594276607335516,30.049763537587044],[27.70308246910806,29.996830956184183],[27.551636472316545,29.98800885928371],[27.54722542386631,29.923313482013548],[27.470767250728844,29.94683907374815],[27.522229482648292,30.052704236553872],[27.37225383534019,30.0100641015349],[27.36343173843971,30.092403672606014],[27.279621817885186,30.014475149985138],[27.14876071386145,29.99389025721736],[27.09288743349176,29.9409576758145],[27.184049101463355,29.804215173857113],[27.014958910870885,29.751282592454253],[26.988492620169456,29.689527914150915],[27.3619613889563,29.614540090496863],[27.182578751979943,29.599836595662737],[27.184049101463355,29.535141218392575],[27.23992238183304,29.51161562665797],[27.344317195155345,29.539552266842815],[27.35166894257241,29.45868304525511],[27.311969506520263,29.44250920093757],[27.023781007771362,29.541022616326227],[27.119353724193193,29.62336218739734],[26.813521031643337,29.693938962601155],[26.998785066553346,29.801274474890285],[26.98996296965287,29.867440201643863],[27.067891492273745,29.949779772714976],[27.007607163453823,29.949779772714976]]]]},"properties":{}},{"type":"Feature","geometry":{"type":"MultiPolygon","coordinates":[[[[34.16967949715742,30.671721369070614],[34.38140982276886,30.58055970109902],[34.43434240417172,30.509982925895205],[34.222612078560275,30.612907389734104],[34.243196971328054,30.536449216596637],[34.181442293024716,30.562915507298065],[34.131450410588684,30.433524752757737],[34.0991027219536,30.45410964552552],[34.025585247782956,30.38647356928853],[34.19908648682567,30.227675825079945],[34.29024815479727,30.224735126113117],[34.41963890933759,30.142395555042],[34.14027250748916,30.212972330245815],[34.00500035501518,30.345303783752968],[33.93148288084454,30.354125880653445],[33.88443169737533,30.31883749305154],[33.90795728910993,30.221794427146293],[33.86678750357437,30.186506039544383],[34.01676315088248,29.98065711186659],[34.04911083951757,29.666002322416247],[34.00500035501518,29.6718837203499],[33.975593365346924,29.789511679022922],[33.99911895708153,29.924783831496903],[33.8579654066739,30.101225769506442],[33.834439814939294,29.977716412899763],[33.663879274863405,29.84538495939261],[33.522725724455775,29.62483253688069],[33.51096292858847,29.554255761676874],[33.56095481102451,29.50426387924084],[33.44038615338466,29.518967374074965],[33.593302499659586,29.830681464558484],[33.80797352423786,30.0277082953358],[33.82267701907199,30.177683942643906],[33.47861523995339,30.151217651942478],[33.402157066815924,30.045352489136754],[33.4109791637164,29.96595361703246],[33.32863959264528,29.945368724264682],[33.261003516408294,29.83362216352531],[33.375690776114496,30.039471091203104],[33.26394421537512,29.983597810833416],[33.30511400091068,30.065937381904533],[33.44920825028513,30.165921146776604],[33.790329330436904,30.248260717847725],[33.890313095308976,30.380592171354877],[34.087339926086294,30.48057593622695],[34.16967949715742,30.671721369070614]]]]},"properties":{}},{"type":"Feature","geometry":{"type":"MultiPolygon","coordinates":[[[[48.227775600073194,29.536074057686044],[48.044196162999064,29.80322992520716],[47.993297542749644,30.003346154838134],[48.20214607486978,30.0050523857862],[48.52218,29.790590000000517],[48.227775600073194,29.536074057686044]]],[[[48.08081033175956,30.30460760086988],[48.276359546975364,30.195396704558004],[48.48258105353421,29.96124983960319],[48.65256241248062,29.88681788601701],[48.53045140217627,29.796852801310077],[48.20805688238261,30.009602191533915],[47.99953672845766,30.003914901747514],[47.78313549784887,30.384523942459346],[47.813510480901265,30.450221762232953],[47.87393206881026,30.451920256946376],[48.08081033175956,30.30460760086988]]],[[[48.25994063721806,30.308860112854866],[48.280360000000655,30.368529999999716],[48.45333000000027,30.262360000000605],[48.467749999999796,30.190860000000594],[48.559310000000565,30.206389999999356],[48.57370000000082,30.117749999999422],[48.744691721304015,29.939447104138214],[48.658154073556055,29.890277382558224],[48.48126754075361,29.970353257470585],[48.16503933881751,30.28674503622207],[48.25994063721806,30.308860112854866]]],[[[48.44769087029875,30.37843332822418],[48.53357999999935,30.400390000000655],[48.61197,30.353810000000518],[48.644220000000125,30.394220000000114],[48.72931000000062,30.31278000000019],[48.763919999999416,30.192559999999467],[48.460825998105065,30.316088959810628],[48.44769087029875,30.37843332822418]]],[[[48.73668999999973,30.29817],[48.91825682395936,30.346274261274736],[49.15229,30.054029999999333],[49.005645681909094,30.04464100103066],[48.91331,30.139189999999846],[48.75575000000026,30.203499999999607],[48.73668999999973,30.29817]]],[[[48.75021999999989,30.16641999999955],[48.824280000000726,30.180529999999607],[48.99855735058004,30.04358347957252],[48.90195372612974,30.020718098171045],[48.75021999999989,30.16641999999955]]],[[[50.17266152946199,30.058144150143544],[50.24418999999944,29.84015],[49.98192000000016,30.043149999999507],[49.16126190560176,30.053825794373225],[48.920555471325464,30.358459116679928],[49.09295402378309,30.460978395458543],[49.03745810880151,30.507105215268147],[48.896255484883795,30.500597847711617],[49.04139864714337,30.501446659476553],[49.09164051100247,30.43606648858459],[48.78118999999968,30.30353],[48.64761,30.396609999999768],[48.60981,30.35743999999976],[48.5366699999995,30.40374999999949],[48.44178006278593,30.38409902820201],[48.456557081568036,30.30985233910556],[48.6825000000008,30.188609999999215],[48.73125000000074,30.041559999999656],[48.74039000000085,30.10214000000084],[48.6613300000008,30.203810000000857],[48.878919999999205,30.05424999999922],[48.89326448983044,30.016679730028137],[48.75723474191572,29.94604233527716],[48.57740025738595,30.128391875663084],[48.58120000000052,30.20161],[48.47560301688717,30.196815805679876],[48.46805031839914,30.25774688637051],[48.26060999999935,30.384780000000305],[48.46345302366694,30.665905267907284],[48.539636764943495,30.93330234323629],[49.142539131252754,31.24376126386616],[49.192452616916704,31.167365598452847],[49.145166156814014,30.721250867387138],[49.409182225720684,30.746089585754337],[49.55629565715127,30.688499141459566],[49.612776706718364,30.49628294004477],[49.71129016526563,30.368305071299726],[50.08170076940335,30.18908145655142],[50.17266152946199,30.058144150143544]]],[[[47.84971417691745,30.242712690168535],[47.98902862621264,30.003346154838134],[48.033031304363725,29.813772373531588],[48.22126000000025,29.530860000000736],[48.19043000000055,29.50994],[47.992558691811,29.844609774660753],[47.84971417691745,30.242712690168535]]]]},"properties":{}},{"type":"Feature","geometry":{"type":"MultiPolygon","coordinates":[[[[46.75301309963995,30.786791472692677],[46.507386209662194,30.75039337181184],[46.098719545787915,30.95301733171855],[45.936200000000106,31.110919999999144],[46.05656000000088,31.11989],[46.478488928488346,30.908864197744638],[46.317699999999604,30.9791100000002],[46.302139999999774,31.030080000000435],[46.16993999999976,31.039810000000205],[46.0570800000005,31.122300000000873],[45.93278,31.115470000000624],[45.75375825177575,31.270218523313822],[45.715994759332624,31.45780255294074],[46.09494319654439,31.21771783713232],[46.159962079185576,31.33391006452665],[46.25322148661031,31.387747700457123],[46.09954049127659,31.423622322558995],[45.970816238774916,31.589363864826844],[45.97738380267806,31.693361745717198],[46.046999980051446,31.790544690355038],[46.27423769110041,31.78607874598996],[46.3661835857445,31.6732422032129],[46.3530484579382,31.59160160187415],[46.49228081268497,31.55914915518508],[46.607869937380386,31.441554489743886],[46.640707756896134,31.50540994648357],[46.496221351026854,31.64752755447285],[46.536940247226376,31.836308178302023],[46.72608608763707,31.758161706863817],[46.87714005740951,31.792777581635676],[46.99404269488557,31.594958106667097],[47.16873989470933,31.52892465560259],[47.3342425050687,31.312590818572016],[47.35131817121689,30.996727842554343],[47.3073000000004,30.928970000000835],[47.20403000000078,30.944170000000657],[47.30593000000045,30.924650000000828],[47.35958000000028,30.966249999999466],[47.60335973082937,30.772473574721413],[47.617304509294435,30.68546339710861],[47.56804778002073,30.647049460676694],[47.40254516966138,30.7063586807774],[46.75301309963995,30.786791472692677]]],[[[47.50434241016045,30.652063910721164],[47.170381785685066,30.716804625929413],[47.5444045499694,30.650722041123192],[47.50434241016045,30.652063910721164]]],[[[47.15790341426907,30.71906305991021],[46.83822724128309,30.714757874446722],[46.67518746738765,30.772685315554547],[47.15790341426907,30.71906305991021]]],[[[46.61410912308802,30.753709272512577],[46.52544701039542,30.73988050638712],[46.655484775678204,30.77607098192073],[46.61410912308802,30.753709272512577]]],[[[46.43744165409313,30.745242916679597],[45.95965138013857,31.03802677535586],[45.75901230289715,31.08725251950997],[45.687920000000304,31.161389999999283],[45.932231800842985,31.111715263377825],[46.09937630217824,30.947384892871284],[46.479474063073795,30.750675580571944],[46.43744165409313,30.745242916679597]]],[[[45.46774084379218,31.40533638699946],[45.52947594448184,31.401973068322228],[45.6496623639096,31.28193594694528],[45.83847982612532,31.226352976134834],[45.927798695208246,31.11537007480041],[45.69417000000067,31.16367],[45.46774084379218,31.40533638699946]]]]},"properties":{}},{"type":"Feature","geometry":{"type":"MultiPolygon","coordinates":[[[[42.06058999999914,32.11421999999948],[42.066720000000714,32.15622000000076],[41.8493899999994,32.19553000000087],[41.97622000000047,32.182779999999184],[42.08777999999984,32.27918999999929],[41.95806000000084,32.25317],[42.11975,32.29089000000022],[41.91947000000073,32.32572000000073],[42.060999999999694,32.3762200000001],[42.00994,32.38832999999977],[41.98414000000048,32.47256000000016],[41.89705999999933,32.4987],[42.11078000000089,32.401420000000144],[42.0884700000006,32.56025000000045],[42.324469999999565,32.26864000000023],[42.38714000000073,32.104],[42.44967,32.05667],[42.55316999999923,32.094670000000406],[42.5877,32.066720000000714],[42.53108000000066,32.08114000000023],[42.43766999999934,32.0],[42.4357,31.892970000000787],[42.337830000000395,31.91403],[42.39805999999953,31.924689999999828],[42.37483000000066,31.987999999999374],[42.42642,31.97041999999965],[42.43453000000045,32.04155999999966],[42.18678,32.05494],[42.35092000000077,32.079750000000786],[42.29911,32.14814],[42.202110000000175,32.10308000000077],[42.273080000000846,32.1830800000007],[42.20046999999977,32.23953000000074],[42.07827999999972,32.15613999999914],[42.16222000000016,32.114330000000336],[42.06058999999914,32.11421999999948]],[[42.2249699999993,32.267250000000786],[42.20341,32.29421999999977],[42.10850000000028,32.24260999999933],[42.19967,32.280800000000454],[42.27736,32.21594999999979],[42.2249699999993,32.267250000000786]],[[42.119080000000395,32.35922000000028],[42.05868999999984,32.32906],[42.190919999999096,32.31203],[42.119080000000395,32.35922000000028]]]]},"properties":{}},{"type":"Feature","geometry":{"type":"MultiPolygon","coordinates":[[[[32.772139999999126,26.714060000000245],[32.811830000000555,26.377560000000813],[32.998610000000554,26.36953],[32.94800000000032,26.331169999999474],[32.98913999999968,26.29081000000042],[32.92675000000054,26.345950000000812],[32.8383900000008,26.32085999999981],[32.96143999999913,26.25264000000061],[32.8372,26.27397000000019],[32.742809999999736,26.19633000000067],[32.694219999999405,26.273880000000645],[32.74892,26.30167000000074],[32.69578,26.338050000000294],[32.77169,26.329219999999623],[32.795169999999416,26.467280000000756],[32.70968999999968,26.53936000000067],[32.75594,26.54831000000013],[32.70561000000089,26.570530000000872],[32.72700000000077,26.615529999999126],[32.662420000000566,26.65306000000055],[32.691969999999856,26.66719000000012],[32.511609999999564,26.8176399999993],[32.4626700000008,26.924580000000788],[32.575049999999464,26.799440000000686],[32.55746999999974,26.973690000000715],[32.5929500000002,26.76144000000022],[32.72283000000061,26.670109999999113],[32.75964000000022,26.73446999999942],[32.72736000000077,26.77842000000055],[32.77397000000019,26.79746999999952],[32.7196100000001,26.8120600000002],[32.7762500000008,26.82006],[32.77372,26.892830000000686],[32.772139999999126,26.714060000000245]],[[32.73735999999917,26.263080000000627],[32.74345,26.296050000000832],[32.70521999999983,26.28542000000016],[32.73735999999917,26.263080000000627]]]]},"properties":{}}]}